<?xml version='1.0' encoding='utf-8'?>
<kml xmlns="http://www.opengis.net/kml/2.2"><Document><name>전주(완주) P1 후보지 - Google Earth용 KML</name><description>Leaflet/Folium HTML 지도에서 추출한 지자기 현장 답사 후보·제외 격자점·탐색반경 변환본</description><Folder><name>탐색 반경 (1개)</name><open>1</open><Placemark><name>탐색 반경 5km</name><description>&lt;b&gt;탐색 반경 5km&lt;/b&gt;&lt;br/&gt;위도: 35.59196000&lt;br/&gt;경도: 127.15795000</description><ExtendedData><Data name="category"><value>radius</value></Data><Data name="source_var"><value>circle_ed20b94457332a1f20a8cc36e0832f6d</value></Data><Data name="kind"><value>circle</value></Data><Data name="latitude"><value>35.59196</value></Data><Data name="longitude"><value>127.15795</value></Data><Data name="tooltip_text"><value>탐색 반경 5km</value></Data></ExtendedData><styleUrl>#polygon_4472c4</styleUrl><Polygon><tessellate>1</tessellate><outerBoundaryIs><LinearRing><coordinates>127.15795000,35.63692602,0.0 127.16036335,35.63688320,0.0 127.16277209,35.63675481,0.0 127.16517164,35.63654111,0.0 127.16755743,35.63624250,0.0 127.16992489,35.63585955,0.0 127.17226952,35.63539299,0.0 127.17458685,35.63484371,0.0 127.17687246,35.63421276,0.0 127.17912199,35.63350133,0.0 127.18133115,35.63271079,0.0 127.18349574,35.63184265,0.0 127.18561163,35.63089855,0.0 127.18767479,35.62988031,0.0 127.18968128,35.62878985,0.0 127.19162729,35.62762926,0.0 127.19350911,35.62640075,0.0 127.19532315,35.62510666,0.0 127.19706596,35.62374946,0.0 127.19873422,35.62233173,0.0 127.20032476,35.62085618,0.0 127.20183455,35.61932562,0.0 127.20326071,35.61774297,0.0 127.20460054,35.61611124,0.0 127.20585149,35.61443353,0.0 127.20701118,35.61271306,0.0 127.20807741,35.61095308,0.0 127.20904814,35.60915697,0.0 127.20992155,35.60732813,0.0 127.21069597,35.60547005,0.0 127.21136993,35.60358628,0.0 127.21194216,35.60168039,0.0 127.21241158,35.59975602,0.0 127.21277729,35.59781683,0.0 127.21303862,35.59586651,0.0 127.21319506,35.59390879,0.0 127.21324634,35.59194737,0.0 127.21319236,35.58998601,0.0 127.21303323,35.58802842,0.0 127.21276925,35.58607834,0.0 127.21240095,35.58413949,0.0 127.21192904,35.58221554,0.0 127.21135440,35.58031016,0.0 127.21067815,35.57842697,0.0 127.20990158,35.57656957,0.0 127.20902618,35.57474147,0.0 127.20805361,35.57294617,0.0 127.20698574,35.57118707,0.0 127.20582459,35.56946752,0.0 127.20457239,35.56779080,0.0 127.20323153,35.56616008,0.0 127.20180455,35.56457848,0.0 127.20029417,35.56304899,0.0 127.19870328,35.56157454,0.0 127.19703490,35.56015791,0.0 127.19529221,35.55880181,0.0 127.19347852,35.55750882,0.0 127.19159729,35.55628138,0.0 127.18965210,35.55512184,0.0 127.18764664,35.55403240,0.0 127.18558473,35.55301513,0.0 127.18347030,35.55207196,0.0 127.18130736,35.55120469,0.0 127.17910002,35.55041497,0.0 127.17685249,35.54970429,0.0 127.17456903,35.54907401,0.0 127.17225399,35.54852532,0.0 127.16991176,35.54805926,0.0 127.16754680,35.54767674,0.0 127.16516361,35.54737846,0.0 127.16276670,35.54716500,0.0 127.16036064,35.54703676,0.0 127.15795000,35.54699398,0.0 127.15553936,35.54703676,0.0 127.15313330,35.54716500,0.0 127.15073639,35.54737846,0.0 127.14835320,35.54767674,0.0 127.14598824,35.54805926,0.0 127.14364601,35.54852532,0.0 127.14133097,35.54907401,0.0 127.13904751,35.54970429,0.0 127.13679998,35.55041497,0.0 127.13459264,35.55120469,0.0 127.13242970,35.55207196,0.0 127.13031527,35.55301513,0.0 127.12825336,35.55403240,0.0 127.12624790,35.55512184,0.0 127.12430271,35.55628138,0.0 127.12242148,35.55750882,0.0 127.12060779,35.55880181,0.0 127.11886510,35.56015791,0.0 127.11719672,35.56157454,0.0 127.11560583,35.56304899,0.0 127.11409545,35.56457848,0.0 127.11266847,35.56616008,0.0 127.11132761,35.56779080,0.0 127.11007541,35.56946752,0.0 127.10891426,35.57118707,0.0 127.10784639,35.57294617,0.0 127.10687382,35.57474147,0.0 127.10599842,35.57656957,0.0 127.10522185,35.57842697,0.0 127.10454560,35.58031016,0.0 127.10397096,35.58221554,0.0 127.10349905,35.58413949,0.0 127.10313075,35.58607834,0.0 127.10286677,35.58802842,0.0 127.10270764,35.58998601,0.0 127.10265366,35.59194737,0.0 127.10270494,35.59390879,0.0 127.10286138,35.59586651,0.0 127.10312271,35.59781683,0.0 127.10348842,35.59975602,0.0 127.10395784,35.60168039,0.0 127.10453007,35.60358628,0.0 127.10520403,35.60547005,0.0 127.10597845,35.60732813,0.0 127.10685186,35.60915697,0.0 127.10782259,35.61095308,0.0 127.10888882,35.61271306,0.0 127.11004851,35.61443353,0.0 127.11129946,35.61611124,0.0 127.11263929,35.61774297,0.0 127.11406545,35.61932562,0.0 127.11557524,35.62085618,0.0 127.11716578,35.62233173,0.0 127.11883404,35.62374946,0.0 127.12057685,35.62510666,0.0 127.12239089,35.62640075,0.0 127.12427271,35.62762926,0.0 127.12621872,35.62878985,0.0 127.12822521,35.62988031,0.0 127.13028837,35.63089855,0.0 127.13240426,35.63184265,0.0 127.13456885,35.63271079,0.0 127.13677801,35.63350133,0.0 127.13902754,35.63421276,0.0 127.14131315,35.63484371,0.0 127.14363048,35.63539299,0.0 127.14597511,35.63585955,0.0 127.14834257,35.63624250,0.0 127.15072836,35.63654111,0.0 127.15312791,35.63675481,0.0 127.15553665,35.63688320,0.0 127.15795000,35.63692602,0.0</coordinates></LinearRing></outerBoundaryIs></Polygon></Placemark></Folder><Style id="polygon_4472c4"><LineStyle><color>ffc47244</color><width>2</width></LineStyle><PolyStyle><color>23c47244</color><fill>1</fill><outline>1</outline></PolyStyle></Style><Folder><name>P1 원점 (1개)</name><open>1</open><Placemark><name>P1 원점 (site_id=11, 도상 점수 61.1점)</name><description>&lt;div id="html_4660e338e7a03c9446ac60d52140011c" style="width: 100.0%; height: 100.0%;"&gt;&lt;b&gt;P1 원점 (site_id=11)&lt;/b&gt;&lt;br&gt;도상 종합점수: 61.1점&lt;br&gt;위도: 35.59196°N&lt;br&gt;경도: 127.15795°E&lt;/div&gt;</description><ExtendedData><Data name="category"><value>origin</value></Data><Data name="source_var"><value>marker_71425b078d5ca9927acee2835ef2d5c9</value></Data><Data name="kind"><value>marker</value></Data><Data name="latitude"><value>35.59196</value></Data><Data name="longitude"><value>127.15795</value></Data><Data name="popup_text"><value>P1 원점 (site_id=11) 도상 종합점수: 61.1점 위도: 35.59196°N 경도: 127.15795°E</value></Data><Data name="tooltip_text"><value>P1 원점 (site_id=11, 도상 점수 61.1점)</value></Data></ExtendedData><styleUrl>#point_4472c4</styleUrl><Point><coordinates>127.1579500000,35.5919600000,0</coordinates></Point></Placemark></Folder><Style id="point_4472c4"><IconStyle><color>ffc47244</color><scale>1.0</scale><Icon><href>http://maps.google.com/mapfiles/kml/shapes/placemark_circle.png</href></Icon></IconStyle><LabelStyle><scale>0.85</scale><color>ffc47244</color></LabelStyle></Style><Folder><name>답사 후보점 (7개)</name><open>1</open><Placemark><name>#1 종합 91.2점</name><description>&lt;div id="html_694c59a06a226925ac939cda9d20111c" style="width: 100.0%; height: 100.0%;"&gt; &lt;div style='font-family:맑은고딕,sans-serif;font-size:12px;min-width:240px'&gt; &lt;b style='font-size:14px'&gt;#1 후보점&lt;/b&gt;&amp;nbsp; &lt;span style='background:#00ef32;color:#fff;padding:2px 8px;border-radius:10px;font-weight:bold'&gt;91.2점&lt;/span&gt; &lt;hr style='margin:4px 0'&gt; &lt;table style='border-collapse:collapse;width:100%'&gt; &lt;tr&gt;&lt;td style='color:#555'&gt;위도&lt;/td&gt;&lt;td&gt;&lt;b&gt;35.60098°N&lt;/b&gt;&lt;/td&gt;     &lt;td style='color:#555'&gt;경도&lt;/td&gt;&lt;td&gt;&lt;b&gt;127.15791°E&lt;/b&gt;&lt;/td&gt;&lt;/tr&gt; &lt;tr&gt;&lt;td colspan=4&gt;&lt;hr style='margin:3px 0'&gt;&lt;/td&gt;&lt;/tr&gt; &lt;tr style='background:#f5f5f5'&gt;&lt;td colspan=4 style='font-weight:bold;padding:2px'&gt;점수 내역&lt;/td&gt;&lt;/tr&gt; &lt;tr&gt;&lt;td&gt;② 지형경사&lt;/td&gt;&lt;td&gt;13.5/15&lt;/td&gt;     &lt;td&gt;경사도&lt;/td&gt;&lt;td&gt;3.0°&lt;/td&gt;&lt;/tr&gt; &lt;tr&gt;&lt;td&gt;③ 전력·철도&lt;/td&gt;&lt;td&gt;14.5/15&lt;/td&gt;     &lt;td&gt;전력/철도&lt;/td&gt;&lt;td&gt;5.4/6.6km&lt;/td&gt;&lt;/tr&gt; &lt;tr&gt;&lt;td&gt;④ 인구이격&lt;/td&gt;&lt;td&gt;14.4/15&lt;/td&gt;     &lt;td&gt;도시&lt;/td&gt;&lt;td&gt;1.1km&lt;/td&gt;&lt;/tr&gt; &lt;tr&gt;&lt;td&gt;⑤ 모델기여&lt;/td&gt;&lt;td&gt;8.0/10&lt;/td&gt;     &lt;td&gt;P90-P10&lt;/td&gt;&lt;td&gt;116nT&lt;/td&gt;&lt;/tr&gt; &lt;tr&gt;&lt;td&gt;⑥ 암상&lt;/td&gt;&lt;td&gt;4.4/5&lt;/td&gt;     &lt;td&gt;암상/단층&lt;/td&gt;&lt;td&gt;0.6km/0.9km&lt;/td&gt;&lt;/tr&gt; &lt;tr style='background:#EEF4FF'&gt;&lt;td colspan=2&gt;&lt;b&gt;합계&lt;/b&gt;&lt;/td&gt;     &lt;td colspan=2&gt;&lt;b&gt;54.7/60점 → 91.2점&lt;/b&gt;&lt;/td&gt;&lt;/tr&gt; &lt;/table&gt; &lt;hr style='margin:4px 0'&gt; &lt;span style='color:#1a5276'&gt;🚗 도로접근: 288m&lt;/span&gt; &lt;/div&gt;&lt;/div&gt;</description><ExtendedData><Data name="category"><value>candidate</value></Data><Data name="source_var"><value>marker_38ded1f515463d035d4666098c8874d3</value></Data><Data name="kind"><value>marker</value></Data><Data name="latitude"><value>35.6009763894717</value></Data><Data name="longitude"><value>127.15791163704641</value></Data><Data name="popup_text"><value>#1 후보점 91.2점 위도 35.60098°N 경도 127.15791°E 점수 내역 ② 지형경사 13.5/15 경사도 3.0° ③ 전력·철도 14.5/15 전력/철도 5.4/6.6km ④ 인구이격 14.4/15 도시 1.1km ⑤ 모델기여 8.0/10 P90-P10 116nT ⑥ 암상 4.4/5 암상/단층 0.6km/0.9km 합계 54.7/60점 → 91.2점 🚗 도로접근: 288m</value></Data><Data name="tooltip_text"><value>#1 종합 91.2점</value></Data></ExtendedData><styleUrl>#candidate_00ef32</styleUrl><Point><coordinates>127.1579116370,35.6009763895,0</coordinates></Point></Placemark><Placemark><name>#2 종합 88.0점</name><description>&lt;div id="html_75c625b39d8f4d0776a21f002f0ab923" style="width: 100.0%; height: 100.0%;"&gt; &lt;div style='font-family:맑은고딕,sans-serif;font-size:12px;min-width:240px'&gt; &lt;b style='font-size:14px'&gt;#2 후보점&lt;/b&gt;&amp;nbsp; &lt;span style='background:#4bab32;color:#fff;padding:2px 8px;border-radius:10px;font-weight:bold'&gt;88.0점&lt;/span&gt; &lt;hr style='margin:4px 0'&gt; &lt;table style='border-collapse:collapse;width:100%'&gt; &lt;tr&gt;&lt;td style='color:#555'&gt;위도&lt;/td&gt;&lt;td&gt;&lt;b&gt;35.60109°N&lt;/b&gt;&lt;/td&gt;     &lt;td style='color:#555'&gt;경도&lt;/td&gt;&lt;td&gt;&lt;b&gt;127.20207°E&lt;/b&gt;&lt;/td&gt;&lt;/tr&gt; &lt;tr&gt;&lt;td colspan=4&gt;&lt;hr style='margin:3px 0'&gt;&lt;/td&gt;&lt;/tr&gt; &lt;tr style='background:#f5f5f5'&gt;&lt;td colspan=4 style='font-weight:bold;padding:2px'&gt;점수 내역&lt;/td&gt;&lt;/tr&gt; &lt;tr&gt;&lt;td&gt;② 지형경사&lt;/td&gt;&lt;td&gt;12.8/15&lt;/td&gt;     &lt;td&gt;경사도&lt;/td&gt;&lt;td&gt;4.4°&lt;/td&gt;&lt;/tr&gt; &lt;tr&gt;&lt;td&gt;③ 전력·철도&lt;/td&gt;&lt;td&gt;13.5/15&lt;/td&gt;     &lt;td&gt;전력/철도&lt;/td&gt;&lt;td&gt;3.5/3.4km&lt;/td&gt;&lt;/tr&gt; &lt;tr&gt;&lt;td&gt;④ 인구이격&lt;/td&gt;&lt;td&gt;13.6/15&lt;/td&gt;     &lt;td&gt;도시&lt;/td&gt;&lt;td&gt;0.8km&lt;/td&gt;&lt;/tr&gt; &lt;tr&gt;&lt;td&gt;⑤ 모델기여&lt;/td&gt;&lt;td&gt;8.0/10&lt;/td&gt;     &lt;td&gt;P90-P10&lt;/td&gt;&lt;td&gt;67nT&lt;/td&gt;&lt;/tr&gt; &lt;tr&gt;&lt;td&gt;⑥ 암상&lt;/td&gt;&lt;td&gt;4.8/5&lt;/td&gt;     &lt;td&gt;암상/단층&lt;/td&gt;&lt;td&gt;1.3km/1.8km&lt;/td&gt;&lt;/tr&gt; &lt;tr style='background:#EEF4FF'&gt;&lt;td colspan=2&gt;&lt;b&gt;합계&lt;/b&gt;&lt;/td&gt;     &lt;td colspan=2&gt;&lt;b&gt;52.8/60점 → 88.0점&lt;/b&gt;&lt;/td&gt;&lt;/tr&gt; &lt;/table&gt; &lt;hr style='margin:4px 0'&gt; &lt;span style='color:#1a5276'&gt;🚗 도로접근: 74m&lt;/span&gt; &lt;/div&gt;&lt;/div&gt;</description><ExtendedData><Data name="category"><value>candidate</value></Data><Data name="source_var"><value>marker_ed1bb09034944d9fbb21f67752b7ab72</value></Data><Data name="kind"><value>marker</value></Data><Data name="latitude"><value>35.601093652909285</value></Data><Data name="longitude"><value>127.20207110177785</value></Data><Data name="popup_text"><value>#2 후보점 88.0점 위도 35.60109°N 경도 127.20207°E 점수 내역 ② 지형경사 12.8/15 경사도 4.4° ③ 전력·철도 13.5/15 전력/철도 3.5/3.4km ④ 인구이격 13.6/15 도시 0.8km ⑤ 모델기여 8.0/10 P90-P10 67nT ⑥ 암상 4.8/5 암상/단층 1.3km/1.8km 합계 52.8/60점 → 88.0점 🚗 도로접근: 74m</value></Data><Data name="tooltip_text"><value>#2 종합 88.0점</value></Data></ExtendedData><styleUrl>#candidate_4bab32</styleUrl><Point><coordinates>127.2020711018,35.6010936529,0</coordinates></Point></Placemark><Placemark><name>#3 종합 86.8점</name><description>&lt;div id="html_3b744dadd08a9858648bcdc8d262822c" style="width: 100.0%; height: 100.0%;"&gt; &lt;div style='font-family:맑은고딕,sans-serif;font-size:12px;min-width:240px'&gt; &lt;b style='font-size:14px'&gt;#3 후보점&lt;/b&gt;&amp;nbsp; &lt;span style='background:#689132;color:#fff;padding:2px 8px;border-radius:10px;font-weight:bold'&gt;86.8점&lt;/span&gt; &lt;hr style='margin:4px 0'&gt; &lt;table style='border-collapse:collapse;width:100%'&gt; &lt;tr&gt;&lt;td style='color:#555'&gt;위도&lt;/td&gt;&lt;td&gt;&lt;b&gt;35.59193°N&lt;/b&gt;&lt;/td&gt;     &lt;td style='color:#555'&gt;경도&lt;/td&gt;&lt;td&gt;&lt;b&gt;127.14691°E&lt;/b&gt;&lt;/td&gt;&lt;/tr&gt; &lt;tr&gt;&lt;td colspan=4&gt;&lt;hr style='margin:3px 0'&gt;&lt;/td&gt;&lt;/tr&gt; &lt;tr style='background:#f5f5f5'&gt;&lt;td colspan=4 style='font-weight:bold;padding:2px'&gt;점수 내역&lt;/td&gt;&lt;/tr&gt; &lt;tr&gt;&lt;td&gt;② 지형경사&lt;/td&gt;&lt;td&gt;8.6/15&lt;/td&gt;     &lt;td&gt;경사도&lt;/td&gt;&lt;td&gt;12.9°&lt;/td&gt;&lt;/tr&gt; &lt;tr&gt;&lt;td&gt;③ 전력·철도&lt;/td&gt;&lt;td&gt;14.4/15&lt;/td&gt;     &lt;td&gt;전력/철도&lt;/td&gt;&lt;td&gt;4.4/7.9km&lt;/td&gt;&lt;/tr&gt; &lt;tr&gt;&lt;td&gt;④ 인구이격&lt;/td&gt;&lt;td&gt;14.5/15&lt;/td&gt;     &lt;td&gt;도시&lt;/td&gt;&lt;td&gt;1.2km&lt;/td&gt;&lt;/tr&gt; &lt;tr&gt;&lt;td&gt;⑤ 모델기여&lt;/td&gt;&lt;td&gt;10.0/10&lt;/td&gt;     &lt;td&gt;P90-P10&lt;/td&gt;&lt;td&gt;170nT&lt;/td&gt;&lt;/tr&gt; &lt;tr&gt;&lt;td&gt;⑥ 암상&lt;/td&gt;&lt;td&gt;4.5/5&lt;/td&gt;     &lt;td&gt;암상/단층&lt;/td&gt;&lt;td&gt;1.5km/0.6km&lt;/td&gt;&lt;/tr&gt; &lt;tr style='background:#EEF4FF'&gt;&lt;td colspan=2&gt;&lt;b&gt;합계&lt;/b&gt;&lt;/td&gt;     &lt;td colspan=2&gt;&lt;b&gt;52.1/60점 → 86.8점&lt;/b&gt;&lt;/td&gt;&lt;/tr&gt; &lt;/table&gt; &lt;hr style='margin:4px 0'&gt; &lt;span style='color:#1a5276'&gt;🚗 도로접근: 63m&lt;/span&gt; &lt;/div&gt;&lt;/div&gt;</description><ExtendedData><Data name="category"><value>candidate</value></Data><Data name="source_var"><value>marker_575a3224e344d4e642a865b4e11e46e6</value></Data><Data name="kind"><value>marker</value></Data><Data name="latitude"><value>35.59192816635896</value></Data><Data name="longitude"><value>127.14691141302913</value></Data><Data name="popup_text"><value>#3 후보점 86.8점 위도 35.59193°N 경도 127.14691°E 점수 내역 ② 지형경사 8.6/15 경사도 12.9° ③ 전력·철도 14.4/15 전력/철도 4.4/7.9km ④ 인구이격 14.5/15 도시 1.2km ⑤ 모델기여 10.0/10 P90-P10 170nT ⑥ 암상 4.5/5 암상/단층 1.5km/0.6km 합계 52.1/60점 → 86.8점 🚗 도로접근: 63m</value></Data><Data name="tooltip_text"><value>#3 종합 86.8점</value></Data></ExtendedData><styleUrl>#candidate_689132</styleUrl><Point><coordinates>127.1469114130,35.5919281664,0</coordinates></Point></Placemark><Placemark><name>#4 종합 86.8점</name><description>&lt;div id="html_50c9f8d71872fdbdb847e8cad4469899" style="width: 100.0%; height: 100.0%;"&gt; &lt;div style='font-family:맑은고딕,sans-serif;font-size:12px;min-width:240px'&gt; &lt;b style='font-size:14px'&gt;#4 후보점&lt;/b&gt;&amp;nbsp; &lt;span style='background:#689132;color:#fff;padding:2px 8px;border-radius:10px;font-weight:bold'&gt;86.8점&lt;/span&gt; &lt;hr style='margin:4px 0'&gt; &lt;table style='border-collapse:collapse;width:100%'&gt; &lt;tr&gt;&lt;td style='color:#555'&gt;위도&lt;/td&gt;&lt;td&gt;&lt;b&gt;35.59196°N&lt;/b&gt;&lt;/td&gt;     &lt;td style='color:#555'&gt;경도&lt;/td&gt;&lt;td&gt;&lt;b&gt;127.15795°E&lt;/b&gt;&lt;/td&gt;&lt;/tr&gt; &lt;tr&gt;&lt;td colspan=4&gt;&lt;hr style='margin:3px 0'&gt;&lt;/td&gt;&lt;/tr&gt; &lt;tr style='background:#f5f5f5'&gt;&lt;td colspan=4 style='font-weight:bold;padding:2px'&gt;점수 내역&lt;/td&gt;&lt;/tr&gt; &lt;tr&gt;&lt;td&gt;② 지형경사&lt;/td&gt;&lt;td&gt;10.1/15&lt;/td&gt;     &lt;td&gt;경사도&lt;/td&gt;&lt;td&gt;9.9°&lt;/td&gt;&lt;/tr&gt; &lt;tr&gt;&lt;td&gt;③ 전력·철도&lt;/td&gt;&lt;td&gt;14.5/15&lt;/td&gt;     &lt;td&gt;전력/철도&lt;/td&gt;&lt;td&gt;5.4/7.0km&lt;/td&gt;&lt;/tr&gt; &lt;tr&gt;&lt;td&gt;④ 인구이격&lt;/td&gt;&lt;td&gt;15.0/15&lt;/td&gt;     &lt;td&gt;도시&lt;/td&gt;&lt;td&gt;1.5km&lt;/td&gt;&lt;/tr&gt; &lt;tr&gt;&lt;td&gt;⑤ 모델기여&lt;/td&gt;&lt;td&gt;8.0/10&lt;/td&gt;     &lt;td&gt;P90-P10&lt;/td&gt;&lt;td&gt;97nT&lt;/td&gt;&lt;/tr&gt; &lt;tr&gt;&lt;td&gt;⑥ 암상&lt;/td&gt;&lt;td&gt;4.5/5&lt;/td&gt;     &lt;td&gt;암상/단층&lt;/td&gt;&lt;td&gt;0.6km/1.3km&lt;/td&gt;&lt;/tr&gt; &lt;tr style='background:#EEF4FF'&gt;&lt;td colspan=2&gt;&lt;b&gt;합계&lt;/b&gt;&lt;/td&gt;     &lt;td colspan=2&gt;&lt;b&gt;52.1/60점 → 86.8점&lt;/b&gt;&lt;/td&gt;&lt;/tr&gt; &lt;/table&gt; &lt;hr style='margin:4px 0'&gt; &lt;span style='color:#1a5276'&gt;🚗 도로접근: 939m&lt;/span&gt; &lt;/div&gt;&lt;/div&gt;</description><ExtendedData><Data name="category"><value>candidate</value></Data><Data name="source_var"><value>marker_4eda42cc44d3875942b547ccc9cdebaf</value></Data><Data name="kind"><value>marker</value></Data><Data name="latitude"><value>35.59196000000001</value></Data><Data name="longitude"><value>127.15794999999999</value></Data><Data name="popup_text"><value>#4 후보점 86.8점 위도 35.59196°N 경도 127.15795°E 점수 내역 ② 지형경사 10.1/15 경사도 9.9° ③ 전력·철도 14.5/15 전력/철도 5.4/7.0km ④ 인구이격 15.0/15 도시 1.5km ⑤ 모델기여 8.0/10 P90-P10 97nT ⑥ 암상 4.5/5 암상/단층 0.6km/1.3km 합계 52.1/60점 → 86.8점 🚗 도로접근: 939m</value></Data><Data name="tooltip_text"><value>#4 종합 86.8점</value></Data></ExtendedData><styleUrl>#candidate_689132</styleUrl><Point><coordinates>127.1579500000,35.5919600000,0</coordinates></Point></Placemark><Placemark><name>#5 종합 85.4점</name><description>&lt;div id="html_7c07aa83a6ada620c06c028a9b17f4d2" style="width: 100.0%; height: 100.0%;"&gt; &lt;div style='font-family:맑은고딕,sans-serif;font-size:12px;min-width:240px'&gt; &lt;b style='font-size:14px'&gt;#5 후보점&lt;/b&gt;&amp;nbsp; &lt;span style='background:#897332;color:#fff;padding:2px 8px;border-radius:10px;font-weight:bold'&gt;85.4점&lt;/span&gt; &lt;hr style='margin:4px 0'&gt; &lt;table style='border-collapse:collapse;width:100%'&gt; &lt;tr&gt;&lt;td style='color:#555'&gt;위도&lt;/td&gt;&lt;td&gt;&lt;b&gt;35.58294°N&lt;/b&gt;&lt;/td&gt;     &lt;td style='color:#555'&gt;경도&lt;/td&gt;&lt;td&gt;&lt;b&gt;127.15799°E&lt;/b&gt;&lt;/td&gt;&lt;/tr&gt; &lt;tr&gt;&lt;td colspan=4&gt;&lt;hr style='margin:3px 0'&gt;&lt;/td&gt;&lt;/tr&gt; &lt;tr style='background:#f5f5f5'&gt;&lt;td colspan=4 style='font-weight:bold;padding:2px'&gt;점수 내역&lt;/td&gt;&lt;/tr&gt; &lt;tr&gt;&lt;td&gt;② 지형경사&lt;/td&gt;&lt;td&gt;10.0/15&lt;/td&gt;     &lt;td&gt;경사도&lt;/td&gt;&lt;td&gt;10.0°&lt;/td&gt;&lt;/tr&gt; &lt;tr&gt;&lt;td&gt;③ 전력·철도&lt;/td&gt;&lt;td&gt;14.6/15&lt;/td&gt;     &lt;td&gt;전력/철도&lt;/td&gt;&lt;td&gt;5.6/7.6km&lt;/td&gt;&lt;/tr&gt; &lt;tr&gt;&lt;td&gt;④ 인구이격&lt;/td&gt;&lt;td&gt;14.0/15&lt;/td&gt;     &lt;td&gt;도시&lt;/td&gt;&lt;td&gt;1.0km&lt;/td&gt;&lt;/tr&gt; &lt;tr&gt;&lt;td&gt;⑤ 모델기여&lt;/td&gt;&lt;td&gt;8.0/10&lt;/td&gt;     &lt;td&gt;P90-P10&lt;/td&gt;&lt;td&gt;97nT&lt;/td&gt;&lt;/tr&gt; &lt;tr&gt;&lt;td&gt;⑥ 암상&lt;/td&gt;&lt;td&gt;4.6/5&lt;/td&gt;     &lt;td&gt;암상/단층&lt;/td&gt;&lt;td&gt;0.6km/1.6km&lt;/td&gt;&lt;/tr&gt; &lt;tr style='background:#EEF4FF'&gt;&lt;td colspan=2&gt;&lt;b&gt;합계&lt;/b&gt;&lt;/td&gt;     &lt;td colspan=2&gt;&lt;b&gt;51.2/60점 → 85.4점&lt;/b&gt;&lt;/td&gt;&lt;/tr&gt; &lt;/table&gt; &lt;hr style='margin:4px 0'&gt; &lt;span style='color:#1a5276'&gt;🚗 도로접근: 926m&lt;/span&gt; &lt;/div&gt;&lt;/div&gt;</description><ExtendedData><Data name="category"><value>candidate</value></Data><Data name="source_var"><value>marker_ba6ef2b2ed5c518822c1f5986d36ff1b</value></Data><Data name="kind"><value>marker</value></Data><Data name="latitude"><value>35.58294359697545</value></Data><Data name="longitude"><value>127.15798834591918</value></Data><Data name="popup_text"><value>#5 후보점 85.4점 위도 35.58294°N 경도 127.15799°E 점수 내역 ② 지형경사 10.0/15 경사도 10.0° ③ 전력·철도 14.6/15 전력/철도 5.6/7.6km ④ 인구이격 14.0/15 도시 1.0km ⑤ 모델기여 8.0/10 P90-P10 97nT ⑥ 암상 4.6/5 암상/단층 0.6km/1.6km 합계 51.2/60점 → 85.4점 🚗 도로접근: 926m</value></Data><Data name="tooltip_text"><value>#5 종합 85.4점</value></Data></ExtendedData><styleUrl>#candidate_897332</styleUrl><Point><coordinates>127.1579883459,35.5829435970,0</coordinates></Point></Placemark><Placemark><name>#6 82.5점</name><description>&lt;div id="html_8dbd10264e17da035da8062ef1d47e2b" style="width: 100.0%; height: 100.0%;"&gt; &lt;div style='font-family:맑은고딕,sans-serif;font-size:12px;min-width:240px'&gt; &lt;b style='font-size:14px'&gt;#6 후보점&lt;/b&gt;&amp;nbsp; &lt;span style='background:#cd3432;color:#fff;padding:2px 8px;border-radius:10px;font-weight:bold'&gt;82.5점&lt;/span&gt; &lt;hr style='margin:4px 0'&gt; &lt;table style='border-collapse:collapse;width:100%'&gt; &lt;tr&gt;&lt;td style='color:#555'&gt;위도&lt;/td&gt;&lt;td&gt;&lt;b&gt;35.55589°N&lt;/b&gt;&lt;/td&gt;     &lt;td style='color:#555'&gt;경도&lt;/td&gt;&lt;td&gt;&lt;b&gt;127.15810°E&lt;/b&gt;&lt;/td&gt;&lt;/tr&gt; &lt;tr&gt;&lt;td colspan=4&gt;&lt;hr style='margin:3px 0'&gt;&lt;/td&gt;&lt;/tr&gt; &lt;tr style='background:#f5f5f5'&gt;&lt;td colspan=4 style='font-weight:bold;padding:2px'&gt;점수 내역&lt;/td&gt;&lt;/tr&gt; &lt;tr&gt;&lt;td&gt;② 지형경사&lt;/td&gt;&lt;td&gt;9.2/15&lt;/td&gt;     &lt;td&gt;경사도&lt;/td&gt;&lt;td&gt;11.7°&lt;/td&gt;&lt;/tr&gt; &lt;tr&gt;&lt;td&gt;③ 전력·철도&lt;/td&gt;&lt;td&gt;15.0/15&lt;/td&gt;     &lt;td&gt;전력/철도&lt;/td&gt;&lt;td&gt;7.0/9.8km&lt;/td&gt;&lt;/tr&gt; &lt;tr&gt;&lt;td&gt;④ 인구이격&lt;/td&gt;&lt;td&gt;12.0/15&lt;/td&gt;     &lt;td&gt;도시&lt;/td&gt;&lt;td&gt;0.4km&lt;/td&gt;&lt;/tr&gt; &lt;tr&gt;&lt;td&gt;⑤ 모델기여&lt;/td&gt;&lt;td&gt;10.0/10&lt;/td&gt;     &lt;td&gt;P90-P10&lt;/td&gt;&lt;td&gt;230nT&lt;/td&gt;&lt;/tr&gt; &lt;tr&gt;&lt;td&gt;⑥ 암상&lt;/td&gt;&lt;td&gt;3.3/5&lt;/td&gt;     &lt;td&gt;암상/단층&lt;/td&gt;&lt;td&gt;0.0km/0.5km&lt;/td&gt;&lt;/tr&gt; &lt;tr style='background:#EEF4FF'&gt;&lt;td colspan=2&gt;&lt;b&gt;합계&lt;/b&gt;&lt;/td&gt;     &lt;td colspan=2&gt;&lt;b&gt;49.5/60점 → 82.5점&lt;/b&gt;&lt;/td&gt;&lt;/tr&gt; &lt;/table&gt; &lt;hr style='margin:4px 0'&gt; &lt;span style='color:#1a5276'&gt;🚗 도로접근: 128m&lt;/span&gt; &lt;/div&gt;&lt;/div&gt;</description><ExtendedData><Data name="category"><value>candidate</value></Data><Data name="source_var"><value>circle_marker_62db5a9130fbe6b3128685b8e7cce2cd</value></Data><Data name="kind"><value>circleMarker</value></Data><Data name="latitude"><value>35.55589430659899</value></Data><Data name="longitude"><value>127.1581032815464</value></Data><Data name="popup_text"><value>#6 후보점 82.5점 위도 35.55589°N 경도 127.15810°E 점수 내역 ② 지형경사 9.2/15 경사도 11.7° ③ 전력·철도 15.0/15 전력/철도 7.0/9.8km ④ 인구이격 12.0/15 도시 0.4km ⑤ 모델기여 10.0/10 P90-P10 230nT ⑥ 암상 3.3/5 암상/단층 0.0km/0.5km 합계 49.5/60점 → 82.5점 🚗 도로접근: 128m</value></Data><Data name="tooltip_text"><value>#6 82.5점</value></Data></ExtendedData><styleUrl>#candidate_cd3432</styleUrl><Point><coordinates>127.1581032815,35.5558943066,0</coordinates></Point></Placemark><Placemark><name>#7 81.9점</name><description>&lt;div id="html_e0da76a46a916bbd9686aa2bd2f88c4f" style="width: 100.0%; height: 100.0%;"&gt; &lt;div style='font-family:맑은고딕,sans-serif;font-size:12px;min-width:240px'&gt; &lt;b style='font-size:14px'&gt;#7 후보점&lt;/b&gt;&amp;nbsp; &lt;span style='background:#dc2832;color:#fff;padding:2px 8px;border-radius:10px;font-weight:bold'&gt;81.9점&lt;/span&gt; &lt;hr style='margin:4px 0'&gt; &lt;table style='border-collapse:collapse;width:100%'&gt; &lt;tr&gt;&lt;td style='color:#555'&gt;위도&lt;/td&gt;&lt;td&gt;&lt;b&gt;35.59208°N&lt;/b&gt;&lt;/td&gt;     &lt;td style='color:#555'&gt;경도&lt;/td&gt;&lt;td&gt;&lt;b&gt;127.20210°E&lt;/b&gt;&lt;/td&gt;&lt;/tr&gt; &lt;tr&gt;&lt;td colspan=4&gt;&lt;hr style='margin:3px 0'&gt;&lt;/td&gt;&lt;/tr&gt; &lt;tr style='background:#f5f5f5'&gt;&lt;td colspan=4 style='font-weight:bold;padding:2px'&gt;점수 내역&lt;/td&gt;&lt;/tr&gt; &lt;tr&gt;&lt;td&gt;② 지형경사&lt;/td&gt;&lt;td&gt;11.5/15&lt;/td&gt;     &lt;td&gt;경사도&lt;/td&gt;&lt;td&gt;7.0°&lt;/td&gt;&lt;/tr&gt; &lt;tr&gt;&lt;td&gt;③ 전력·철도&lt;/td&gt;&lt;td&gt;13.9/15&lt;/td&gt;     &lt;td&gt;전력/철도&lt;/td&gt;&lt;td&gt;4.3/4.2km&lt;/td&gt;&lt;/tr&gt; &lt;tr&gt;&lt;td&gt;④ 인구이격&lt;/td&gt;&lt;td&gt;11.0/15&lt;/td&gt;     &lt;td&gt;도시&lt;/td&gt;&lt;td&gt;0.2km&lt;/td&gt;&lt;/tr&gt; &lt;tr&gt;&lt;td&gt;⑤ 모델기여&lt;/td&gt;&lt;td&gt;8.0/10&lt;/td&gt;     &lt;td&gt;P90-P10&lt;/td&gt;&lt;td&gt;71nT&lt;/td&gt;&lt;/tr&gt; &lt;tr&gt;&lt;td&gt;⑥ 암상&lt;/td&gt;&lt;td&gt;4.8/5&lt;/td&gt;     &lt;td&gt;암상/단층&lt;/td&gt;&lt;td&gt;2.2km/0.9km&lt;/td&gt;&lt;/tr&gt; &lt;tr style='background:#EEF4FF'&gt;&lt;td colspan=2&gt;&lt;b&gt;합계&lt;/b&gt;&lt;/td&gt;     &lt;td colspan=2&gt;&lt;b&gt;49.2/60점 → 81.9점&lt;/b&gt;&lt;/td&gt;&lt;/tr&gt; &lt;/table&gt; &lt;hr style='margin:4px 0'&gt; &lt;span style='color:#1a5276'&gt;🚗 도로접근: 174m&lt;/span&gt; &lt;/div&gt;&lt;/div&gt;</description><ExtendedData><Data name="category"><value>candidate</value></Data><Data name="source_var"><value>circle_marker_a2fc44bf930f7b819b397d8441a4229a</value></Data><Data name="kind"><value>circleMarker</value></Data><Data name="latitude"><value>35.592077224690264</value></Data><Data name="longitude"><value>127.20210451273043</value></Data><Data name="popup_text"><value>#7 후보점 81.9점 위도 35.59208°N 경도 127.20210°E 점수 내역 ② 지형경사 11.5/15 경사도 7.0° ③ 전력·철도 13.9/15 전력/철도 4.3/4.2km ④ 인구이격 11.0/15 도시 0.2km ⑤ 모델기여 8.0/10 P90-P10 71nT ⑥ 암상 4.8/5 암상/단층 2.2km/0.9km 합계 49.2/60점 → 81.9점 🚗 도로접근: 174m</value></Data><Data name="tooltip_text"><value>#7 81.9점</value></Data></ExtendedData><styleUrl>#candidate_dc2832</styleUrl><Point><coordinates>127.2021045127,35.5920772247,0</coordinates></Point></Placemark></Folder><Style id="candidate_00ef32"><IconStyle><color>ff32ef00</color><scale>1.25</scale><Icon><href>http://maps.google.com/mapfiles/kml/shapes/placemark_circle.png</href></Icon></IconStyle><LabelStyle><scale>0.85</scale><color>ff32ef00</color></LabelStyle></Style><Style id="candidate_4bab32"><IconStyle><color>ff32ab4b</color><scale>1.25</scale><Icon><href>http://maps.google.com/mapfiles/kml/shapes/placemark_circle.png</href></Icon></IconStyle><LabelStyle><scale>0.85</scale><color>ff32ab4b</color></LabelStyle></Style><Style id="candidate_689132"><IconStyle><color>ff329168</color><scale>1.25</scale><Icon><href>http://maps.google.com/mapfiles/kml/shapes/placemark_circle.png</href></Icon></IconStyle><LabelStyle><scale>0.85</scale><color>ff329168</color></LabelStyle></Style><Style id="candidate_897332"><IconStyle><color>ff327389</color><scale>1.25</scale><Icon><href>http://maps.google.com/mapfiles/kml/shapes/placemark_circle.png</href></Icon></IconStyle><LabelStyle><scale>0.85</scale><color>ff327389</color></LabelStyle></Style><Style id="candidate_cd3432"><IconStyle><color>ff3234cd</color><scale>1.25</scale><Icon><href>http://maps.google.com/mapfiles/kml/shapes/placemark_circle.png</href></Icon></IconStyle><LabelStyle><scale>0.85</scale><color>ff3234cd</color></LabelStyle></Style><Style id="candidate_dc2832"><IconStyle><color>ff3228dc</color><scale>1.25</scale><Icon><href>http://maps.google.com/mapfiles/kml/shapes/placemark_circle.png</href></Icon></IconStyle><LabelStyle><scale>0.85</scale><color>ff3228dc</color></LabelStyle></Style><Folder><name>제외 격자점 (74개)</name><open>0</open><Placemark><name>제외: water (35.59179, 127.10276)</name><description>&lt;b&gt;제외: water&lt;/b&gt;&lt;br/&gt;위도: 35.59179072&lt;br/&gt;경도: 127.10275725</description><ExtendedData><Data name="category"><value>excluded</value></Data><Data name="source_var"><value>circle_marker_109f358f9aacb42a6421bb8ca9b44cd5</value></Data><Data name="kind"><value>circleMarker</value></Data><Data name="latitude"><value>35.5917907220737</value></Data><Data name="longitude"><value>127.10275724648311</value></Data><Data name="tooltip_text"><value>제외: water</value></Data></ExtendedData><styleUrl>#point_bbbbbb</styleUrl><Point><coordinates>127.1027572465,35.5917907221,0</coordinates></Point></Placemark><Placemark><name>제외: water (35.56478, 127.11393)</name><description>&lt;b&gt;제외: water&lt;/b&gt;&lt;br/&gt;위도: 35.56477748&lt;br/&gt;경도: 127.11392559</description><ExtendedData><Data name="category"><value>excluded</value></Data><Data name="source_var"><value>circle_marker_9f5cab4899a5c46ae5b4aa415b499771</value></Data><Data name="kind"><value>circleMarker</value></Data><Data name="latitude"><value>35.56477748208919</value></Data><Data name="longitude"><value>127.11392558895395</value></Data><Data name="tooltip_text"><value>제외: water</value></Data></ExtendedData><styleUrl>#point_bbbbbb</styleUrl><Point><coordinates>127.1139255890,35.5647774821,0</coordinates></Point></Placemark><Placemark><name>제외: water (35.57379, 127.11388)</name><description>&lt;b&gt;제외: water&lt;/b&gt;&lt;br/&gt;위도: 35.57379387&lt;br/&gt;경도: 127.11388233</description><ExtendedData><Data name="category"><value>excluded</value></Data><Data name="source_var"><value>circle_marker_d7756e80340f2d45988d4804f7982032</value></Data><Data name="kind"><value>circleMarker</value></Data><Data name="latitude"><value>35.57379386815042</value></Data><Data name="longitude"><value>127.11388233179464</value></Data><Data name="tooltip_text"><value>제외: water</value></Data></ExtendedData><styleUrl>#point_bbbbbb</styleUrl><Point><coordinates>127.1138823318,35.5737938682,0</coordinates></Point></Placemark><Placemark><name>제외: water (35.58281, 127.11384)</name><description>&lt;b&gt;제외: water&lt;/b&gt;&lt;br/&gt;위도: 35.58281024&lt;br/&gt;경도: 127.11383906</description><ExtendedData><Data name="category"><value>excluded</value></Data><Data name="source_var"><value>circle_marker_425386d1a12ca3f826b695b74d6ff5d3</value></Data><Data name="kind"><value>circleMarker</value></Data><Data name="latitude"><value>35.58281024065195</value></Data><Data name="longitude"><value>127.1138390554194</value></Data><Data name="tooltip_text"><value>제외: water</value></Data></ExtendedData><styleUrl>#point_bbbbbb</styleUrl><Point><coordinates>127.1138390554,35.5828102407,0</coordinates></Point></Placemark><Placemark><name>제외: water (35.59183, 127.11380)</name><description>&lt;b&gt;제외: water&lt;/b&gt;&lt;br/&gt;위도: 35.59182660&lt;br/&gt;경도: 127.11379576</description><ExtendedData><Data name="category"><value>excluded</value></Data><Data name="source_var"><value>circle_marker_124e4774246c44fc2fc1d5adc06a1ea3</value></Data><Data name="kind"><value>circleMarker</value></Data><Data name="latitude"><value>35.59182659959234</value></Data><Data name="longitude"><value>127.11379575981965</value></Data><Data name="tooltip_text"><value>제외: water</value></Data></ExtendedData><styleUrl>#point_bbbbbb</styleUrl><Point><coordinates>127.1137957598,35.5918265996,0</coordinates></Point></Placemark><Placemark><name>제외: water (35.60084, 127.11375)</name><description>&lt;b&gt;제외: water&lt;/b&gt;&lt;br/&gt;위도: 35.60084294&lt;br/&gt;경도: 127.11375244</description><ExtendedData><Data name="category"><value>excluded</value></Data><Data name="source_var"><value>circle_marker_8858c9324856d3a2fa8b051bbba72d57</value></Data><Data name="kind"><value>circleMarker</value></Data><Data name="latitude"><value>35.60084294497014</value></Data><Data name="longitude"><value>127.1137524449868</value></Data><Data name="tooltip_text"><value>제외: water</value></Data></ExtendedData><styleUrl>#point_bbbbbb</styleUrl><Point><coordinates>127.1137524450,35.6008429450,0</coordinates></Point></Placemark><Placemark><name>제외: water (35.60986, 127.11371)</name><description>&lt;b&gt;제외: water&lt;/b&gt;&lt;br/&gt;위도: 35.60985928&lt;br/&gt;경도: 127.11370911</description><ExtendedData><Data name="category"><value>excluded</value></Data><Data name="source_var"><value>circle_marker_3e17ba5ea0b4ad27f9e0bc49766a08ce</value></Data><Data name="kind"><value>circleMarker</value></Data><Data name="latitude"><value>35.60985927678391</value></Data><Data name="longitude"><value>127.1137091109123</value></Data><Data name="tooltip_text"><value>제외: water</value></Data></ExtendedData><styleUrl>#point_bbbbbb</styleUrl><Point><coordinates>127.1137091109,35.6098592768,0</coordinates></Point></Placemark><Placemark><name>제외: water (35.61888, 127.11367)</name><description>&lt;b&gt;제외: water&lt;/b&gt;&lt;br/&gt;위도: 35.61887560&lt;br/&gt;경도: 127.11366576</description><ExtendedData><Data name="category"><value>excluded</value></Data><Data name="source_var"><value>circle_marker_9b1b5fa59e9fcd39adbe6207982e2159</value></Data><Data name="kind"><value>circleMarker</value></Data><Data name="latitude"><value>35.61887559503219</value></Data><Data name="longitude"><value>127.11366575758751</value></Data><Data name="tooltip_text"><value>제외: water</value></Data></ExtendedData><styleUrl>#point_bbbbbb</styleUrl><Point><coordinates>127.1136657576,35.6188755950,0</coordinates></Point></Placemark><Placemark><name>제외: urban_resid (35.55580, 127.12500)</name><description>&lt;b&gt;제외: urban_resid&lt;/b&gt;&lt;br/&gt;위도: 35.55579590&lt;br/&gt;경도: 127.12500241</description><ExtendedData><Data name="category"><value>excluded</value></Data><Data name="source_var"><value>circle_marker_adcfb0cfa9aaca9f88700a7c92e9bbc1</value></Data><Data name="kind"><value>circleMarker</value></Data><Data name="latitude"><value>35.55579590295377</value></Data><Data name="longitude"><value>127.12500241313957</value></Data><Data name="tooltip_text"><value>제외: urban_resid</value></Data></ExtendedData><styleUrl>#point_bbbbbb</styleUrl><Point><coordinates>127.1250024131,35.5557959030,0</coordinates></Point></Placemark><Placemark><name>제외: water (35.56481, 127.12496)</name><description>&lt;b&gt;제외: water&lt;/b&gt;&lt;br/&gt;위도: 35.56481231&lt;br/&gt;경도: 127.12496041</description><ExtendedData><Data name="category"><value>excluded</value></Data><Data name="source_var"><value>circle_marker_4b55c2ac3847ccbcc5a82abbdc9986b5</value></Data><Data name="kind"><value>circleMarker</value></Data><Data name="latitude"><value>35.56481231408776</value></Data><Data name="longitude"><value>127.12496041094796</value></Data><Data name="tooltip_text"><value>제외: water</value></Data></ExtendedData><styleUrl>#point_bbbbbb</styleUrl><Point><coordinates>127.1249604109,35.5648123141,0</coordinates></Point></Placemark><Placemark><name>제외: water (35.57383, 127.12492)</name><description>&lt;b&gt;제외: water&lt;/b&gt;&lt;br/&gt;위도: 35.57382871&lt;br/&gt;경도: 127.12491839</description><ExtendedData><Data name="category"><value>excluded</value></Data><Data name="source_var"><value>circle_marker_cd50e97d173fcab5bc383ba5bcce96a7</value></Data><Data name="kind"><value>circleMarker</value></Data><Data name="latitude"><value>35.57382871166608</value></Data><Data name="longitude"><value>127.12491839009792</value></Data><Data name="tooltip_text"><value>제외: water</value></Data></ExtendedData><styleUrl>#point_bbbbbb</styleUrl><Point><coordinates>127.1249183901,35.5738287117,0</coordinates></Point></Placemark><Placemark><name>제외: water (35.58285, 127.12488)</name><description>&lt;b&gt;제외: water&lt;/b&gt;&lt;br/&gt;위도: 35.58284510&lt;br/&gt;경도: 127.12487635</description><ExtendedData><Data name="category"><value>excluded</value></Data><Data name="source_var"><value>circle_marker_5437b68437a27b5ad49f60bf123578cc</value></Data><Data name="kind"><value>circleMarker</value></Data><Data name="latitude"><value>35.58284509568722</value></Data><Data name="longitude"><value>127.12487635058115</value></Data><Data name="tooltip_text"><value>제외: water</value></Data></ExtendedData><styleUrl>#point_bbbbbb</styleUrl><Point><coordinates>127.1248763506,35.5828450957,0</coordinates></Point></Placemark><Placemark><name>제외: urban_resid (35.59186, 127.12483)</name><description>&lt;b&gt;제외: urban_resid&lt;/b&gt;&lt;br/&gt;위도: 35.59186147&lt;br/&gt;경도: 127.12483429</description><ExtendedData><Data name="category"><value>excluded</value></Data><Data name="source_var"><value>circle_marker_584985794b83777554d46f3feb64e5b4</value></Data><Data name="kind"><value>circleMarker</value></Data><Data name="latitude"><value>35.59186146614979</value></Data><Data name="longitude"><value>127.12483429238927</value></Data><Data name="tooltip_text"><value>제외: urban_resid</value></Data></ExtendedData><styleUrl>#point_bbbbbb</styleUrl><Point><coordinates>127.1248342924,35.5918614661,0</coordinates></Point></Placemark><Placemark><name>제외: water (35.60088, 127.12479)</name><description>&lt;b&gt;제외: water&lt;/b&gt;&lt;br/&gt;위도: 35.60087782&lt;br/&gt;경도: 127.12479222</description><ExtendedData><Data name="category"><value>excluded</value></Data><Data name="source_var"><value>circle_marker_6c38c03ad88644488c1acf338c9cda58</value></Data><Data name="kind"><value>circleMarker</value></Data><Data name="latitude"><value>35.6008778230523</value></Data><Data name="longitude"><value>127.12479221551398</value></Data><Data name="tooltip_text"><value>제외: water</value></Data></ExtendedData><styleUrl>#point_bbbbbb</styleUrl><Point><coordinates>127.1247922155,35.6008778231,0</coordinates></Point></Placemark><Placemark><name>제외: water (35.60989, 127.12475)</name><description>&lt;b&gt;제외: water&lt;/b&gt;&lt;br/&gt;위도: 35.60989417&lt;br/&gt;경도: 127.12475012</description><ExtendedData><Data name="category"><value>excluded</value></Data><Data name="source_var"><value>circle_marker_72189d892e6e3d3ca45e678d0645ecde</value></Data><Data name="kind"><value>circleMarker</value></Data><Data name="latitude"><value>35.6098941663933</value></Data><Data name="longitude"><value>127.12475011994692</value></Data><Data name="tooltip_text"><value>제외: water</value></Data></ExtendedData><styleUrl>#point_bbbbbb</styleUrl><Point><coordinates>127.1247501199,35.6098941664,0</coordinates></Point></Placemark><Placemark><name>제외: water (35.61891, 127.12471)</name><description>&lt;b&gt;제외: water&lt;/b&gt;&lt;br/&gt;위도: 35.61891050&lt;br/&gt;경도: 127.12470801</description><ExtendedData><Data name="category"><value>excluded</value></Data><Data name="source_var"><value>circle_marker_20e70787eea5c40a7b9e560719451fdd</value></Data><Data name="kind"><value>circleMarker</value></Data><Data name="latitude"><value>35.61891049617138</value></Data><Data name="longitude"><value>127.12470800567975</value></Data><Data name="tooltip_text"><value>제외: water</value></Data></ExtendedData><styleUrl>#point_bbbbbb</styleUrl><Point><coordinates>127.1247080057,35.6189104962,0</coordinates></Point></Placemark><Placemark><name>제외: water (35.62793, 127.12467)</name><description>&lt;b&gt;제외: water&lt;/b&gt;&lt;br/&gt;위도: 35.62792681&lt;br/&gt;경도: 127.12466587</description><ExtendedData><Data name="category"><value>excluded</value></Data><Data name="source_var"><value>circle_marker_fce2504d037e4f846eea45588ba1354c</value></Data><Data name="kind"><value>circleMarker</value></Data><Data name="latitude"><value>35.62792681238507</value></Data><Data name="longitude"><value>127.12466587270413</value></Data><Data name="tooltip_text"><value>제외: water</value></Data></ExtendedData><styleUrl>#point_bbbbbb</styleUrl><Point><coordinates>127.1246658727,35.6279268124,0</coordinates></Point></Placemark><Placemark><name>제외: urban_resid (35.55583, 127.13604)</name><description>&lt;b&gt;제외: urban_resid&lt;/b&gt;&lt;br/&gt;위도: 35.55582971&lt;br/&gt;경도: 127.13603602</description><ExtendedData><Data name="category"><value>excluded</value></Data><Data name="source_var"><value>circle_marker_616088d78bf946a4a56645fdbaaa82b9</value></Data><Data name="kind"><value>circleMarker</value></Data><Data name="latitude"><value>35.55582971380688</value></Data><Data name="longitude"><value>127.13603601802332</value></Data><Data name="tooltip_text"><value>제외: urban_resid</value></Data></ExtendedData><styleUrl>#point_bbbbbb</styleUrl><Point><coordinates>127.1360360180,35.5558297138,0</coordinates></Point></Placemark><Placemark><name>제외: water (35.56485, 127.13600)</name><description>&lt;b&gt;제외: water&lt;/b&gt;&lt;br/&gt;위도: 35.56484614&lt;br/&gt;경도: 127.13599525</description><ExtendedData><Data name="category"><value>excluded</value></Data><Data name="source_var"><value>circle_marker_58d62470684aa7794592ffcd83915a57</value></Data><Data name="kind"><value>circleMarker</value></Data><Data name="latitude"><value>35.56484613612159</value></Data><Data name="longitude"><value>127.13599525160039</value></Data><Data name="tooltip_text"><value>제외: water</value></Data></ExtendedData><styleUrl>#point_bbbbbb</styleUrl><Point><coordinates>127.1359952516,35.5648461361,0</coordinates></Point></Placemark><Placemark><name>제외: urban_resid (35.57386, 127.13595)</name><description>&lt;b&gt;제외: urban_resid&lt;/b&gt;&lt;br/&gt;위도: 35.57386254&lt;br/&gt;경도: 127.13595447</description><ExtendedData><Data name="category"><value>excluded</value></Data><Data name="source_var"><value>circle_marker_354f1e535fe60f436a79a7b244da3a8a</value></Data><Data name="kind"><value>circleMarker</value></Data><Data name="latitude"><value>35.573862544883056</value></Data><Data name="longitude"><value>127.13595446706798</value></Data><Data name="tooltip_text"><value>제외: urban_resid</value></Data></ExtendedData><styleUrl>#point_bbbbbb</styleUrl><Point><coordinates>127.1359544671,35.5738625449,0</coordinates></Point></Placemark><Placemark><name>제외: water (35.58288, 127.13591)</name><description>&lt;b&gt;제외: water&lt;/b&gt;&lt;br/&gt;위도: 35.58287894&lt;br/&gt;경도: 127.13591366</description><ExtendedData><Data name="category"><value>excluded</value></Data><Data name="source_var"><value>circle_marker_a776875c13730759656dcc984e881543</value></Data><Data name="kind"><value>circleMarker</value></Data><Data name="latitude"><value>35.58287894008982</value></Data><Data name="longitude"><value>127.13591366441797</value></Data><Data name="tooltip_text"><value>제외: water</value></Data></ExtendedData><styleUrl>#point_bbbbbb</styleUrl><Point><coordinates>127.1359136644,35.5828789401,0</coordinates></Point></Placemark><Placemark><name>제외: water (35.59190, 127.13587)</name><description>&lt;b&gt;제외: water&lt;/b&gt;&lt;br/&gt;위도: 35.59189532&lt;br/&gt;경도: 127.13587284</description><ExtendedData><Data name="category"><value>excluded</value></Data><Data name="source_var"><value>circle_marker_13381e0551fd9c74d7317e8082b335e3</value></Data><Data name="kind"><value>circleMarker</value></Data><Data name="latitude"><value>35.59189532174047</value></Data><Data name="longitude"><value>127.13587284364233</value></Data><Data name="tooltip_text"><value>제외: water</value></Data></ExtendedData><styleUrl>#point_bbbbbb</styleUrl><Point><coordinates>127.1358728436,35.5918953217,0</coordinates></Point></Placemark><Placemark><name>제외: water (35.60091, 127.13583)</name><description>&lt;b&gt;제외: water&lt;/b&gt;&lt;br/&gt;위도: 35.60091169&lt;br/&gt;경도: 127.13583200</description><ExtendedData><Data name="category"><value>excluded</value></Data><Data name="source_var"><value>circle_marker_b670adae140cdd4c2db9b6072349ef29</value></Data><Data name="kind"><value>circleMarker</value></Data><Data name="latitude"><value>35.60091168983353</value></Data><Data name="longitude"><value>127.13583200473293</value></Data><Data name="tooltip_text"><value>제외: water</value></Data></ExtendedData><styleUrl>#point_bbbbbb</styleUrl><Point><coordinates>127.1358320047,35.6009116898,0</coordinates></Point></Placemark><Placemark><name>제외: water (35.60993, 127.13579)</name><description>&lt;b&gt;제외: water&lt;/b&gt;&lt;br/&gt;위도: 35.60992804&lt;br/&gt;경도: 127.13579115</description><ExtendedData><Data name="category"><value>excluded</value></Data><Data name="source_var"><value>circle_marker_1a7068e5c711bf2b4a62d939ab0de4e1</value></Data><Data name="kind"><value>circleMarker</value></Data><Data name="latitude"><value>35.60992804436756</value></Data><Data name="longitude"><value>127.13579114768169</value></Data><Data name="tooltip_text"><value>제외: water</value></Data></ExtendedData><styleUrl>#point_bbbbbb</styleUrl><Point><coordinates>127.1357911477,35.6099280444,0</coordinates></Point></Placemark><Placemark><name>제외: water (35.61894, 127.13575)</name><description>&lt;b&gt;제외: water&lt;/b&gt;&lt;br/&gt;위도: 35.61894439&lt;br/&gt;경도: 127.13575027</description><ExtendedData><Data name="category"><value>excluded</value></Data><Data name="source_var"><value>circle_marker_3a1db92fda1a6e1e1149c2ed822a5cf3</value></Data><Data name="kind"><value>circleMarker</value></Data><Data name="latitude"><value>35.61894438534113</value></Data><Data name="longitude"><value>127.13575027248048</value></Data><Data name="tooltip_text"><value>제외: water</value></Data></ExtendedData><styleUrl>#point_bbbbbb</styleUrl><Point><coordinates>127.1357502725,35.6189443853,0</coordinates></Point></Placemark><Placemark><name>제외: water (35.62796, 127.13571)</name><description>&lt;b&gt;제외: water&lt;/b&gt;&lt;br/&gt;위도: 35.62796071&lt;br/&gt;경도: 127.13570938</description><ExtendedData><Data name="category"><value>excluded</value></Data><Data name="source_var"><value>circle_marker_2895d73aed2f6add8095b2f5fd796a50</value></Data><Data name="kind"><value>circleMarker</value></Data><Data name="latitude"><value>35.62796071275278</value></Data><Data name="longitude"><value>127.13570937912121</value></Data><Data name="tooltip_text"><value>제외: water</value></Data></ExtendedData><styleUrl>#point_bbbbbb</styleUrl><Point><coordinates>127.1357093791,35.6279607128,0</coordinates></Point></Placemark><Placemark><name>제외: urban_resid (35.55586, 127.14707)</name><description>&lt;b&gt;제외: urban_resid&lt;/b&gt;&lt;br/&gt;위도: 35.55586252&lt;br/&gt;경도: 127.14706964</description><ExtendedData><Data name="category"><value>excluded</value></Data><Data name="source_var"><value>circle_marker_7ab477078592b22e24d851f36ba3a76c</value></Data><Data name="kind"><value>circleMarker</value></Data><Data name="latitude"><value>35.55586251502371</value></Data><Data name="longitude"><value>127.1470696410085</value></Data><Data name="tooltip_text"><value>제외: urban_resid</value></Data></ExtendedData><styleUrl>#point_bbbbbb</styleUrl><Point><coordinates>127.1470696410,35.5558625150,0</coordinates></Point></Placemark><Placemark><name>제외: water (35.56488, 127.14703)</name><description>&lt;b&gt;제외: water&lt;/b&gt;&lt;br/&gt;위도: 35.56487895&lt;br/&gt;경도: 127.14703011</description><ExtendedData><Data name="category"><value>excluded</value></Data><Data name="source_var"><value>circle_marker_0c752d96a7682fd0eba3dc106fb80e07</value></Data><Data name="kind"><value>circleMarker</value></Data><Data name="latitude"><value>35.564878948185246</value></Data><Data name="longitude"><value>127.14703011036231</value></Data><Data name="tooltip_text"><value>제외: water</value></Data></ExtendedData><styleUrl>#point_bbbbbb</styleUrl><Point><coordinates>127.1470301104,35.5648789482,0</coordinates></Point></Placemark><Placemark><name>제외: water (35.57390, 127.14699)</name><description>&lt;b&gt;제외: water&lt;/b&gt;&lt;br/&gt;위도: 35.57389537&lt;br/&gt;경도: 127.14699056</description><ExtendedData><Data name="category"><value>excluded</value></Data><Data name="source_var"><value>circle_marker_59cc626fb35dd01a5bd10327d5d858ed</value></Data><Data name="kind"><value>circleMarker</value></Data><Data name="latitude"><value>35.573895367795934</value></Data><Data name="longitude"><value>127.14699056215557</value></Data><Data name="tooltip_text"><value>제외: water</value></Data></ExtendedData><styleUrl>#point_bbbbbb</styleUrl><Point><coordinates>127.1469905622,35.5738953678,0</coordinates></Point></Placemark><Placemark><name>제외: water (35.58291, 127.14695)</name><description>&lt;b&gt;제외: water&lt;/b&gt;&lt;br/&gt;위도: 35.58291177&lt;br/&gt;경도: 127.14695100</description><ExtendedData><Data name="category"><value>excluded</value></Data><Data name="source_var"><value>circle_marker_4f1d7d9cda1b418199e4f848635d5b9e</value></Data><Data name="kind"><value>circleMarker</value></Data><Data name="latitude"><value>35.582911773854306</value></Data><Data name="longitude"><value>127.14695099638047</value></Data><Data name="tooltip_text"><value>제외: water</value></Data></ExtendedData><styleUrl>#point_bbbbbb</styleUrl><Point><coordinates>127.1469509964,35.5829117739,0</coordinates></Point></Placemark><Placemark><name>제외: water (35.60094, 127.14687)</name><description>&lt;b&gt;제외: water&lt;/b&gt;&lt;br/&gt;위도: 35.60094455&lt;br/&gt;경도: 127.14687181</description><ExtendedData><Data name="category"><value>excluded</value></Data><Data name="source_var"><value>circle_marker_361915aca357c009eeba1807fda6beb7</value></Data><Data name="kind"><value>circleMarker</value></Data><Data name="latitude"><value>35.60094454530841</value></Data><Data name="longitude"><value>127.14687181209369</value></Data><Data name="tooltip_text"><value>제외: water</value></Data></ExtendedData><styleUrl>#point_bbbbbb</styleUrl><Point><coordinates>127.1468718121,35.6009445453,0</coordinates></Point></Placemark><Placemark><name>제외: water (35.60996, 127.14683)</name><description>&lt;b&gt;제외: water&lt;/b&gt;&lt;br/&gt;위도: 35.60996091&lt;br/&gt;경도: 127.14683219</description><ExtendedData><Data name="category"><value>excluded</value></Data><Data name="source_var"><value>circle_marker_53418bfcf89a2102a50b0f9039f7c6cf</value></Data><Data name="kind"><value>circleMarker</value></Data><Data name="latitude"><value>35.60996091070124</value></Data><Data name="longitude"><value>127.14683219356637</value></Data><Data name="tooltip_text"><value>제외: water</value></Data></ExtendedData><styleUrl>#point_bbbbbb</styleUrl><Point><coordinates>127.1468321936,35.6099609107,0</coordinates></Point></Placemark><Placemark><name>제외: water (35.61898, 127.14679)</name><description>&lt;b&gt;제외: water&lt;/b&gt;&lt;br/&gt;위도: 35.61897726&lt;br/&gt;경도: 127.14679256</description><ExtendedData><Data name="category"><value>excluded</value></Data><Data name="source_var"><value>circle_marker_3a2e19691e68fcc468a9aebfaed38b4a</value></Data><Data name="kind"><value>circleMarker</value></Data><Data name="latitude"><value>35.618977262535985</value></Data><Data name="longitude"><value>127.14679255743924</value></Data><Data name="tooltip_text"><value>제외: water</value></Data></ExtendedData><styleUrl>#point_bbbbbb</styleUrl><Point><coordinates>127.1467925574,35.6189772625,0</coordinates></Point></Placemark><Placemark><name>제외: water (35.62799, 127.14675)</name><description>&lt;b&gt;제외: water&lt;/b&gt;&lt;br/&gt;위도: 35.62799360&lt;br/&gt;경도: 127.14675290</description><ExtendedData><Data name="category"><value>excluded</value></Data><Data name="source_var"><value>circle_marker_e7b99e01965a177a161c1c43c47d57cc</value></Data><Data name="kind"><value>circleMarker</value></Data><Data name="latitude"><value>35.62799360081122</value></Data><Data name="longitude"><value>127.14675290370447</value></Data><Data name="tooltip_text"><value>제외: water</value></Data></ExtendedData><styleUrl>#point_bbbbbb</styleUrl><Point><coordinates>127.1467529037,35.6279936008,0</coordinates></Point></Placemark><Placemark><name>제외: fault (35.54688, 127.15814)</name><description>&lt;b&gt;제외: fault&lt;/b&gt;&lt;br/&gt;위도: 35.54687785&lt;br/&gt;경도: 127.15814156</description><ExtendedData><Data name="category"><value>excluded</value></Data><Data name="source_var"><value>circle_marker_ee74999a2b2ca43810bd5c974b45fa72</value></Data><Data name="kind"><value>circleMarker</value></Data><Data name="latitude"><value>35.5468778493774</value></Data><Data name="longitude"><value>127.15814155940397</value></Data><Data name="tooltip_text"><value>제외: fault</value></Data></ExtendedData><styleUrl>#point_bbbbbb</styleUrl><Point><coordinates>127.1581415594,35.5468778494,0</coordinates></Point></Placemark><Placemark><name>제외: geology (35.56491, 127.15806)</name><description>&lt;b&gt;제외: geology&lt;/b&gt;&lt;br/&gt;위도: 35.56491075&lt;br/&gt;경도: 127.15806499</description><ExtendedData><Data name="category"><value>excluded</value></Data><Data name="source_var"><value>circle_marker_759956ea07de712d10e177b40925c054</value></Data><Data name="kind"><value>circleMarker</value></Data><Data name="latitude"><value>35.56491075027349</value></Data><Data name="longitude"><value>127.15806498668478</value></Data><Data name="tooltip_text"><value>제외: geology</value></Data></ExtendedData><styleUrl>#point_bbbbbb</styleUrl><Point><coordinates>127.1580649867,35.5649107503,0</coordinates></Point></Placemark><Placemark><name>제외: geology (35.57393, 127.15803)</name><description>&lt;b&gt;제외: geology&lt;/b&gt;&lt;br/&gt;위도: 35.57392718&lt;br/&gt;경도: 127.15802667</description><ExtendedData><Data name="category"><value>excluded</value></Data><Data name="source_var"><value>circle_marker_11040c500e5ba6838fc53e03af4b0f35</value></Data><Data name="kind"><value>circleMarker</value></Data><Data name="latitude"><value>35.57392718039945</value></Data><Data name="longitude"><value>127.15802667481158</value></Data><Data name="tooltip_text"><value>제외: geology</value></Data></ExtendedData><styleUrl>#point_bbbbbb</styleUrl><Point><coordinates>127.1580266748,35.5739271804,0</coordinates></Point></Placemark><Placemark><name>제외: water (35.60999, 127.15787)</name><description>&lt;b&gt;제외: water&lt;/b&gt;&lt;br/&gt;위도: 35.60999277&lt;br/&gt;경도: 127.15787326</description><ExtendedData><Data name="category"><value>excluded</value></Data><Data name="source_var"><value>circle_marker_7298d6b6194048ad3fae8326a566bf22</value></Data><Data name="kind"><value>circleMarker</value></Data><Data name="latitude"><value>35.60999276538907</value></Data><Data name="longitude"><value>127.15787325705084</value></Data><Data name="tooltip_text"><value>제외: water</value></Data></ExtendedData><styleUrl>#point_bbbbbb</styleUrl><Point><coordinates>127.1578732571,35.6099927654,0</coordinates></Point></Placemark><Placemark><name>제외: water (35.61901, 127.15783)</name><description>&lt;b&gt;제외: water&lt;/b&gt;&lt;br/&gt;위도: 35.61900913&lt;br/&gt;경도: 127.15783486</description><ExtendedData><Data name="category"><value>excluded</value></Data><Data name="source_var"><value>circle_marker_6734c12e8f0907e6b2e0cb3f21c7135f</value></Data><Data name="kind"><value>circleMarker</value></Data><Data name="latitude"><value>35.61900912775071</value></Data><Data name="longitude"><value>127.15783486000566</value></Data><Data name="tooltip_text"><value>제외: water</value></Data></ExtendedData><styleUrl>#point_bbbbbb</styleUrl><Point><coordinates>127.1578348600,35.6190091278,0</coordinates></Point></Placemark><Placemark><name>제외: water (35.62803, 127.15780)</name><description>&lt;b&gt;제외: water&lt;/b&gt;&lt;br/&gt;위도: 35.62802548&lt;br/&gt;경도: 127.15779645</description><ExtendedData><Data name="category"><value>excluded</value></Data><Data name="source_var"><value>circle_marker_c83d9dcdb3b3660b826a27affa4841e5</value></Data><Data name="kind"><value>circleMarker</value></Data><Data name="latitude"><value>35.62802547655514</value></Data><Data name="longitude"><value>127.15779644590324</value></Data><Data name="tooltip_text"><value>제외: water</value></Data></ExtendedData><styleUrl>#point_bbbbbb</styleUrl><Point><coordinates>127.1577964459,35.6280254766,0</coordinates></Point></Placemark><Placemark><name>제외: water (35.63704, 127.15776)</name><description>&lt;b&gt;제외: water&lt;/b&gt;&lt;br/&gt;위도: 35.63704181&lt;br/&gt;경도: 127.15775801</description><ExtendedData><Data name="category"><value>excluded</value></Data><Data name="source_var"><value>circle_marker_60f957e765f67e462be755383a4b838e</value></Data><Data name="kind"><value>circleMarker</value></Data><Data name="latitude"><value>35.63704181180096</value></Data><Data name="longitude"><value>127.15775801473602</value></Data><Data name="tooltip_text"><value>제외: water</value></Data></ExtendedData><styleUrl>#point_bbbbbb</styleUrl><Point><coordinates>127.1577580147,35.6370418118,0</coordinates></Point></Placemark><Placemark><name>제외: fault (35.55593, 127.16914)</name><description>&lt;b&gt;제외: fault&lt;/b&gt;&lt;br/&gt;위도: 35.55592509&lt;br/&gt;경도: 127.16913694</description><ExtendedData><Data name="category"><value>excluded</value></Data><Data name="source_var"><value>circle_marker_9d9975b4a9455092b64b652fa9441d47</value></Data><Data name="kind"><value>circleMarker</value></Data><Data name="latitude"><value>35.55592508852762</value></Data><Data name="longitude"><value>127.16913693908828</value></Data><Data name="tooltip_text"><value>제외: fault</value></Data></ExtendedData><styleUrl>#point_bbbbbb</styleUrl><Point><coordinates>127.1691369391,35.5559250885,0</coordinates></Point></Placemark><Placemark><name>제외: water (35.56494, 127.16910)</name><description>&lt;b&gt;제외: water&lt;/b&gt;&lt;br/&gt;위도: 35.56494154&lt;br/&gt;경도: 127.16909988</description><ExtendedData><Data name="category"><value>excluded</value></Data><Data name="source_var"><value>circle_marker_87deda061a9a1cf0c3fce989c3aaae3d</value></Data><Data name="kind"><value>circleMarker</value></Data><Data name="latitude"><value>35.564941542381234</value></Data><Data name="longitude"><value>127.16909988001885</value></Data><Data name="tooltip_text"><value>제외: water</value></Data></ExtendedData><styleUrl>#point_bbbbbb</styleUrl><Point><coordinates>127.1690998800,35.5649415424,0</coordinates></Point></Placemark><Placemark><name>제외: water (35.57396, 127.16906)</name><description>&lt;b&gt;제외: water&lt;/b&gt;&lt;br/&gt;위도: 35.57395798&lt;br/&gt;경도: 127.16906280</description><ExtendedData><Data name="category"><value>excluded</value></Data><Data name="source_var"><value>circle_marker_01b301975cf67c7b53d588a28e412d17</value></Data><Data name="kind"><value>circleMarker</value></Data><Data name="latitude"><value>35.57395798268854</value></Data><Data name="longitude"><value>127.16906280448676</value></Data><Data name="tooltip_text"><value>제외: water</value></Data></ExtendedData><styleUrl>#point_bbbbbb</styleUrl><Point><coordinates>127.1690628045,35.5739579827,0</coordinates></Point></Placemark><Placemark><name>제외: water (35.58297, 127.16903)</name><description>&lt;b&gt;제외: water&lt;/b&gt;&lt;br/&gt;위도: 35.58297441&lt;br/&gt;경도: 127.16902571</description><ExtendedData><Data name="category"><value>excluded</value></Data><Data name="source_var"><value>circle_marker_3d94381ab31a52a9614fb27555e00050</value></Data><Data name="kind"><value>circleMarker</value></Data><Data name="latitude"><value>35.58297440944811</value></Data><Data name="longitude"><value>127.16902571248467</value></Data><Data name="tooltip_text"><value>제외: water</value></Data></ExtendedData><styleUrl>#point_bbbbbb</styleUrl><Point><coordinates>127.1690257125,35.5829744094,0</coordinates></Point></Placemark><Placemark><name>제외: water (35.59199, 127.16899)</name><description>&lt;b&gt;제외: water&lt;/b&gt;&lt;br/&gt;위도: 35.59199082&lt;br/&gt;경도: 127.16898860</description><ExtendedData><Data name="category"><value>excluded</value></Data><Data name="source_var"><value>circle_marker_b60874f7db4792c2f2ca6a01d219e460</value></Data><Data name="kind"><value>circleMarker</value></Data><Data name="latitude"><value>35.591990822658516</value></Data><Data name="longitude"><value>127.16898860400525</value></Data><Data name="tooltip_text"><value>제외: water</value></Data></ExtendedData><styleUrl>#point_bbbbbb</styleUrl><Point><coordinates>127.1689886040,35.5919908227,0</coordinates></Point></Placemark><Placemark><name>제외: geology (35.60101, 127.16895)</name><description>&lt;b&gt;제외: geology&lt;/b&gt;&lt;br/&gt;위도: 35.60100722&lt;br/&gt;경도: 127.16895148</description><ExtendedData><Data name="category"><value>excluded</value></Data><Data name="source_var"><value>circle_marker_900b3672b845ef2a9b31ba245bc5ce7c</value></Data><Data name="kind"><value>circleMarker</value></Data><Data name="latitude"><value>35.60100722231828</value></Data><Data name="longitude"><value>127.16895147904113</value></Data><Data name="tooltip_text"><value>제외: geology</value></Data></ExtendedData><styleUrl>#point_bbbbbb</styleUrl><Point><coordinates>127.1689514790,35.6010072223,0</coordinates></Point></Placemark><Placemark><name>제외: water (35.61002, 127.16891)</name><description>&lt;b&gt;제외: water&lt;/b&gt;&lt;br/&gt;위도: 35.61002361&lt;br/&gt;경도: 127.16891434</description><ExtendedData><Data name="category"><value>excluded</value></Data><Data name="source_var"><value>circle_marker_e7b43344c903a64f08931492bb73924c</value></Data><Data name="kind"><value>circleMarker</value></Data><Data name="latitude"><value>35.610023608425976</value></Data><Data name="longitude"><value>127.16891433758492</value></Data><Data name="tooltip_text"><value>제외: water</value></Data></ExtendedData><styleUrl>#point_bbbbbb</styleUrl><Point><coordinates>127.1689143376,35.6100236084,0</coordinates></Point></Placemark><Placemark><name>제외: water (35.61904, 127.16888)</name><description>&lt;b&gt;제외: water&lt;/b&gt;&lt;br/&gt;위도: 35.61903998&lt;br/&gt;경도: 127.16887718</description><ExtendedData><Data name="category"><value>excluded</value></Data><Data name="source_var"><value>circle_marker_2b4d51651536a382a3338444574a4ae8</value></Data><Data name="kind"><value>circleMarker</value></Data><Data name="latitude"><value>35.61903998098019</value></Data><Data name="longitude"><value>127.16887717962929</value></Data><Data name="tooltip_text"><value>제외: water</value></Data></ExtendedData><styleUrl>#point_bbbbbb</styleUrl><Point><coordinates>127.1688771796,35.6190399810,0</coordinates></Point></Placemark><Placemark><name>제외: water (35.62806, 127.16884)</name><description>&lt;b&gt;제외: water&lt;/b&gt;&lt;br/&gt;위도: 35.62805634&lt;br/&gt;경도: 127.16884001</description><ExtendedData><Data name="category"><value>excluded</value></Data><Data name="source_var"><value>circle_marker_77720b36089518f49f54beeb11b11502</value></Data><Data name="kind"><value>circleMarker</value></Data><Data name="latitude"><value>35.62805633997944</value></Data><Data name="longitude"><value>127.1688400051669</value></Data><Data name="tooltip_text"><value>제외: water</value></Data></ExtendedData><styleUrl>#point_bbbbbb</styleUrl><Point><coordinates>127.1688400052,35.6280563400,0</coordinates></Point></Placemark><Placemark><name>제외: urban_resid (35.55595, 127.18017)</name><description>&lt;b&gt;제외: urban_resid&lt;/b&gt;&lt;br/&gt;위도: 35.55595486&lt;br/&gt;경도: 127.18017061</description><ExtendedData><Data name="category"><value>excluded</value></Data><Data name="source_var"><value>circle_marker_7020873001e94be7126a9cc07a2a511a</value></Data><Data name="kind"><value>circleMarker</value></Data><Data name="latitude"><value>35.55595486080472</value></Data><Data name="longitude"><value>127.1801706130855</value></Data><Data name="tooltip_text"><value>제외: urban_resid</value></Data></ExtendedData><styleUrl>#point_bbbbbb</styleUrl><Point><coordinates>127.1801706131,35.5559548608,0</coordinates></Point></Placemark><Placemark><name>제외: water (35.56497, 127.18013)</name><description>&lt;b&gt;제외: water&lt;/b&gt;&lt;br/&gt;위도: 35.56497132&lt;br/&gt;경도: 127.18013479</description><ExtendedData><Data name="category"><value>excluded</value></Data><Data name="source_var"><value>circle_marker_500af9535a6a9c7b256d32812c142ae2</value></Data><Data name="kind"><value>circleMarker</value></Data><Data name="latitude"><value>35.56497132450355</value></Data><Data name="longitude"><value>127.18013478981557</value></Data><Data name="tooltip_text"><value>제외: water</value></Data></ExtendedData><styleUrl>#point_bbbbbb</styleUrl><Point><coordinates>127.1801347898,35.5649713245,0</coordinates></Point></Placemark><Placemark><name>제외: water (35.57399, 127.18010)</name><description>&lt;b&gt;제외: water&lt;/b&gt;&lt;br/&gt;위도: 35.57398777&lt;br/&gt;경도: 127.18009895</description><ExtendedData><Data name="category"><value>excluded</value></Data><Data name="source_var"><value>circle_marker_f99c207fcb572ad7c0479319c7685a1e</value></Data><Data name="kind"><value>circleMarker</value></Data><Data name="latitude"><value>35.57398777465827</value></Data><Data name="longitude"><value>127.18009895063193</value></Data><Data name="tooltip_text"><value>제외: water</value></Data></ExtendedData><styleUrl>#point_bbbbbb</styleUrl><Point><coordinates>127.1800989506,35.5739877747,0</coordinates></Point></Placemark><Placemark><name>제외: water (35.58300, 127.18006)</name><description>&lt;b&gt;제외: water&lt;/b&gt;&lt;br/&gt;위도: 35.58300421&lt;br/&gt;경도: 127.18006310</description><ExtendedData><Data name="category"><value>excluded</value></Data><Data name="source_var"><value>circle_marker_049f834fd7744ec272ff2c032ce5c71b</value></Data><Data name="kind"><value>circleMarker</value></Data><Data name="latitude"><value>35.58300421126741</value></Data><Data name="longitude"><value>127.18006309552753</value></Data><Data name="tooltip_text"><value>제외: water</value></Data></ExtendedData><styleUrl>#point_bbbbbb</styleUrl><Point><coordinates>127.1800630955,35.5830042113,0</coordinates></Point></Placemark><Placemark><name>제외: water (35.59202, 127.18003)</name><description>&lt;b&gt;제외: water&lt;/b&gt;&lt;br/&gt;위도: 35.59202063&lt;br/&gt;경도: 127.18002722</description><ExtendedData><Data name="category"><value>excluded</value></Data><Data name="source_var"><value>circle_marker_245205b81432d4337cec36caf1c86d8e</value></Data><Data name="kind"><value>circleMarker</value></Data><Data name="latitude"><value>35.59202063432955</value></Data><Data name="longitude"><value>127.1800272244952</value></Data><Data name="tooltip_text"><value>제외: water</value></Data></ExtendedData><styleUrl>#point_bbbbbb</styleUrl><Point><coordinates>127.1800272245,35.5920206343,0</coordinates></Point></Placemark><Placemark><name>제외: urban_resid (35.60104, 127.17999)</name><description>&lt;b&gt;제외: urban_resid&lt;/b&gt;&lt;br/&gt;위도: 35.60103704&lt;br/&gt;경도: 127.17999134</description><ExtendedData><Data name="category"><value>excluded</value></Data><Data name="source_var"><value>circle_marker_2da474aa29fddfdb892616683a3fc1a5</value></Data><Data name="kind"><value>circleMarker</value></Data><Data name="latitude"><value>35.60103704384323</value></Data><Data name="longitude"><value>127.17999133752788</value></Data><Data name="tooltip_text"><value>제외: urban_resid</value></Data></ExtendedData><styleUrl>#point_bbbbbb</styleUrl><Point><coordinates>127.1799913375,35.6010370438,0</coordinates></Point></Placemark><Placemark><name>제외: water (35.61005, 127.17996)</name><description>&lt;b&gt;제외: water&lt;/b&gt;&lt;br/&gt;위도: 35.61005344&lt;br/&gt;경도: 127.17995543</description><ExtendedData><Data name="category"><value>excluded</value></Data><Data name="source_var"><value>circle_marker_578f0ebfbd5c72a9772a76a716524415</value></Data><Data name="kind"><value>circleMarker</value></Data><Data name="latitude"><value>35.610053439807025</value></Data><Data name="longitude"><value>127.17995543461845</value></Data><Data name="tooltip_text"><value>제외: water</value></Data></ExtendedData><styleUrl>#point_bbbbbb</styleUrl><Point><coordinates>127.1799554346,35.6100534398,0</coordinates></Point></Placemark><Placemark><name>제외: water (35.61907, 127.17992)</name><description>&lt;b&gt;제외: water&lt;/b&gt;&lt;br/&gt;위도: 35.61906982&lt;br/&gt;경도: 127.17991952</description><ExtendedData><Data name="category"><value>excluded</value></Data><Data name="source_var"><value>circle_marker_d49a046cf0a438d0a7a7f491709ebf41</value></Data><Data name="kind"><value>circleMarker</value></Data><Data name="latitude"><value>35.61906982221948</value></Data><Data name="longitude"><value>127.17991951575975</value></Data><Data name="tooltip_text"><value>제외: water</value></Data></ExtendedData><styleUrl>#point_bbbbbb</styleUrl><Point><coordinates>127.1799195158,35.6190698222,0</coordinates></Point></Placemark><Placemark><name>제외: water (35.62809, 127.17988)</name><description>&lt;b&gt;제외: water&lt;/b&gt;&lt;br/&gt;위도: 35.62808619&lt;br/&gt;경도: 127.17988358</description><ExtendedData><Data name="category"><value>excluded</value></Data><Data name="source_var"><value>circle_marker_ce97e86b111136c3b53cb167c94abdd0</value></Data><Data name="kind"><value>circleMarker</value></Data><Data name="latitude"><value>35.628086191079184</value></Data><Data name="longitude"><value>127.17988358094469</value></Data><Data name="tooltip_text"><value>제외: water</value></Data></ExtendedData><styleUrl>#point_bbbbbb</styleUrl><Point><coordinates>127.1798835809,35.6280861911,0</coordinates></Point></Placemark><Placemark><name>제외: water (35.55598, 127.19120)</name><description>&lt;b&gt;제외: water&lt;/b&gt;&lt;br/&gt;위도: 35.55598362&lt;br/&gt;경도: 127.19120430</description><ExtendedData><Data name="category"><value>excluded</value></Data><Data name="source_var"><value>circle_marker_8958de3b5240a32f153b8f7f019c515a</value></Data><Data name="kind"><value>circleMarker</value></Data><Data name="latitude"><value>35.55598362342548</value></Data><Data name="longitude"><value>127.19120430298929</value></Data><Data name="tooltip_text"><value>제외: water</value></Data></ExtendedData><styleUrl>#point_bbbbbb</styleUrl><Point><coordinates>127.1912043030,35.5559836234,0</coordinates></Point></Placemark><Placemark><name>제외: water (35.56500, 127.19117)</name><description>&lt;b&gt;제외: water&lt;/b&gt;&lt;br/&gt;위도: 35.56500010&lt;br/&gt;경도: 127.19116972</description><ExtendedData><Data name="category"><value>excluded</value></Data><Data name="source_var"><value>circle_marker_6f9f2253e641420fd777cbf009d89332</value></Data><Data name="kind"><value>circleMarker</value></Data><Data name="latitude"><value>35.565000096635686</value></Data><Data name="longitude"><value>127.19116971552597</value></Data><Data name="tooltip_text"><value>제외: water</value></Data></ExtendedData><styleUrl>#point_bbbbbb</styleUrl><Point><coordinates>127.1911697155,35.5650000966,0</coordinates></Point></Placemark><Placemark><name>제외: water (35.57402, 127.19114)</name><description>&lt;b&gt;제외: water&lt;/b&gt;&lt;br/&gt;위도: 35.57401656&lt;br/&gt;경도: 127.19113511</description><ExtendedData><Data name="category"><value>excluded</value></Data><Data name="source_var"><value>circle_marker_7cc38317dbb005ba9d991a2b96a58e28</value></Data><Data name="kind"><value>circleMarker</value></Data><Data name="latitude"><value>35.57401655630385</value></Data><Data name="longitude"><value>127.1911351126979</value></Data><Data name="tooltip_text"><value>제외: water</value></Data></ExtendedData><styleUrl>#point_bbbbbb</styleUrl><Point><coordinates>127.1911351127,35.5740165563,0</coordinates></Point></Placemark><Placemark><name>제외: water (35.58303, 127.19110)</name><description>&lt;b&gt;제외: water&lt;/b&gt;&lt;br/&gt;위도: 35.58303300&lt;br/&gt;경도: 127.19110049</description><ExtendedData><Data name="category"><value>excluded</value></Data><Data name="source_var"><value>circle_marker_c12de7f1d3006486d1ee12fbffdea0b9</value></Data><Data name="kind"><value>circleMarker</value></Data><Data name="latitude"><value>35.58303300242854</value></Data><Data name="longitude"><value>127.19110049449824</value></Data><Data name="tooltip_text"><value>제외: water</value></Data></ExtendedData><styleUrl>#point_bbbbbb</styleUrl><Point><coordinates>127.1911004945,35.5830330024,0</coordinates></Point></Placemark><Placemark><name>제외: water (35.59205, 127.19107)</name><description>&lt;b&gt;제외: water&lt;/b&gt;&lt;br/&gt;위도: 35.59204944&lt;br/&gt;경도: 127.19106586</description><ExtendedData><Data name="category"><value>excluded</value></Data><Data name="source_var"><value>circle_marker_ed9c62468bda05b322c3918d005b271b</value></Data><Data name="kind"><value>circleMarker</value></Data><Data name="latitude"><value>35.592049435008335</value></Data><Data name="longitude"><value>127.19106586092016</value></Data><Data name="tooltip_text"><value>제외: water</value></Data></ExtendedData><styleUrl>#point_bbbbbb</styleUrl><Point><coordinates>127.1910658609,35.5920494350,0</coordinates></Point></Placemark><Placemark><name>제외: water (35.60107, 127.19103)</name><description>&lt;b&gt;제외: water&lt;/b&gt;&lt;br/&gt;위도: 35.60106585&lt;br/&gt;경도: 127.19103121</description><ExtendedData><Data name="category"><value>excluded</value></Data><Data name="source_var"><value>circle_marker_c1bfaaaf957fcb8359fca2b2418f3d89</value></Data><Data name="kind"><value>circleMarker</value></Data><Data name="latitude"><value>35.601065854041764</value></Data><Data name="longitude"><value>127.19103121195678</value></Data><Data name="tooltip_text"><value>제외: water</value></Data></ExtendedData><styleUrl>#point_bbbbbb</styleUrl><Point><coordinates>127.1910312120,35.6010658540,0</coordinates></Point></Placemark><Placemark><name>제외: urban_resid (35.61008, 127.19100)</name><description>&lt;b&gt;제외: urban_resid&lt;/b&gt;&lt;br/&gt;위도: 35.61008226&lt;br/&gt;경도: 127.19099655</description><ExtendedData><Data name="category"><value>excluded</value></Data><Data name="source_var"><value>circle_marker_1b9597ace62f29989bae9b94d6b3ad78</value></Data><Data name="kind"><value>circleMarker</value></Data><Data name="latitude"><value>35.6100822595274</value></Data><Data name="longitude"><value>127.19099654760119</value></Data><Data name="tooltip_text"><value>제외: urban_resid</value></Data></ExtendedData><styleUrl>#point_bbbbbb</styleUrl><Point><coordinates>127.1909965476,35.6100822595,0</coordinates></Point></Placemark><Placemark><name>제외: water (35.61910, 127.19096)</name><description>&lt;b&gt;제외: water&lt;/b&gt;&lt;br/&gt;위도: 35.61909865&lt;br/&gt;경도: 127.19096187</description><ExtendedData><Data name="category"><value>excluded</value></Data><Data name="source_var"><value>circle_marker_3bb98eefa350694da1281fa7a98fe519</value></Data><Data name="kind"><value>circleMarker</value></Data><Data name="latitude"><value>35.61909865146381</value></Data><Data name="longitude"><value>127.19096186784657</value></Data><Data name="tooltip_text"><value>제외: water</value></Data></ExtendedData><styleUrl>#point_bbbbbb</styleUrl><Point><coordinates>127.1909618678,35.6190986515,0</coordinates></Point></Placemark><Placemark><name>제외: water (35.62812, 127.19093)</name><description>&lt;b&gt;제외: water&lt;/b&gt;&lt;br/&gt;위도: 35.62811503&lt;br/&gt;경도: 127.19092717</description><ExtendedData><Data name="category"><value>excluded</value></Data><Data name="source_var"><value>circle_marker_3b4d80e1a881a89ce6ed7f9fb5e73b19</value></Data><Data name="kind"><value>circleMarker</value></Data><Data name="latitude"><value>35.62811502984956</value></Data><Data name="longitude"><value>127.190927172686</value></Data><Data name="tooltip_text"><value>제외: water</value></Data></ExtendedData><styleUrl>#point_bbbbbb</styleUrl><Point><coordinates>127.1909271727,35.6281150298,0</coordinates></Point></Placemark><Placemark><name>제외: water (35.56503, 127.20220)</name><description>&lt;b&gt;제외: water&lt;/b&gt;&lt;br/&gt;위도: 35.56502786&lt;br/&gt;경도: 127.20220466</description><ExtendedData><Data name="category"><value>excluded</value></Data><Data name="source_var"><value>circle_marker_62a8602b2cb6ddbe50f57c6be0429e92</value></Data><Data name="kind"><value>circleMarker</value></Data><Data name="latitude"><value>35.56502785877302</value></Data><Data name="longitude"><value>127.20220465660107</value></Data><Data name="tooltip_text"><value>제외: water</value></Data></ExtendedData><styleUrl>#point_bbbbbb</styleUrl><Point><coordinates>127.2022046566,35.5650278588,0</coordinates></Point></Placemark><Placemark><name>제외: urban_resid (35.57404, 127.20217)</name><description>&lt;b&gt;제외: urban_resid&lt;/b&gt;&lt;br/&gt;위도: 35.57404433&lt;br/&gt;경도: 127.20217129</description><ExtendedData><Data name="category"><value>excluded</value></Data><Data name="source_var"><value>circle_marker_3e3d80f7a860f21eadc236561af9c7d0</value></Data><Data name="kind"><value>circleMarker</value></Data><Data name="latitude"><value>35.574044327620705</value></Data><Data name="longitude"><value>127.20217129013545</value></Data><Data name="tooltip_text"><value>제외: urban_resid</value></Data></ExtendedData><styleUrl>#point_bbbbbb</styleUrl><Point><coordinates>127.2021712901,35.5740443276,0</coordinates></Point></Placemark><Placemark><name>제외: urban_resid (35.58306, 127.20214)</name><description>&lt;b&gt;제외: urban_resid&lt;/b&gt;&lt;br/&gt;위도: 35.58306078&lt;br/&gt;경도: 127.20213791</description><ExtendedData><Data name="category"><value>excluded</value></Data><Data name="source_var"><value>circle_marker_6225d78b8d51c4142075f1565681b54b</value></Data><Data name="kind"><value>circleMarker</value></Data><Data name="latitude"><value>35.58306078292692</value></Data><Data name="longitude"><value>127.20213790884742</value></Data><Data name="tooltip_text"><value>제외: urban_resid</value></Data></ExtendedData><styleUrl>#point_bbbbbb</styleUrl><Point><coordinates>127.2021379088,35.5830607829,0</coordinates></Point></Placemark><Placemark><name>제외: urban_resid (35.61011, 127.20204)</name><description>&lt;b&gt;제외: urban_resid&lt;/b&gt;&lt;br/&gt;위도: 35.61011007&lt;br/&gt;경도: 127.20203768</description><ExtendedData><Data name="category"><value>excluded</value></Data><Data name="source_var"><value>circle_marker_ea3c5c9a5b2744b0d25e45bec0ce88ec</value></Data><Data name="kind"><value>circleMarker</value></Data><Data name="latitude"><value>35.61011006758252</value></Data><Data name="longitude"><value>127.202037675983</value></Data><Data name="tooltip_text"><value>제외: urban_resid</value></Data></ExtendedData><styleUrl>#point_bbbbbb</styleUrl><Point><coordinates>127.2020376760,35.6101100676,0</coordinates></Point></Placemark><Placemark><name>제외: water (35.61913, 127.20200)</name><description>&lt;b&gt;제외: water&lt;/b&gt;&lt;br/&gt;위도: 35.61912647&lt;br/&gt;경도: 127.20200424</description><ExtendedData><Data name="category"><value>excluded</value></Data><Data name="source_var"><value>circle_marker_570be25331f6433d1c07260958160570</value></Data><Data name="kind"><value>circleMarker</value></Data><Data name="latitude"><value>35.619126468708565</value></Data><Data name="longitude"><value>127.2020042353393</value></Data><Data name="tooltip_text"><value>제외: water</value></Data></ExtendedData><styleUrl>#point_bbbbbb</styleUrl><Point><coordinates>127.2020042353,35.6191264687,0</coordinates></Point></Placemark><Placemark><name>제외: water (35.59210, 127.21314)</name><description>&lt;b&gt;제외: water&lt;/b&gt;&lt;br/&gt;위도: 35.59210400&lt;br/&gt;경도: 127.21314318</description><ExtendedData><Data name="category"><value>excluded</value></Data><Data name="source_var"><value>circle_marker_d27d9a549d50afcf8b1549a43daf63ff</value></Data><Data name="kind"><value>circleMarker</value></Data><Data name="latitude"><value>35.5921040033709</value></Data><Data name="longitude"><value>127.21314317937632</value></Data><Data name="tooltip_text"><value>제외: water</value></Data></ExtendedData><styleUrl>#point_bbbbbb</styleUrl><Point><coordinates>127.2131431794,35.5921040034,0</coordinates></Point></Placemark></Folder><Style id="point_bbbbbb"><IconStyle><color>ffbbbbbb</color><scale>0.55</scale><Icon><href>http://maps.google.com/mapfiles/kml/shapes/placemark_circle.png</href></Icon></IconStyle><LabelStyle><scale>0.55</scale><color>ff333333</color></LabelStyle></Style><LookAt><longitude>127.15795</longitude><latitude>35.59196</latitude><altitude>0</altitude><range>12000</range><tilt>0</tilt><heading>0</heading></LookAt></Document></kml>