<?xml version="1.0" encoding="UTF-8"?>
<kml xmlns="http://www.opengis.net/kml/2.2">
<Document>
  <name>지구자기장 측정 후보지 서브격자 분석</name>
  <description>후보지 #16·#18 1km 서브격자 현장 답사 세부 선정</description>

  <!-- 스타일 정의 -->
  <Style id="top3">
    <IconStyle>
      <color>ff0000ff</color>
      <scale>1.3</scale>
      <Icon><href>http://maps.google.com/mapfiles/kml/paddle/red-stars.png</href></Icon>
    </IconStyle>
    <LabelStyle><scale>1.1</scale></LabelStyle>
  </Style>
  <Style id="top10">
    <IconStyle>
      <color>ff00aaff</color>
      <scale>1.1</scale>
      <Icon><href>http://maps.google.com/mapfiles/kml/paddle/orange-circle.png</href></Icon>
    </IconStyle>
    <LabelStyle><scale>0.9</scale></LabelStyle>
  </Style>
  <Style id="center">
    <IconStyle>
      <color>ffff0000</color>
      <scale>1.4</scale>
      <Icon><href>http://maps.google.com/mapfiles/kml/paddle/blu-circle.png</href></Icon>
    </IconStyle>
  </Style>

  <Folder>
    <name>후보지 #16 (전주 완주)</name>
    <description>국가격자 점수: 60.1점 / 우선순위 1등급</description>

    <Placemark>
      <name>▶ 후보지 #16 (전주 완주) 중심</name>
      <description><![CDATA[국가 10km격자 후보지<br>도상 점수: 60.1점<br>우선순위: 1등급<br>위도: 35.59196°N  경도: 127.15795°E<br><br><a href="https://map.naver.com/v5/?c=127.15795,35.59196,14,0,0,0,dh">네이버 지도</a>  <a href="https://map.kakao.com/link/map/후보지 #16 (전주 완주),35.59196,127.15795">카카오 지도</a>]]></description>
      <styleUrl>#center</styleUrl>
      <Point><coordinates>127.15795,35.59196,0</coordinates></Point>
    </Placemark>

    <Placemark>
      <name>#1 91.2점</name>
      <description><![CDATA[사이트: 후보지 #16 (전주 완주)
순위: #1 / 서브격자 종합점수: 91.2점
위도: 35.600976°N  경도: 127.157912°E

── 점수 내역 ──
② 지형 경사도: 13.5 / 15점 (경사 3.0°)
③ 전력·철도:   14.5 / 15점 (전력 5.4km / 철도 6.6km)
④ 인구 이격:   14.4 / 15점 (도시 1.1km)
⑤ 모델기여도:  8.0 / 10점 (P90-P10 116nT)
⑥ 암상 적합성: 4.4 / 5점 (암상 0.6km / 단층 0.9km)

도로 접근: 787m

네이버 지도: https://map.naver.com/v5/?c=127.157912,35.600976,16,0,0,0,dh
카카오 지도: https://map.kakao.com/link/map/#1_16,35.600976,127.157912]]></description>
      <styleUrl>#top3</styleUrl>
      <Point>
        <coordinates>127.157912,35.600976,0</coordinates>
      </Point>
    </Placemark>

    <Placemark>
      <name>#2 88.0점</name>
      <description><![CDATA[사이트: 후보지 #16 (전주 완주)
순위: #2 / 서브격자 종합점수: 88.0점
위도: 35.601094°N  경도: 127.202071°E

── 점수 내역 ──
② 지형 경사도: 12.8 / 15점 (경사 4.4°)
③ 전력·철도:   13.5 / 15점 (전력 3.5km / 철도 3.4km)
④ 인구 이격:   13.6 / 15점 (도시 0.8km)
⑤ 모델기여도:  8.0 / 10점 (P90-P10 67nT)
⑥ 암상 적합성: 4.8 / 5점 (암상 1.3km / 단층 1.8km)

도로 접근: 893m

네이버 지도: https://map.naver.com/v5/?c=127.202071,35.601094,16,0,0,0,dh
카카오 지도: https://map.kakao.com/link/map/#2_16,35.601094,127.202071]]></description>
      <styleUrl>#top3</styleUrl>
      <Point>
        <coordinates>127.202071,35.601094,0</coordinates>
      </Point>
    </Placemark>

    <Placemark>
      <name>#3 86.8점</name>
      <description><![CDATA[사이트: 후보지 #16 (전주 완주)
순위: #3 / 서브격자 종합점수: 86.8점
위도: 35.591928°N  경도: 127.146911°E

── 점수 내역 ──
② 지형 경사도: 8.6 / 15점 (경사 12.9°)
③ 전력·철도:   14.4 / 15점 (전력 4.4km / 철도 7.9km)
④ 인구 이격:   14.5 / 15점 (도시 1.2km)
⑤ 모델기여도:  10.0 / 10점 (P90-P10 170nT)
⑥ 암상 적합성: 4.5 / 5점 (암상 1.5km / 단층 0.6km)

도로 접근: 890m

네이버 지도: https://map.naver.com/v5/?c=127.146911,35.591928,16,0,0,0,dh
카카오 지도: https://map.kakao.com/link/map/#3_16,35.591928,127.146911]]></description>
      <styleUrl>#top3</styleUrl>
      <Point>
        <coordinates>127.146911,35.591928,0</coordinates>
      </Point>
    </Placemark>

    <Placemark>
      <name>#4 86.8점</name>
      <description><![CDATA[사이트: 후보지 #16 (전주 완주)
순위: #4 / 서브격자 종합점수: 86.8점
위도: 35.591960°N  경도: 127.157950°E

── 점수 내역 ──
② 지형 경사도: 10.1 / 15점 (경사 9.9°)
③ 전력·철도:   14.5 / 15점 (전력 5.4km / 철도 7.0km)
④ 인구 이격:   15.0 / 15점 (도시 1.5km)
⑤ 모델기여도:  8.0 / 10점 (P90-P10 97nT)
⑥ 암상 적합성: 4.5 / 5점 (암상 0.6km / 단층 1.3km)

도로 접근: 1158m

네이버 지도: https://map.naver.com/v5/?c=127.15795,35.59196,16,0,0,0,dh
카카오 지도: https://map.kakao.com/link/map/#4_16,35.59196,127.15795]]></description>
      <styleUrl>#top10</styleUrl>
      <Point>
        <coordinates>127.15795,35.59196,0</coordinates>
      </Point>
    </Placemark>

    <Placemark>
      <name>#5 85.4점</name>
      <description><![CDATA[사이트: 후보지 #16 (전주 완주)
순위: #5 / 서브격자 종합점수: 85.4점
위도: 35.582944°N  경도: 127.157988°E

── 점수 내역 ──
② 지형 경사도: 10.0 / 15점 (경사 10.0°)
③ 전력·철도:   14.6 / 15점 (전력 5.6km / 철도 7.6km)
④ 인구 이격:   14.0 / 15점 (도시 1.0km)
⑤ 모델기여도:  8.0 / 10점 (P90-P10 97nT)
⑥ 암상 적합성: 4.6 / 5점 (암상 0.6km / 단층 1.6km)

도로 접근: 858m

네이버 지도: https://map.naver.com/v5/?c=127.157988,35.582944,16,0,0,0,dh
카카오 지도: https://map.kakao.com/link/map/#5_16,35.582944,127.157988]]></description>
      <styleUrl>#top10</styleUrl>
      <Point>
        <coordinates>127.157988,35.582944,0</coordinates>
      </Point>
    </Placemark>

    <Placemark>
      <name>#6 82.5점</name>
      <description><![CDATA[사이트: 후보지 #16 (전주 완주)
순위: #6 / 서브격자 종합점수: 82.5점
위도: 35.555894°N  경도: 127.158103°E

── 점수 내역 ──
② 지형 경사도: 9.2 / 15점 (경사 11.7°)
③ 전력·철도:   15.0 / 15점 (전력 7.0km / 철도 9.8km)
④ 인구 이격:   12.0 / 15점 (도시 0.4km)
⑤ 모델기여도:  10.0 / 10점 (P90-P10 230nT)
⑥ 암상 적합성: 3.3 / 5점 (암상 0.0km / 단층 0.5km)

도로 접근: 595m

네이버 지도: https://map.naver.com/v5/?c=127.158103,35.555894,16,0,0,0,dh
카카오 지도: https://map.kakao.com/link/map/#6_16,35.555894,127.158103]]></description>
      <styleUrl>#top10</styleUrl>
      <Point>
        <coordinates>127.158103,35.555894,0</coordinates>
      </Point>
    </Placemark>

    <Placemark>
      <name>#7 81.9점</name>
      <description><![CDATA[사이트: 후보지 #16 (전주 완주)
순위: #7 / 서브격자 종합점수: 81.9점
위도: 35.592077°N  경도: 127.202105°E

── 점수 내역 ──
② 지형 경사도: 11.5 / 15점 (경사 7.0°)
③ 전력·철도:   13.9 / 15점 (전력 4.3km / 철도 4.2km)
④ 인구 이격:   11.0 / 15점 (도시 0.2km)
⑤ 모델기여도:  8.0 / 10점 (P90-P10 71nT)
⑥ 암상 적합성: 4.8 / 5점 (암상 2.2km / 단층 0.9km)

도로 접근: 522m

네이버 지도: https://map.naver.com/v5/?c=127.202105,35.592077,16,0,0,0,dh
카카오 지도: https://map.kakao.com/link/map/#7_16,35.592077,127.202105]]></description>
      <styleUrl>#top10</styleUrl>
      <Point>
        <coordinates>127.202105,35.592077,0</coordinates>
      </Point>
    </Placemark>

  </Folder>

</Document>
</kml>