{
"type": "FeatureCollection",
"name": "candidates_p1",
"crs": { "type": "name", "properties": { "name": "urn:ogc:def:crs:OGC:1.3:CRS84" } },
"features": [
{ "type": "Feature", "properties": { "idx": 1, "lat": 36.667862413227262, "lon": 126.25803765158393, "priority": 1, "score": 61.1, "s1": 10.4, "s2": 15.0, "s3": 11.8, "s4": 9.7, "s5": 2.0, "dp": 3.6, "dr": 31.6, "du": 2.1, "dem": 0.03 }, "geometry": { "type": "Point", "coordinates": [ 126.258037651583933, 36.667862413227262 ] } },
{ "type": "Feature", "properties": { "idx": 2, "lat": 34.326006062528954, "lon": 126.51096799124811, "priority": 1, "score": 77.6, "s1": 21.6, "s2": 14.8, "s3": 11.8, "s4": 8.8, "s5": 5.0, "dp": 3.5, "dr": 30.5, "du": 1.1, "dem": 0.33 }, "geometry": { "type": "Point", "coordinates": [ 126.510967991248108, 34.326006062528954 ] } },
{ "type": "Feature", "properties": { "idx": 3, "lat": 36.130037128193216, "lon": 126.59995868574487, "priority": 1, "score": 60.7, "s1": 7.8, "s2": 14.8, "s3": 10.0, "s4": 8.1, "s5": 8.0, "dp": 2.5, "dr": 2.7, "du": 0.6, "dem": 0.48 }, "geometry": { "type": "Point", "coordinates": [ 126.599958685744866, 36.130037128193216 ] } },
{ "type": "Feature", "properties": { "idx": 4, "lat": 36.220968818843808, "lon": 126.7101793661441, "priority": 1, "score": 58.6, "s1": 6.3, "s2": 14.6, "s3": 9.8, "s4": 8.1, "s5": 8.0, "dp": 3.3, "dr": 1.6, "du": 0.6, "dem": 0.77 }, "geometry": { "type": "Point", "coordinates": [ 126.710179366144104, 36.220968818843808 ] } },
{ "type": "Feature", "properties": { "idx": 5, "lat": 36.401948218746263, "lon": 126.81987144358216, "priority": 1, "score": 61.5, "s1": 5.4, "s2": 14.7, "s3": 11.1, "s4": 8.0, "s5": 10.0, "dp": 2.6, "dr": 14.4, "du": 0.5, "dem": 0.69 }, "geometry": { "type": "Point", "coordinates": [ 126.819871443582159, 36.401948218746263 ] } },
{ "type": "Feature", "properties": { "idx": 6, "lat": 36.582826307593599, "lon": 126.93006818765602, "priority": 1, "score": 60.6, "s1": 6.3, "s2": 14.7, "s3": 10.8, "s4": 8.7, "s5": 8.0, "dp": 2.7, "dr": 9.2, "du": 0.9, "dem": 0.69 }, "geometry": { "type": "Point", "coordinates": [ 126.930068187656019, 36.582826307593599 ] } },
{ "type": "Feature", "properties": { "idx": 9, "lat": 36.583308340886212, "lon": 127.0418460828428, "priority": 1, "score": 62.8, "s1": 6.1, "s2": 14.2, "s3": 11.1, "s4": 8.7, "s5": 10.0, "dp": 4.3, "dr": 9.4, "du": 0.9, "dem": 1.53 }, "geometry": { "type": "Point", "coordinates": [ 127.041846082842795, 36.583308340886212 ] } },
{ "type": "Feature", "properties": { "idx": 11, "lat": 35.591964281379425, "lon": 127.15795011110437, "priority": 1, "score": 61.1, "s1": 6.0, "s2": 14.5, "s3": 11.1, "s4": 9.3, "s5": 8.0, "dp": 5.4, "dr": 7.0, "du": 1.5, "dem": 1.06 }, "geometry": { "type": "Point", "coordinates": [ 127.15795011110437, 35.591964281379425 ] } },
{ "type": "Feature", "properties": { "idx": 12, "lat": 34.870865183398763, "lon": 127.27037850532817, "priority": 1, "score": 61.2, "s1": 9.2, "s2": 14.4, "s3": 9.0, "s4": 8.3, "s5": 8.0, "dp": 1.4, "dr": 0.9, "du": 0.7, "dem": 1.21 }, "geometry": { "type": "Point", "coordinates": [ 127.270378505328168, 34.870865183398763 ] } },
{ "type": "Feature", "properties": { "idx": 14, "lat": 37.215144829595232, "lon": 127.37617633511314, "priority": 1, "score": 57.1, "s1": 5.8, "s2": 14.4, "s3": 10.1, "s4": 5.3, "s5": 10.0, "dp": 4.0, "dr": 2.0, "du": 0.1, "dem": 1.23 }, "geometry": { "type": "Point", "coordinates": [ 127.376176335113144, 37.215144829595232 ] } },
{ "type": "Feature", "properties": { "idx": 15, "lat": 37.39542369220392, "lon": 127.37588038441424, "priority": 1, "score": 56.8, "s1": 5.1, "s2": 14.8, "s3": 6.8, "s4": 8.7, "s5": 10.0, "dp": 0.3, "dr": 0.2, "du": 0.9, "dem": 0.37 }, "geometry": { "type": "Point", "coordinates": [ 127.375880384414245, 37.39542369220392 ] } },
{ "type": "Feature", "properties": { "idx": 28, "lat": 35.321906214385443, "lon": 127.59916921724368, "priority": 1, "score": 57.4, "s1": 1.8, "s2": 14.2, "s3": 11.6, "s4": 10.3, "s5": 8.0, "dp": 5.0, "dr": 17.1, "du": 3.5, "dem": 1.63 }, "geometry": { "type": "Point", "coordinates": [ 127.599169217243684, 35.321906214385443 ] } },
{ "type": "Feature", "properties": { "idx": 30, "lat": 35.592408584733853, "lon": 127.59950172157968, "priority": 1, "score": 57.2, "s1": 3.1, "s2": 14.2, "s3": 11.7, "s4": 8.8, "s5": 8.0, "dp": 7.3, "dr": 13.2, "du": 1.1, "dem": 1.63 }, "geometry": { "type": "Point", "coordinates": [ 127.599501721579685, 35.592408584733853 ] } },
{ "type": "Feature", "properties": { "idx": 33, "lat": 36.133376782455798, "lon": 127.60018017067613, "priority": 1, "score": 57.9, "s1": 4.9, "s2": 14.1, "s3": 10.9, "s4": 8.4, "s5": 8.0, "dp": 3.7, "dr": 7.3, "du": 0.8, "dem": 1.72 }, "geometry": { "type": "Point", "coordinates": [ 127.600180170676126, 36.133376782455798 ] } },
{ "type": "Feature", "properties": { "idx": 36, "lat": 37.215165982988921, "lon": 127.60159256613683, "priority": 1, "score": 58.7, "s1": 4.9, "s2": 14.4, "s3": 9.3, "s4": 8.3, "s5": 10.0, "dp": 2.5, "dr": 0.9, "du": 0.7, "dem": 1.1 }, "geometry": { "type": "Point", "coordinates": [ 127.60159256613683, 37.215165982988921 ] } },
{ "type": "Feature", "properties": { "idx": 41, "lat": 35.321765927731413, "lon": 127.70918837716678, "priority": 1, "score": 57.1, "s1": 2.6, "s2": 13.2, "s3": 11.9, "s4": 10.0, "s5": 8.0, "dp": 6.0, "dr": 20.5, "du": 2.7, "dem": 3.68 }, "geometry": { "type": "Point", "coordinates": [ 127.709188377166782, 35.321765927731413 ] } },
{ "type": "Feature", "properties": { "idx": 52, "lat": 36.583747589886855, "lon": 127.82432530103883, "priority": 1, "score": 57.0, "s1": 2.3, "s2": 14.3, "s3": 12.6, "s4": 8.4, "s5": 8.0, "dp": 17.6, "dr": 22.5, "du": 0.7, "dem": 1.47 }, "geometry": { "type": "Point", "coordinates": [ 127.824325301038826, 36.583747589886855 ] } },
{ "type": "Feature", "properties": { "idx": 54, "lat": 37.214758163876731, "lon": 127.82700664523, "priority": 1, "score": 61.2, "s1": 4.4, "s2": 14.5, "s3": 10.8, "s4": 9.2, "s5": 10.0, "dp": 2.7, "dr": 8.2, "du": 1.5, "dem": 0.95 }, "geometry": { "type": "Point", "coordinates": [ 127.82700664523, 37.214758163876731 ] } },
{ "type": "Feature", "properties": { "idx": 57, "lat": 34.870332721235798, "lon": 127.92686677879259, "priority": 1, "score": 62.3, "s1": 9.3, "s2": 14.7, "s3": 11.0, "s4": 9.9, "s5": 5.0, "dp": 2.6, "dr": 11.8, "du": 2.5, "dem": 0.58 }, "geometry": { "type": "Point", "coordinates": [ 127.926866778792586, 34.870332721235798 ] } },
{ "type": "Feature", "properties": { "idx": 58, "lat": 36.042478340094675, "lon": 127.93310365756862, "priority": 1, "score": 59.5, "s1": 4.4, "s2": 13.8, "s3": 10.2, "s4": 9.2, "s5": 10.0, "dp": 1.5, "dr": 6.2, "du": 1.4, "dem": 2.33 }, "geometry": { "type": "Point", "coordinates": [ 127.933103657568623, 36.042478340094675 ] } },
{ "type": "Feature", "properties": { "idx": 60, "lat": 36.493242350336736, "lon": 127.93560000322341, "priority": 1, "score": 57.5, "s1": 2.9, "s2": 14.1, "s3": 12.0, "s4": 8.9, "s5": 8.0, "dp": 10.8, "dr": 15.2, "du": 1.1, "dem": 1.82 }, "geometry": { "type": "Point", "coordinates": [ 127.935600003223414, 36.493242350336736 ] } },
{ "type": "Feature", "properties": { "idx": 61, "lat": 36.673538365212899, "lon": 127.93661417733213, "priority": 1, "score": 60.4, "s1": 2.5, "s2": 14.7, "s3": 12.0, "s4": 9.1, "s5": 10.0, "dp": 17.8, "dr": 8.4, "du": 1.3, "dem": 0.57 }, "geometry": { "type": "Point", "coordinates": [ 127.936614177332132, 36.673538365212899 ] } },
{ "type": "Feature", "properties": { "idx": 63, "lat": 37.84532806561792, "lon": 127.94343091330778, "priority": 1, "score": 60.4, "s1": 2.8, "s2": 14.3, "s3": 11.6, "s4": 9.6, "s5": 10.0, "dp": 6.5, "dr": 13.4, "du": 1.9, "dem": 1.38 }, "geometry": { "type": "Point", "coordinates": [ 127.943430913307779, 37.84532806561792 ] } },
{ "type": "Feature", "properties": { "idx": 68, "lat": 36.58292968401858, "lon": 128.04788437121383, "priority": 1, "score": 56.9, "s1": 3.2, "s2": 14.8, "s3": 11.3, "s4": 8.2, "s5": 8.0, "dp": 9.2, "dr": 5.4, "du": 0.6, "dem": 0.37 }, "geometry": { "type": "Point", "coordinates": [ 128.047884371213826, 36.58292968401858 ] } },
{ "type": "Feature", "properties": { "idx": 70, "lat": 37.394192300608253, "lon": 128.05373404307187, "priority": 1, "score": 57.9, "s1": 2.7, "s2": 12.5, "s3": 10.9, "s4": 10.2, "s5": 10.0, "dp": 8.9, "dr": 3.1, "du": 3.1, "dem": 4.98 }, "geometry": { "type": "Point", "coordinates": [ 128.05373404307187, 37.394192300608253 ] } },
{ "type": "Feature", "properties": { "idx": 71, "lat": 37.754717445340141, "lon": 128.05641007550918, "priority": 1, "score": 59.8, "s1": 2.2, "s2": 13.9, "s3": 11.7, "s4": 10.1, "s5": 10.0, "dp": 4.5, "dr": 21.0, "du": 2.8, "dem": 2.2 }, "geometry": { "type": "Point", "coordinates": [ 128.056410075509177, 37.754717445340141 ] } },
{ "type": "Feature", "properties": { "idx": 72, "lat": 37.84484525415656, "lon": 128.05708657001784, "priority": 1, "score": 58.9, "s1": 2.3, "s2": 13.7, "s3": 11.1, "s4": 9.9, "s5": 10.0, "dp": 1.6, "dr": 23.4, "du": 2.5, "dem": 2.56 }, "geometry": { "type": "Point", "coordinates": [ 128.057086570017844, 37.84484525415656 ] } },
{ "type": "Feature", "properties": { "idx": 75, "lat": 36.852791251289055, "lon": 128.16197631880667, "priority": 1, "score": 58.2, "s1": 3.4, "s2": 13.6, "s3": 11.5, "s4": 10.0, "s5": 8.0, "dp": 8.3, "dr": 9.1, "du": 2.5, "dem": 2.84 }, "geometry": { "type": "Point", "coordinates": [ 128.161976318806666, 36.852791251289055 ] } },
{ "type": "Feature", "properties": { "idx": 77, "lat": 37.21334217826729, "lon": 128.16511328508301, "priority": 1, "score": 57.0, "s1": 3.3, "s2": 14.8, "s3": 9.4, "s4": 10.1, "s5": 8.0, "dp": 0.9, "dr": 2.8, "du": 2.9, "dem": 0.4 }, "geometry": { "type": "Point", "coordinates": [ 128.165113285083009, 37.21334217826729 ] } },
{ "type": "Feature", "properties": { "idx": 80, "lat": 37.663999567505108, "lon": 128.1691138564413, "priority": 1, "score": 57.3, "s1": 2.2, "s2": 14.3, "s3": 11.4, "s4": 9.9, "s5": 8.0, "dp": 6.0, "dr": 10.7, "du": 2.4, "dem": 1.34 }, "geometry": { "type": "Point", "coordinates": [ 128.1691138564413, 37.663999567505108 ] } },
{ "type": "Feature", "properties": { "idx": 87, "lat": 37.753426965960386, "lon": 128.28343574002622, "priority": 1, "score": 58.6, "s1": 2.0, "s2": 14.2, "s3": 12.0, "s4": 10.6, "s5": 8.0, "dp": 8.9, "dr": 17.3, "du": 4.4, "dem": 1.58 }, "geometry": { "type": "Point", "coordinates": [ 128.283435740026221, 37.753426965960386 ] } },
{ "type": "Feature", "properties": { "idx": 89, "lat": 38.023793665749011, "lon": 128.28630590193072, "priority": 1, "score": 57.7, "s1": 2.2, "s2": 14.4, "s3": 11.2, "s4": 8.3, "s5": 10.0, "dp": 1.0, "dr": 43.6, "du": 0.7, "dem": 1.13 }, "geometry": { "type": "Point", "coordinates": [ 128.286305901930717, 38.023793665749011 ] } },
{ "type": "Feature", "properties": { "idx": 93, "lat": 36.761193865577916, "lon": 128.38526309955415, "priority": 1, "score": 57.8, "s1": 3.4, "s2": 13.9, "s3": 10.6, "s4": 8.3, "s5": 10.0, "dp": 1.9, "dr": 8.8, "du": 0.7, "dem": 2.2 }, "geometry": { "type": "Point", "coordinates": [ 128.385263099554152, 36.761193865577916 ] } },
{ "type": "Feature", "properties": { "idx": 96, "lat": 37.482246255767784, "lon": 128.39370029653821, "priority": 1, "score": 58.5, "s1": 2.8, "s2": 14.5, "s3": 10.2, "s4": 9.3, "s5": 10.0, "dp": 2.5, "dr": 3.6, "du": 1.5, "dem": 1.05 }, "geometry": { "type": "Point", "coordinates": [ 128.393700296538213, 37.482246255767784 ] } },
{ "type": "Feature", "properties": { "idx": 99, "lat": 38.022976596794948, "lon": 128.40022839787252, "priority": 1, "score": 56.7, "s1": 1.9, "s2": 12.5, "s3": 11.4, "s4": 9.5, "s5": 10.0, "dp": 1.5, "dr": 38.5, "du": 1.8, "dem": 4.9 }, "geometry": { "type": "Point", "coordinates": [ 128.400228397872525, 38.022976596794948 ] } },
{ "type": "Feature", "properties": { "idx": 103, "lat": 36.489898532603917, "lon": 128.49380976355755, "priority": 1, "score": 62.8, "s1": 5.6, "s2": 14.1, "s3": 11.7, "s4": 8.8, "s5": 10.0, "dp": 10.0, "dr": 10.4, "du": 1.0, "dem": 1.75 }, "geometry": { "type": "Point", "coordinates": [ 128.49380976355755, 36.489898532603917 ] } },
{ "type": "Feature", "properties": { "idx": 106, "lat": 37.301087806111951, "lon": 128.50438418075777, "priority": 1, "score": 56.7, "s1": 3.1, "s2": 13.4, "s3": 10.4, "s4": 8.5, "s5": 10.0, "dp": 1.6, "dr": 7.9, "du": 0.8, "dem": 3.29 }, "geometry": { "type": "Point", "coordinates": [ 128.504384180757768, 37.301087806111951 ] } },
{ "type": "Feature", "properties": { "idx": 108, "lat": 37.661579803061791, "lon": 128.50922158302495, "priority": 1, "score": 57.1, "s1": 2.2, "s2": 14.0, "s3": 10.0, "s4": 9.5, "s5": 10.0, "dp": 6.7, "dr": 1.0, "du": 1.8, "dem": 1.97 }, "geometry": { "type": "Point", "coordinates": [ 128.509221583024953, 37.661579803061791 ] } },
{ "type": "Feature", "properties": { "idx": 109, "lat": 37.75169927030516, "lon": 128.51044446142916, "priority": 1, "score": 58.0, "s1": 2.2, "s2": 13.6, "s3": 11.8, "s4": 10.8, "s5": 8.0, "dp": 14.3, "dr": 7.7, "du": 4.9, "dem": 2.79 }, "geometry": { "type": "Point", "coordinates": [ 128.510444461429159, 37.75169927030516 ] } },
{ "type": "Feature", "properties": { "idx": 110, "lat": 37.931933957305723, "lon": 128.51290663137979, "priority": 1, "score": 59.9, "s1": 2.3, "s2": 14.1, "s3": 11.7, "s4": 9.7, "s5": 10.0, "dp": 3.8, "dr": 25.8, "du": 2.2, "dem": 1.79 }, "geometry": { "type": "Point", "coordinates": [ 128.512906631379792, 37.931933957305723 ] } },
{ "type": "Feature", "properties": { "idx": 115, "lat": 37.029702539114282, "lon": 128.61322730998597, "priority": 1, "score": 57.2, "s1": 1.9, "s2": 13.9, "s3": 11.6, "s4": 8.4, "s5": 10.0, "dp": 6.1, "dr": 13.0, "du": 0.8, "dem": 2.24 }, "geometry": { "type": "Point", "coordinates": [ 128.613227309985973, 37.029702539114282 ] } },
{ "type": "Feature", "properties": { "idx": 116, "lat": 37.570437773486866, "lon": 128.62122664320111, "priority": 1, "score": 58.3, "s1": 2.5, "s2": 13.7, "s3": 10.4, "s4": 9.9, "s5": 10.0, "dp": 4.2, "dr": 3.2, "du": 2.5, "dem": 2.51 }, "geometry": { "type": "Point", "coordinates": [ 128.621226643201112, 37.570437773486866 ] } },
{ "type": "Feature", "properties": { "idx": 117, "lat": 37.750671501162074, "lon": 128.62394093517904, "priority": 1, "score": 56.7, "s1": 1.9, "s2": 13.3, "s3": 11.0, "s4": 9.2, "s5": 10.0, "dp": 7.9, "dr": 3.9, "du": 1.4, "dem": 3.3 }, "geometry": { "type": "Point", "coordinates": [ 128.623940935179036, 37.750671501162074 ] } },
{ "type": "Feature", "properties": { "idx": 118, "lat": 37.840786230673373, "lon": 128.62530717995114, "priority": 1, "score": 56.9, "s1": 2.0, "s2": 11.8, "s3": 11.6, "s4": 10.1, "s5": 10.0, "dp": 6.1, "dr": 13.5, "du": 2.9, "dem": 6.44 }, "geometry": { "type": "Point", "coordinates": [ 128.625307179951136, 37.840786230673373 ] } },
{ "type": "Feature", "properties": { "idx": 119, "lat": 38.02101141441441, "lon": 128.62805801138009, "priority": 1, "score": 58.9, "s1": 2.9, "s2": 14.1, "s3": 11.3, "s4": 8.8, "s5": 10.0, "dp": 1.7, "dr": 31.9, "du": 1.0, "dem": 1.85 }, "geometry": { "type": "Point", "coordinates": [ 128.628058011380091, 38.02101141441441 ] } },
{ "type": "Feature", "properties": { "idx": 120, "lat": 37.028594603001764, "lon": 128.72563652849948, "priority": 1, "score": 57.1, "s1": 1.9, "s2": 13.9, "s3": 10.8, "s4": 9.0, "s5": 10.0, "dp": 2.7, "dr": 9.3, "du": 1.2, "dem": 2.1 }, "geometry": { "type": "Point", "coordinates": [ 128.725636528499479, 37.028594603001764 ] } },
{ "type": "Feature", "properties": { "idx": 122, "lat": 37.569308070212379, "lon": 128.73444312688949, "priority": 1, "score": 58.0, "s1": 2.7, "s2": 13.2, "s3": 10.1, "s4": 10.4, "s5": 10.0, "dp": 7.4, "dr": 1.1, "du": 3.5, "dem": 3.54 }, "geometry": { "type": "Point", "coordinates": [ 128.734443126889488, 37.569308070212379 ] } },
{ "type": "Feature", "properties": { "idx": 128, "lat": 37.568069830609801, "lon": 128.84765298526688, "priority": 1, "score": 57.9, "s1": 2.7, "s2": 14.9, "s3": 10.9, "s4": 7.8, "s5": 10.0, "dp": 4.0, "dr": 6.7, "du": 0.5, "dem": 0.13 }, "geometry": { "type": "Point", "coordinates": [ 128.847652985266876, 37.568069830609801 ] } },
{ "type": "Feature", "properties": { "idx": 129, "lat": 37.296397744681272, "lon": 128.9556105483623, "priority": 1, "score": 56.9, "s1": 3.3, "s2": 13.8, "s3": 10.2, "s4": 10.2, "s5": 8.0, "dp": 2.1, "dr": 4.6, "du": 3.0, "dem": 2.46 }, "geometry": { "type": "Point", "coordinates": [ 128.955610548362301, 37.296397744681272 ] } },
{ "type": "Feature", "properties": { "idx": 139, "lat": 37.203306308794204, "lon": 129.17917865878593, "priority": 1, "score": 58.5, "s1": 3.6, "s2": 14.6, "s3": 10.6, "s4": 10.0, "s5": 8.0, "dp": 2.5, "dr": 7.2, "du": 2.6, "dem": 0.85 }, "geometry": { "type": "Point", "coordinates": [ 129.179178658785929, 37.203306308794204 ] } },
{ "type": "Feature", "properties": { "idx": 140, "lat": 37.293407961225661, "lon": 129.18117975058843, "priority": 1, "score": 57.1, "s1": 3.8, "s2": 14.8, "s3": 10.4, "s4": 8.7, "s5": 8.0, "dp": 4.3, "dr": 2.8, "du": 0.9, "dem": 0.4 }, "geometry": { "type": "Point", "coordinates": [ 129.181179750588427, 37.293407961225661 ] } },
{ "type": "Feature", "properties": { "idx": 149, "lat": 37.437274302691037, "lon": 130.87954734910005, "priority": 1, "score": 92.3, "s1": 25.0, "s2": 13.9, "s3": 15.0, "s4": 15.0, "s5": 5.0, "dp": 133.1, "dr": 130.4, "du": 135.6, "dem": 2.25 }, "geometry": { "type": "Point", "coordinates": [ 130.879547349100051, 37.437274302691037 ] } }
]
}
