{
"type": "FeatureCollection",
"name": "candidates_p3",
"crs": { "type": "name", "properties": { "name": "urn:ogc:def:crs:OGC:1.3:CRS84" } },
"features": [
{ "type": "Feature", "properties": { "idx": 13, "lat": 35.862715408606967, "lon": 127.26755230843995, "priority": 3, "score": 49.2, "s1": 5.1, "s2": 13.8, "s3": 10.8, "s4": 7.7, "s5": 2.0, "dp": 5.2, "dr": 4.3, "du": 0.4, "dem": 2.46 }, "geometry": { "type": "Point", "coordinates": [ 127.267552308439946, 35.862715408606967 ] } },
{ "type": "Feature", "properties": { "idx": 16, "lat": 37.846096714210837, "lon": 127.37512886986579, "priority": 3, "score": 49.1, "s1": 3.1, "s2": 13.4, "s3": 9.0, "s4": 8.7, "s5": 5.0, "dp": 0.2, "dr": 5.9, "du": 0.9, "dem": 3.19 }, "geometry": { "type": "Point", "coordinates": [ 127.37512886986579, 37.846096714210837 ] } },
{ "type": "Feature", "properties": { "idx": 17, "lat": 37.936227172289314, "lon": 127.37497654666701, "priority": 3, "score": 51.7, "s1": 2.4, "s2": 13.3, "s3": 10.6, "s4": 10.1, "s5": 5.0, "dp": 1.3, "dr": 13.2, "du": 2.8, "dem": 3.43 }, "geometry": { "type": "Point", "coordinates": [ 127.374976546667014, 37.936227172289314 ] } },
{ "type": "Feature", "properties": { "idx": 19, "lat": 38.206610234359779, "lon": 127.37451547857914, "priority": 3, "score": 52.3, "s1": 3.0, "s2": 13.8, "s3": 10.6, "s4": 9.5, "s5": 5.0, "dp": 1.6, "dr": 10.9, "du": 1.8, "dem": 2.35 }, "geometry": { "type": "Point", "coordinates": [ 127.374515478579141, 38.206610234359779 ] } },
{ "type": "Feature", "properties": { "idx": 20, "lat": 35.321946394968315, "lon": 127.48914956834368, "priority": 3, "score": 52.5, "s1": 2.2, "s2": 12.4, "s3": 10.8, "s4": 8.6, "s5": 8.0, "dp": 2.6, "dr": 9.7, "du": 0.9, "dem": 5.29 }, "geometry": { "type": "Point", "coordinates": [ 127.489149568343677, 35.321946394968315 ] } },
{ "type": "Feature", "properties": { "idx": 24, "lat": 37.936293054120441, "lon": 127.48877671654076, "priority": 3, "score": 50.3, "s1": 1.9, "s2": 12.9, "s3": 11.1, "s4": 9.3, "s5": 5.0, "dp": 4.9, "dr": 8.3, "du": 1.5, "dem": 4.11 }, "geometry": { "type": "Point", "coordinates": [ 127.488776716540755, 37.936293054120441 ] } },
{ "type": "Feature", "properties": { "idx": 25, "lat": 38.026422340189022, "lon": 127.48876298140665, "priority": 3, "score": 50.5, "s1": 1.9, "s2": 13.1, "s3": 12.1, "s4": 8.4, "s5": 5.0, "dp": 9.9, "dr": 17.8, "du": 0.7, "dem": 3.87 }, "geometry": { "type": "Point", "coordinates": [ 127.488762981406651, 38.026422340189022 ] } },
{ "type": "Feature", "properties": { "idx": 26, "lat": 38.116550241053915, "lon": 127.48874918485534, "priority": 3, "score": 49.7, "s1": 1.9, "s2": 12.9, "s3": 11.9, "s4": 8.1, "s5": 5.0, "dp": 5.3, "dr": 25.0, "du": 0.6, "dem": 4.27 }, "geometry": { "type": "Point", "coordinates": [ 127.488749184855337, 38.116550241053915 ] } },
{ "type": "Feature", "properties": { "idx": 29, "lat": 35.412075020822797, "lon": 127.59927956013897, "priority": 3, "score": 50.1, "s1": 2.2, "s2": 13.0, "s3": 11.1, "s4": 8.7, "s5": 5.0, "dp": 2.4, "dr": 16.1, "du": 0.9, "dem": 3.92 }, "geometry": { "type": "Point", "coordinates": [ 127.599279560138967, 35.412075020822797 ] } },
{ "type": "Feature", "properties": { "idx": 32, "lat": 35.953059476728235, "lon": 127.59995200890059, "priority": 3, "score": 53.1, "s1": 3.5, "s2": 14.2, "s3": 11.0, "s4": 8.9, "s5": 5.0, "dp": 1.3, "dr": 23.1, "du": 1.1, "dem": 1.63 }, "geometry": { "type": "Point", "coordinates": [ 127.599952008900587, 35.953059476728235 ] } },
{ "type": "Feature", "properties": { "idx": 34, "lat": 36.493995059106091, "lon": 127.6006426220987, "priority": 3, "score": 52.0, "s1": 3.7, "s2": 14.6, "s3": 11.4, "s4": 6.9, "s5": 5.0, "dp": 5.5, "dr": 10.8, "du": 0.2, "dem": 0.73 }, "geometry": { "type": "Point", "coordinates": [ 127.600642622098704, 36.493995059106091 ] } },
{ "type": "Feature", "properties": { "idx": 37, "lat": 37.936248880226529, "lon": 127.6025769475394, "priority": 3, "score": 52.2, "s1": 2.2, "s2": 14.0, "s3": 10.4, "s4": 10.2, "s5": 5.0, "dp": 2.0, "dr": 6.7, "du": 3.0, "dem": 2.08 }, "geometry": { "type": "Point", "coordinates": [ 127.602576947539404, 37.936248880226529 ] } },
{ "type": "Feature", "properties": { "idx": 38, "lat": 38.026378023716838, "lon": 127.60270248167186, "priority": 3, "score": 49.4, "s1": 1.8, "s2": 12.0, "s3": 11.3, "s4": 9.5, "s5": 5.0, "dp": 4.1, "dr": 13.3, "du": 1.8, "dem": 6.07 }, "geometry": { "type": "Point", "coordinates": [ 127.602702481671855, 38.026378023716838 ] } },
{ "type": "Feature", "properties": { "idx": 39, "lat": 38.11650578165878, "lon": 127.60282857713405, "priority": 3, "score": 46.8, "s1": 2.0, "s2": 12.9, "s3": 11.2, "s4": 6.3, "s5": 5.0, "dp": 2.1, "dr": 22.3, "du": 0.1, "dem": 4.2 }, "geometry": { "type": "Point", "coordinates": [ 127.602828577134048, 38.11650578165878 ] } },
{ "type": "Feature", "properties": { "idx": 40, "lat": 38.296757136715399, "lon": 127.60308246281711, "priority": 3, "score": 52.1, "s1": 2.9, "s2": 14.7, "s3": 12.2, "s4": 6.9, "s5": 5.0, "dp": 9.4, "dr": 24.4, "du": 0.2, "dem": 0.65 }, "geometry": { "type": "Point", "coordinates": [ 127.603082462817113, 38.296757136715399 ] } },
{ "type": "Feature", "properties": { "idx": 48, "lat": 38.026223297038484, "lon": 127.71664142061046, "priority": 3, "score": 48.0, "s1": 2.2, "s2": 13.1, "s3": 8.2, "s4": 9.9, "s5": 5.0, "dp": 0.0, "dr": 10.1, "du": 2.5, "dem": 3.76 }, "geometry": { "type": "Point", "coordinates": [ 127.716641420610458, 38.026223297038484 ] } },
{ "type": "Feature", "properties": { "idx": 49, "lat": 38.20647642711419, "lon": 127.71717457991332, "priority": 3, "score": 50.7, "s1": 2.6, "s2": 13.2, "s3": 12.1, "s4": 7.6, "s5": 5.0, "dp": 6.2, "dr": 30.1, "du": 0.4, "dem": 3.5 }, "geometry": { "type": "Point", "coordinates": [ 127.717174579913319, 38.20647642711419 ] } },
{ "type": "Feature", "properties": { "idx": 50, "lat": 38.296600909398386, "lon": 127.71744294986404, "priority": 3, "score": 52.6, "s1": 2.9, "s2": 12.9, "s3": 12.8, "s4": 8.6, "s5": 5.0, "dp": 15.0, "dr": 33.9, "du": 0.9, "dem": 4.29 }, "geometry": { "type": "Point", "coordinates": [ 127.717442949864036, 38.296600909398386 ] } },
{ "type": "Feature", "properties": { "idx": 55, "lat": 37.665438669980865, "lon": 127.82897368358998, "priority": 3, "score": 51.3, "s1": 2.6, "s2": 13.9, "s3": 11.0, "s4": 8.6, "s5": 5.0, "dp": 2.1, "dr": 14.7, "du": 0.9, "dem": 2.23 }, "geometry": { "type": "Point", "coordinates": [ 127.828973683589979, 37.665438669980865 ] } },
{ "type": "Feature", "properties": { "idx": 56, "lat": 38.025958162741794, "lon": 127.83057917549839, "priority": 3, "score": 53.2, "s1": 2.9, "s2": 14.5, "s3": 11.5, "s4": 8.7, "s5": 5.0, "dp": 5.4, "dr": 12.9, "du": 0.9, "dem": 1.09 }, "geometry": { "type": "Point", "coordinates": [ 127.830579175498386, 38.025958162741794 ] } },
{ "type": "Feature", "properties": { "idx": 65, "lat": 38.29595402404231, "lon": 127.94615968872569, "priority": 3, "score": 53.1, "s1": 3.1, "s2": 13.5, "s3": 12.7, "s4": 8.2, "s5": 5.0, "dp": 9.9, "dr": 43.9, "du": 0.6, "dem": 2.94 }, "geometry": { "type": "Point", "coordinates": [ 127.946159688725686, 38.29595402404231 ] } },
{ "type": "Feature", "properties": { "idx": 66, "lat": 35.771555619210389, "lon": 128.04226412527836, "priority": 3, "score": 51.7, "s1": 4.7, "s2": 13.4, "s3": 11.7, "s4": 9.6, "s5": 2.0, "dp": 3.5, "dr": 28.3, "du": 1.9, "dem": 3.27 }, "geometry": { "type": "Point", "coordinates": [ 128.042264125278365, 35.771555619210389 ] } },
{ "type": "Feature", "properties": { "idx": 73, "lat": 38.205342545558928, "lon": 128.05982292263241, "priority": 3, "score": 52.2, "s1": 2.3, "s2": 13.6, "s3": 12.0, "s4": 8.8, "s5": 5.0, "dp": 3.8, "dr": 40.9, "du": 1.0, "dem": 2.84 }, "geometry": { "type": "Point", "coordinates": [ 128.059822922632407, 38.205342545558928 ] } },
{ "type": "Feature", "properties": { "idx": 74, "lat": 35.771005932762016, "lon": 128.15289328047317, "priority": 3, "score": 50.3, "s1": 5.6, "s2": 12.8, "s3": 12.0, "s4": 7.9, "s5": 2.0, "dp": 6.5, "dr": 22.3, "du": 0.5, "dem": 4.36 }, "geometry": { "type": "Point", "coordinates": [ 128.152893280473165, 35.771005932762016 ] } },
{ "type": "Feature", "properties": { "idx": 76, "lat": 36.942931062605552, "lon": 128.16275533498003, "priority": 3, "score": 52.3, "s1": 3.9, "s2": 14.1, "s3": 11.8, "s4": 7.0, "s5": 5.0, "dp": 10.2, "dr": 11.5, "du": 0.3, "dem": 1.72 }, "geometry": { "type": "Point", "coordinates": [ 128.162755334980034, 36.942931062605552 ] } },
{ "type": "Feature", "properties": { "idx": 79, "lat": 37.573870875791499, "lon": 128.1683065992008, "priority": 3, "score": 48.4, "s1": 2.9, "s2": 14.6, "s3": 4.2, "s4": 9.0, "s5": 8.0, "dp": 0.0, "dr": 0.8, "du": 1.2, "dem": 0.75 }, "geometry": { "type": "Point", "coordinates": [ 128.168306599200804, 37.573870875791499 ] } },
{ "type": "Feature", "properties": { "idx": 82, "lat": 38.20474237155419, "lon": 128.17403371248713, "priority": 3, "score": 52.2, "s1": 1.9, "s2": 13.0, "s3": 12.2, "s4": 9.7, "s5": 5.0, "dp": 5.8, "dr": 39.3, "du": 2.0, "dem": 4.02 }, "geometry": { "type": "Point", "coordinates": [ 128.17403371248713, 38.20474237155419 ] } },
{ "type": "Feature", "properties": { "idx": 85, "lat": 37.392918409731259, "lon": 128.27966806763322, "priority": 3, "score": 52.3, "s1": 2.6, "s2": 13.7, "s3": 10.2, "s4": 10.3, "s5": 5.0, "dp": 1.0, "dr": 9.1, "du": 3.3, "dem": 2.54 }, "geometry": { "type": "Point", "coordinates": [ 128.279668067633224, 37.392918409731259 ] } },
{ "type": "Feature", "properties": { "idx": 88, "lat": 37.843550602895903, "lon": 128.28438819793655, "priority": 3, "score": 51.2, "s1": 2.4, "s2": 13.3, "s3": 11.6, "s4": 8.7, "s5": 5.0, "dp": 3.0, "dr": 27.0, "du": 1.0, "dem": 3.46 }, "geometry": { "type": "Point", "coordinates": [ 128.284388197936551, 37.843550602895903 ] } },
{ "type": "Feature", "properties": { "idx": 91, "lat": 38.2040311060383, "lon": 128.28824079270981, "priority": 3, "score": 52.3, "s1": 1.8, "s2": 14.1, "s3": 10.2, "s4": 10.8, "s5": 5.0, "dp": 0.2, "dr": 36.4, "du": 4.9, "dem": 1.75 }, "geometry": { "type": "Point", "coordinates": [ 128.288240792709814, 38.2040311060383 ] } },
{ "type": "Feature", "properties": { "idx": 92, "lat": 38.294147714817839, "lon": 128.28921473465397, "priority": 3, "score": 53.4, "s1": 1.9, "s2": 14.2, "s3": 11.8, "s4": 9.8, "s5": 5.0, "dp": 4.4, "dr": 26.6, "du": 2.2, "dem": 1.64 }, "geometry": { "type": "Point", "coordinates": [ 128.289214734653967, 38.294147714817839 ] } },
{ "type": "Feature", "properties": { "idx": 94, "lat": 37.121731254793829, "lon": 128.38944415699547, "priority": 3, "score": 53.5, "s1": 3.3, "s2": 14.8, "s3": 9.8, "s4": 6.9, "s5": 8.0, "dp": 3.7, "dr": 1.3, "du": 0.2, "dem": 0.42 }, "geometry": { "type": "Point", "coordinates": [ 128.389444156995467, 37.121731254793829 ] } },
{ "type": "Feature", "properties": { "idx": 95, "lat": 37.301991559126868, "lon": 128.39156275382487, "priority": 3, "score": 51.3, "s1": 2.8, "s2": 14.5, "s3": 10.0, "s4": 8.7, "s5": 5.0, "dp": 1.3, "dr": 4.7, "du": 1.0, "dem": 0.91 }, "geometry": { "type": "Point", "coordinates": [ 128.391562753824871, 37.301991559126868 ] } },
{ "type": "Feature", "properties": { "idx": 100, "lat": 38.113093385469178, "lon": 128.40133349526107, "priority": 3, "score": 53.3, "s1": 1.8, "s2": 12.1, "s3": 12.6, "s4": 11.2, "s5": 5.0, "dp": 8.9, "dr": 45.1, "du": 7.0, "dem": 5.86 }, "geometry": { "type": "Point", "coordinates": [ 128.401333495261071, 38.113093385469178 ] } },
{ "type": "Feature", "properties": { "idx": 101, "lat": 38.20320876094587, "lon": 128.40244353501592, "priority": 3, "score": 52.7, "s1": 1.9, "s2": 12.9, "s3": 11.8, "s4": 10.5, "s5": 5.0, "dp": 3.3, "dr": 35.1, "du": 3.9, "dem": 4.11 }, "geometry": { "type": "Point", "coordinates": [ 128.402443535015919, 38.20320876094587 ] } },
{ "type": "Feature", "properties": { "idx": 102, "lat": 38.293322722036528, "lon": 128.4035585408505, "priority": 3, "score": 53.0, "s1": 2.2, "s2": 14.2, "s3": 11.6, "s4": 9.4, "s5": 5.0, "dp": 3.3, "dr": 25.1, "du": 1.7, "dem": 1.69 }, "geometry": { "type": "Point", "coordinates": [ 128.403558540850497, 38.293322722036528 ] } },
{ "type": "Feature", "properties": { "idx": 111, "lat": 38.112162972518711, "lon": 128.51539085947704, "priority": 3, "score": 51.8, "s1": 2.3, "s2": 11.1, "s3": 11.7, "s4": 8.3, "s5": 8.0, "dp": 2.3, "dr": 45.1, "du": 0.7, "dem": 7.85 }, "geometry": { "type": "Point", "coordinates": [ 128.515390859477037, 38.112162972518711 ] } },
{ "type": "Feature", "properties": { "idx": 113, "lat": 36.669184118668241, "lon": 128.60801182757464, "priority": 3, "score": 52.4, "s1": 4.2, "s2": 14.3, "s3": 9.1, "s4": 9.4, "s5": 5.0, "dp": 1.6, "dr": 1.1, "du": 1.6, "dem": 1.5 }, "geometry": { "type": "Point", "coordinates": [ 128.608011827574643, 36.669184118668241 ] } },
{ "type": "Feature", "properties": { "idx": 123, "lat": 37.749534473328531, "lon": 128.73743133355538, "priority": 3, "score": 53.0, "s1": 2.4, "s2": 12.4, "s3": 9.1, "s4": 10.4, "s5": 8.0, "dp": 3.6, "dr": 0.5, "du": 3.6, "dem": 5.11 }, "geometry": { "type": "Point", "coordinates": [ 128.737431333555378, 37.749534473328531 ] } },
{ "type": "Feature", "properties": { "idx": 130, "lat": 37.386507634784991, "lon": 128.9573511251179, "priority": 3, "score": 50.6, "s1": 3.3, "s2": 13.9, "s3": 11.3, "s4": 10.0, "s5": 2.0, "dp": 6.7, "dr": 7.2, "du": 2.6, "dem": 2.17 }, "geometry": { "type": "Point", "coordinates": [ 128.957351125117896, 37.386507634784991 ] } },
{ "type": "Feature", "properties": { "idx": 132, "lat": 35.762946623905734, "lon": 129.03776214722947, "priority": 3, "score": 48.9, "s1": 6.3, "s2": 14.2, "s3": 10.5, "s4": 8.2, "s5": 0.0, "dp": 4.2, "dr": 3.4, "du": 0.6, "dem": 1.69 }, "geometry": { "type": "Point", "coordinates": [ 129.037762147229472, 35.762946623905734 ] } },
{ "type": "Feature", "properties": { "idx": 133, "lat": 36.123456958412845, "lon": 129.04476411619271, "priority": 3, "score": 53.0, "s1": 5.7, "s2": 13.5, "s3": 11.6, "s4": 9.6, "s5": 2.0, "dp": 7.0, "dr": 12.7, "du": 1.9, "dem": 2.97 }, "geometry": { "type": "Point", "coordinates": [ 129.044764116192709, 36.123456958412845 ] } },
{ "type": "Feature", "properties": { "idx": 134, "lat": 36.844408704199942, "lon": 129.05914686639952, "priority": 3, "score": 52.6, "s1": 3.3, "s2": 13.6, "s3": 10.5, "s4": 9.7, "s5": 5.0, "dp": 5.1, "dr": 2.9, "du": 2.1, "dem": 2.87 }, "geometry": { "type": "Point", "coordinates": [ 129.059146866399516, 36.844408704199942 ] } },
{ "type": "Feature", "properties": { "idx": 137, "lat": 36.752776096541737, "lon": 129.16930562464663, "priority": 3, "score": 50.3, "s1": 2.2, "s2": 14.5, "s3": 12.3, "s4": 9.3, "s5": 2.0, "dp": 15.2, "dr": 16.9, "du": 1.5, "dem": 1.06 }, "geometry": { "type": "Point", "coordinates": [ 129.169305624646626, 36.752776096541737 ] } },
{ "type": "Feature", "properties": { "idx": 141, "lat": 36.300611770911786, "lon": 129.27097868445045, "priority": 3, "score": 51.1, "s1": 5.3, "s2": 13.9, "s3": 10.8, "s4": 8.8, "s5": 2.0, "dp": 6.0, "dr": 3.9, "du": 1.1, "dem": 2.13 }, "geometry": { "type": "Point", "coordinates": [ 129.270978684450455, 36.300611770911786 ] } },
{ "type": "Feature", "properties": { "idx": 144, "lat": 36.841255749604109, "lon": 129.28336983582466, "priority": 3, "score": 52.8, "s1": 2.6, "s2": 13.4, "s3": 11.3, "s4": 9.9, "s5": 5.0, "dp": 7.5, "dr": 6.9, "du": 2.4, "dem": 3.12 }, "geometry": { "type": "Point", "coordinates": [ 129.283369835824658, 36.841255749604109 ] } },
{ "type": "Feature", "properties": { "idx": 145, "lat": 35.758247170861814, "lon": 129.36947608782347, "priority": 3, "score": 48.2, "s1": 5.1, "s2": 14.4, "s3": 7.9, "s4": 9.2, "s5": 2.0, "dp": 0.1, "dr": 2.1, "du": 1.4, "dem": 1.19 }, "geometry": { "type": "Point", "coordinates": [ 129.369476087823472, 35.758247170861814 ] } },
{ "type": "Feature", "properties": { "idx": 147, "lat": 36.749422780886604, "lon": 129.39324838198101, "priority": 3, "score": 45.7, "s1": 2.9, "s2": 13.9, "s3": 8.4, "s4": 9.4, "s5": 2.0, "dp": 1.5, "dr": 0.3, "du": 1.6, "dem": 2.17 }, "geometry": { "type": "Point", "coordinates": [ 129.39324838198101, 36.749422780886604 ] } },
{ "type": "Feature", "properties": { "idx": 148, "lat": 35.666367715518327, "lon": 129.47780108624633, "priority": 3, "score": 50.9, "s1": 6.8, "s2": 14.9, "s3": 9.8, "s4": 9.2, "s5": 0.0, "dp": 1.0, "dr": 5.0, "du": 1.4, "dem": 0.17 }, "geometry": { "type": "Point", "coordinates": [ 129.47780108624633, 35.666367715518327 ] } }
]
}
