{"type": "FeatureCollection", "features": [{"type": "Feature", "geometry": {"type": "Point", "coordinates": [128.5371528, 38.0203818]}, "properties": {"power": "plant", "fuel": "hydro", "name": "양양양수발전소", "output_mw": "1000 MW", "source": "hydro"}}, {"type": "Feature", "geometry": {"type": "Point", "coordinates": [128.8807869, 35.4124524]}, "properties": {"power": "plant", "fuel": "hydro", "name": "Samrangjin pumped-storage power station", "output_mw": "600 MW", "source": "hydro"}}, {"type": "Feature", "geometry": {"type": "Point", "coordinates": [127.7702684, 35.2531576]}, "properties": {"power": "plant", "fuel": "hydro", "name": "Sancheong pumped-storage power station", "output_mw": "700 MW", "source": "hydro"}}, {"type": "Feature", "geometry": {"type": "Point", "coordinates": [127.7023818, 35.9615618]}, "properties": {"power": "plant", "fuel": "hydro", "name": "Muju pumped-storage power plant", "output_mw": "600 MW", "source": "hydro"}}, {"type": "Feature", "geometry": {"type": "Point", "coordinates": [127.4807311, 36.477176]}, "properties": {"power": "plant", "fuel": "hydro", "name": "대청댐", "output_mw": "90 MW", "source": "hydro"}}, {"type": "Feature", "geometry": {"type": "Point", "coordinates": [126.4913084, 36.4017835]}, "properties": {"power": "plant", "fuel": "gas", "name": "보령화력발전소", "output_mw": "5350 MW", "source": "coal;gas"}}, {"type": "Feature", "geometry": {"type": "Point", "coordinates": [129.8354273, 33.5151599]}, "properties": {"power": "plant", "fuel": "nuclear", "name": "玄海原子力発電所", "output_mw": "3.478 GW", "source": "nuclear"}}, {"type": "Feature", "geometry": {"type": "Point", "coordinates": [127.2792178, 37.5264855]}, "properties": {"power": "plant", "fuel": "hydro", "name": "팔당댐", "output_mw": "120 MW", "source": "hydro"}}, {"type": "Feature", "geometry": {"type": "Point", "coordinates": [129.6822911, 33.3507124]}, "properties": {"power": "plant", "fuel": "coal", "name": "九州電力 松浦火力発電所", "output_mw": "1700 MW", "source": "coal"}}, {"type": "Feature", "geometry": {"type": "Point", "coordinates": [129.6919492, 33.3562758]}, "properties": {"power": "plant", "fuel": "coal", "name": "電源開発 松浦火力発電所", "output_mw": "2000 MW", "source": "coal"}}, {"type": "Feature", "geometry": {"type": "Point", "coordinates": [129.6488475, 33.1964757]}, "properties": {"power": "plant", "fuel": "coal", "name": "相浦火力発電所", "output_mw": "875 MW", "source": "oil"}}, {"type": "Feature", "geometry": {"type": "Point", "coordinates": [129.7779303, 33.7794085]}, "properties": {"power": "plant", "fuel": "other", "name": "新壱岐発電所", "output_mw": "24 MW", "source": "diesel"}}, {"type": "Feature", "geometry": {"type": "Point", "coordinates": [126.6024152, 37.5360522]}, "properties": {"power": "plant", "fuel": "gas", "name": "서인천복합화력발전소", "output_mw": "1800 MW", "source": "gas"}}, {"type": "Feature", "geometry": {"type": "Point", "coordinates": [126.6085613, 37.535774]}, "properties": {"power": "plant", "fuel": "gas", "name": "신인천복합화력발전소", "output_mw": "1800 MW", "source": "gas"}}, {"type": "Feature", "geometry": {"type": "Point", "coordinates": [126.6089808, 37.5112437]}, "properties": {"power": "plant", "fuel": "gas", "name": "인천복합화력발전소", "output_mw": "1450 MW", "source": "gas"}}, {"type": "Feature", "geometry": {"type": "Point", "coordinates": [129.3863156, 37.0879427]}, "properties": {"power": "plant", "fuel": "nuclear", "name": "한울원자력발전소", "output_mw": "5881 MW", "source": "nuclear"}}, {"type": "Feature", "geometry": {"type": "Point", "coordinates": [126.3418522, 33.2374247]}, "properties": {"power": "plant", "fuel": "coal", "name": "남제주화력발전소", "output_mw": "200 MW", "source": "oil"}}, {"type": "Feature", "geometry": {"type": "Point", "coordinates": [126.9183666, 37.5441299]}, "properties": {"power": "plant", "fuel": "gas", "name": "서울화력발전소", "output_mw": "yes", "source": "gas"}}, {"type": "Feature", "geometry": {"type": "Point", "coordinates": [127.1462733, 37.365875]}, "properties": {"power": "plant", "fuel": "gas", "name": "분당복합화력발전소", "output_mw": "922 MW", "source": "gas"}}, {"type": "Feature", "geometry": {"type": "Point", "coordinates": [127.487589, 37.7425157]}, "properties": {"power": "plant", "fuel": "hydro", "name": "청평양수발전소", "output_mw": "400 MW", "source": "hydro"}}, {"type": "Feature", "geometry": {"type": "Point", "coordinates": [128.298104, 35.9310839]}, "properties": {"power": "plant", "fuel": "other", "name": "한국전력공사대구본부성주지사", "output_mw": "", "source": ""}}, {"type": "Feature", "geometry": {"type": "Point", "coordinates": [127.0018937, 37.0252336]}, "properties": {"power": "plant", "fuel": "gas", "name": "오성복합화력발전소", "output_mw": "770 MW", "source": "gas"}}, {"type": "Feature", "geometry": {"type": "Point", "coordinates": [128.978791, 37.7324761]}, "properties": {"power": "plant", "fuel": "coal", "name": "Anin Power Plant", "output_mw": "2080 MW", "source": "coal"}}, {"type": "Feature", "geometry": {"type": "Point", "coordinates": [126.6402726, 37.3705326]}, "properties": {"power": "plant", "fuel": "other", "name": "인천종합에너지", "output_mw": "", "source": ""}}, {"type": "Feature", "geometry": {"type": "Point", "coordinates": [126.4175763, 35.4102172]}, "properties": {"power": "plant", "fuel": "nuclear", "name": "한빛원자력발전소", "output_mw": "5913 MW", "source": "nuclear"}}, {"type": "Feature", "geometry": {"type": "Point", "coordinates": [129.4756392, 35.7178785]}, "properties": {"power": "plant", "fuel": "nuclear", "name": "월성원자력발전소", "output_mw": "4566 MW", "source": "nuclear"}}, {"type": "Feature", "geometry": {"type": "Point", "coordinates": [129.2955077, 35.3284614]}, "properties": {"power": "plant", "fuel": "nuclear", "name": "고리원자력발전소", "output_mw": "7489 MW", "source": "nuclear"}}, {"type": "Feature", "geometry": {"type": "Point", "coordinates": [126.612608, 37.3135432]}, "properties": {"power": "plant", "fuel": "other", "name": "시화호조력발전소", "output_mw": "254 MW", "source": "tidal"}}, {"type": "Feature", "geometry": {"type": "Point", "coordinates": [128.8788704, 35.1332754]}, "properties": {"power": "plant", "fuel": "gas", "name": "부산생곡(서희) LFG", "output_mw": "3.174 MW", "source": "biogas"}}, {"type": "Feature", "geometry": {"type": "Point", "coordinates": [128.7969605, 35.2086111]}, "properties": {"power": "plant", "fuel": "other", "name": "김해시 자원순환시설", "output_mw": "yes", "source": "waste"}}, {"type": "Feature", "geometry": {"type": "Point", "coordinates": [129.353815, 34.3851832]}, "properties": {"power": "plant", "fuel": "other", "name": "Fuel Depot", "output_mw": "", "source": ""}}, {"type": "Feature", "geometry": {"type": "Point", "coordinates": [127.8216341, 34.9509809]}, "properties": {"power": "plant", "fuel": "coal", "name": "하동화력발전소", "output_mw": "4000 MW", "source": "coal"}}, {"type": "Feature", "geometry": {"type": "Point", "coordinates": [126.7978927, 37.6462991]}, "properties": {"power": "plant", "fuel": "gas", "name": "일산열병합발전소", "output_mw": "900 MW", "source": "gas"}}, {"type": "Feature", "geometry": {"type": "Point", "coordinates": [126.8837316, 37.5397262]}, "properties": {"power": "plant", "fuel": "gas", "name": "서울에너지공사(목동)", "output_mw": "yes", "source": "gas"}}, {"type": "Feature", "geometry": {"type": "Point", "coordinates": [128.9796523, 37.7391784]}, "properties": {"power": "plant", "fuel": "coal", "name": "영동화력발전소", "output_mw": "325 MW", "source": "coal;biomass"}}, {"type": "Feature", "geometry": {"type": "Point", "coordinates": [126.764327, 37.5221008]}, "properties": {"power": "plant", "fuel": "gas", "name": "부천열병합발전소", "output_mw": "450 MW", "source": "gas"}}, {"type": "Feature", "geometry": {"type": "Point", "coordinates": [127.3083108, 36.3452068]}, "properties": {"power": "plant", "fuel": "gas", "name": "학하발전소", "output_mw": "26 MW", "source": "gas"}}, {"type": "Feature", "geometry": {"type": "Point", "coordinates": [128.7981276, 35.2071512]}, "properties": {"power": "plant", "fuel": "other", "name": "한국지역난방공사 김해지사", "output_mw": "", "source": ""}}, {"type": "Feature", "geometry": {"type": "Point", "coordinates": [126.5084675, 37.0578508]}, "properties": {"power": "plant", "fuel": "coal", "name": "당진화력발전소", "output_mw": "6040 MW", "source": "coal"}}, {"type": "Feature", "geometry": {"type": "Point", "coordinates": [126.7995236, 37.2980132]}, "properties": {"power": "plant", "fuel": "coal", "name": "GS이앤알 반월열병합발전소", "output_mw": "yes", "source": "coal"}}, {"type": "Feature", "geometry": {"type": "Point", "coordinates": [127.0581688, 37.6408214]}, "properties": {"power": "plant", "fuel": "other", "name": "노원열병합발전소", "output_mw": "39 MW", "source": ""}}, {"type": "Feature", "geometry": {"type": "Point", "coordinates": [126.4383926, 37.2423869]}, "properties": {"power": "plant", "fuel": "coal", "name": "영흥화력발전소", "output_mw": "5080 MW", "source": "coal"}}, {"type": "Feature", "geometry": {"type": "Point", "coordinates": [127.0817387, 37.2190247]}, "properties": {"power": "plant", "fuel": "gas", "name": "지역난방공사 화성지사", "output_mw": "512 MW", "source": "gas"}}, {"type": "Feature", "geometry": {"type": "Point", "coordinates": [127.426101, 34.9454437]}, "properties": {"power": "plant", "fuel": "hydro", "name": "주암수력발전소", "output_mw": "22.5 MW", "source": "hydro"}}, {"type": "Feature", "geometry": {"type": "Point", "coordinates": [126.8303395, 35.1965456]}, "properties": {"power": "plant", "fuel": "gas", "name": "수완열병합발전소", "output_mw": "118 MW", "source": "gas"}}, {"type": "Feature", "geometry": {"type": "Point", "coordinates": [126.9054857, 37.6479985]}, "properties": {"power": "plant", "fuel": "gas", "name": "삼송열병합발전소", "output_mw": "99 MW", "source": "gas"}}, {"type": "Feature", "geometry": {"type": "Point", "coordinates": [128.3980227, 36.0157343]}, "properties": {"power": "plant", "fuel": "hydro", "name": "", "output_mw": "", "source": "hydro"}}, {"type": "Feature", "geometry": {"type": "Point", "coordinates": [126.5920246, 37.0152061]}, "properties": {"power": "plant", "fuel": "other", "name": "대성 바이오", "output_mw": "4 MW", "source": "biomass"}}, {"type": "Feature", "geometry": {"type": "Point", "coordinates": [128.4908961, 37.1630656]}, "properties": {"power": "plant", "fuel": "gas", "name": "영월복합화력발전소", "output_mw": "848 MW", "source": "gas"}}, {"type": "Feature", "geometry": {"type": "Point", "coordinates": [127.5403488, 37.4046408]}, "properties": {"power": "plant", "fuel": "hydro", "name": "Ipo", "output_mw": "", "source": "hydro"}}, {"type": "Feature", "geometry": {"type": "Point", "coordinates": [127.1134906, 37.6722711]}, "properties": {"power": "plant", "fuel": "gas", "name": "별내열병합발전소", "output_mw": "yes", "source": "gas"}}, {"type": "Feature", "geometry": {"type": "Point", "coordinates": [127.683906, 37.2775483]}, "properties": {"power": "plant", "fuel": "hydro", "name": "강천보", "output_mw": "", "source": "hydro"}}, {"type": "Feature", "geometry": {"type": "Point", "coordinates": [127.6080459, 37.3281302]}, "properties": {"power": "plant", "fuel": "hydro", "name": "여주보", "output_mw": "", "source": "hydro"}}, {"type": "Feature", "geometry": {"type": "Point", "coordinates": [127.4206896, 37.7252116]}, "properties": {"power": "plant", "fuel": "hydro", "name": "청평댐", "output_mw": "139.6 MW", "source": "hydro"}}, {"type": "Feature", "geometry": {"type": "Point", "coordinates": [127.7621803, 38.0985331]}, "properties": {"power": "plant", "fuel": "hydro", "name": "화천수력발전소", "output_mw": "108 MW", "source": "hydro"}}, {"type": "Feature", "geometry": {"type": "Point", "coordinates": [127.7448796, 37.8687942]}, "properties": {"power": "plant", "fuel": "other", "name": "", "output_mw": "", "source": ""}}, {"type": "Feature", "geometry": {"type": "Point", "coordinates": [129.3117227, 35.3392227]}, "properties": {"power": "plant", "fuel": "nuclear", "name": "Saeul Nuclear Plant", "output_mw": "2834 MW", "source": "nuclear"}}, {"type": "Feature", "geometry": {"type": "Point", "coordinates": [127.1000261, 37.8348307]}, "properties": {"power": "plant", "fuel": "gas", "name": "양주열병합대륜발전소", "output_mw": "524.3 MW", "source": "gas"}}, {"type": "Feature", "geometry": {"type": "Point", "coordinates": [126.7861257, 37.8295909]}, "properties": {"power": "plant", "fuel": "gas", "name": "파주천연가스발전소", "output_mw": "1800 MW", "source": "gas"}}, {"type": "Feature", "geometry": {"type": "Point", "coordinates": [127.6901861, 34.840546]}, "properties": {"power": "plant", "fuel": "coal", "name": "여수화력발전소", "output_mw": "668.6 MW", "source": "coal"}}, {"type": "Feature", "geometry": {"type": "Point", "coordinates": [128.5520615, 35.3796886]}, "properties": {"power": "plant", "fuel": "hydro", "name": "창녕함안보", "output_mw": "", "source": "hydro"}}, {"type": "Feature", "geometry": {"type": "Point", "coordinates": [128.4167933, 35.7340712]}, "properties": {"power": "plant", "fuel": "hydro", "name": "달성보", "output_mw": "", "source": "hydro"}}, {"type": "Feature", "geometry": {"type": "Point", "coordinates": [127.099316, 36.4622976]}, "properties": {"power": "plant", "fuel": "hydro", "name": "공주보", "output_mw": "", "source": "hydro"}}, {"type": "Feature", "geometry": {"type": "Point", "coordinates": [127.2613751, 36.4717807]}, "properties": {"power": "plant", "fuel": "hydro", "name": "세종보", "output_mw": "", "source": "hydro"}}, {"type": "Feature", "geometry": {"type": "Point", "coordinates": [128.3560852, 35.5909141]}, "properties": {"power": "plant", "fuel": "hydro", "name": "합천창녕보", "output_mw": "", "source": "hydro"}}, {"type": "Feature", "geometry": {"type": "Point", "coordinates": [127.7346053, 34.8535608]}, "properties": {"power": "plant", "fuel": "coal", "name": "호남화력발전소", "output_mw": "500 MW", "source": "coal"}}, {"type": "Feature", "geometry": {"type": "Point", "coordinates": [129.3807157, 35.4763522]}, "properties": {"power": "plant", "fuel": "gas", "name": "울산화력발전소", "output_mw": "3271.9 MW", "source": "gas;oil"}}, {"type": "Feature", "geometry": {"type": "Point", "coordinates": [129.3287031, 35.4925067]}, "properties": {"power": "plant", "fuel": "other", "name": "대한유화 열병합", "output_mw": "16.18 MW", "source": "waste"}}, {"type": "Feature", "geometry": {"type": "Point", "coordinates": [127.9924908, 37.0071796]}, "properties": {"power": "plant", "fuel": "hydro", "name": "충주수력발전소", "output_mw": "400 MW", "source": "hydro"}}, {"type": "Feature", "geometry": {"type": "Point", "coordinates": [126.796006, 37.0051879]}, "properties": {"power": "plant", "fuel": "gas", "name": "평택화력발전소", "output_mw": "2268.5 MW", "source": "gas;oil"}}, {"type": "Feature", "geometry": {"type": "Point", "coordinates": [127.5939458, 34.9122853]}, "properties": {"power": "plant", "fuel": "gas", "name": "율촌복합화력발전소", "output_mw": "1389.7 MW", "source": "gas"}}, {"type": "Feature", "geometry": {"type": "Point", "coordinates": [126.566208, 35.9388907]}, "properties": {"power": "plant", "fuel": "other", "name": "OCI SE", "output_mw": "303 MW", "source": "biomass"}}, {"type": "Feature", "geometry": {"type": "Point", "coordinates": [126.5381643, 35.954775]}, "properties": {"power": "plant", "fuel": "coal", "name": "한화에너지 군산공장", "output_mw": "222 MW", "source": "coal"}}, {"type": "Feature", "geometry": {"type": "Point", "coordinates": [127.0583056, 37.2997051]}, "properties": {"power": "plant", "fuel": "other", "name": "한국지역난방공사 광교지사", "output_mw": "yes", "source": ""}}, {"type": "Feature", "geometry": {"type": "Point", "coordinates": [128.4240932, 36.7536914]}, "properties": {"power": "plant", "fuel": "hydro", "name": "예천양수발전소", "output_mw": "800 MW", "source": "hydro"}}, {"type": "Feature", "geometry": {"type": "Point", "coordinates": [125.1245046, 34.053908]}, "properties": {"power": "plant", "fuel": "other", "name": "가거도 한국전력공사", "output_mw": "", "source": ""}}, {"type": "Feature", "geometry": {"type": "Point", "coordinates": [127.0929564, 37.175727]}, "properties": {"power": "plant", "fuel": "gas", "name": "동탄열병합발전소", "output_mw": "800 MW", "source": "gas"}}, {"type": "Feature", "geometry": {"type": "Point", "coordinates": [126.9670575, 37.3937336]}, "properties": {"power": "plant", "fuel": "gas", "name": "안양열병합발전소", "output_mw": "930 MW", "source": "gas"}}, {"type": "Feature", "geometry": {"type": "Point", "coordinates": [127.8902108, 37.3730447]}, "properties": {"power": "plant", "fuel": "other", "name": "원주그린열병합발전소", "output_mw": "10 MW", "source": "waste"}}, {"type": "Feature", "geometry": {"type": "Point", "coordinates": [126.3099388, 34.5654591]}, "properties": {"power": "plant", "fuel": "other", "name": "울돌목 조류발전소", "output_mw": "1500 kW", "source": "tidal"}}, {"type": "Feature", "geometry": {"type": "Point", "coordinates": [127.1529188, 37.481287]}, "properties": {"power": "plant", "fuel": "gas", "name": "위례에너지서비스", "output_mw": "450.4MW + 232.5Gcal/h", "source": "gas"}}, {"type": "Feature", "geometry": {"type": "Point", "coordinates": [127.2625111, 35.9881045]}, "properties": {"power": "plant", "fuel": "hydro", "name": "용담댐제1발전소", "output_mw": "24 MW", "source": "hydro"}}, {"type": "Feature", "geometry": {"type": "Point", "coordinates": [127.4434195, 36.60498]}, "properties": {"power": "plant", "fuel": "other", "name": "한국지역난방공사 청주지사", "output_mw": "", "source": ""}}, {"type": "Feature", "geometry": {"type": "Point", "coordinates": [129.7629746, 33.8009388]}, "properties": {"power": "plant", "fuel": "other", "name": "芦辺発電所", "output_mw": "16.5 MW", "source": "diesel"}}, {"type": "Feature", "geometry": {"type": "Point", "coordinates": [128.8215112, 37.7063335]}, "properties": {"power": "plant", "fuel": "hydro", "name": "강릉수력발전소", "output_mw": "82 MW", "source": "hydro"}}, {"type": "Feature", "geometry": {"type": "Point", "coordinates": [126.5951006, 33.5347652]}, "properties": {"power": "plant", "fuel": "coal", "name": "제주화력발전소", "output_mw": "yes", "source": "oil"}}, {"type": "Feature", "geometry": {"type": "Point", "coordinates": [126.2351015, 36.9038108]}, "properties": {"power": "plant", "fuel": "coal", "name": "태안화력발전소", "output_mw": "6446.33 MW", "source": "coal"}}, {"type": "Feature", "geometry": {"type": "Point", "coordinates": [127.6694918, 37.9680548]}, "properties": {"power": "plant", "fuel": "hydro", "name": "춘천수력발전소", "output_mw": "62.28 MW", "source": "hydro"}}, {"type": "Feature", "geometry": {"type": "Point", "coordinates": [126.4886956, 36.3853707]}, "properties": {"power": "plant", "fuel": "coal", "name": "신보령화력발전소", "output_mw": "2000 MW", "source": "coal"}}, {"type": "Feature", "geometry": {"type": "Point", "coordinates": [127.0092595, 35.5972426]}, "properties": {"power": "plant", "fuel": "hydro", "name": "칠보수력발전소", "output_mw": "35 MW", "source": "hydro"}}, {"type": "Feature", "geometry": {"type": "Point", "coordinates": [128.108205, 34.9083059]}, "properties": {"power": "plant", "fuel": "coal", "name": "삼천포화력발전소", "output_mw": "3240 MW", "source": "coal"}}, {"type": "Feature", "geometry": {"type": "Point", "coordinates": [126.7307317, 35.9833022]}, "properties": {"power": "plant", "fuel": "gas", "name": "군산복합화력발전소", "output_mw": "718 MW", "source": "gas"}}, {"type": "Feature", "geometry": {"type": "Point", "coordinates": [129.1470981, 37.4787171]}, "properties": {"power": "plant", "fuel": "coal", "name": "북평화력발전소", "output_mw": "1190 MW", "source": "coal"}}, {"type": "Feature", "geometry": {"type": "Point", "coordinates": [129.000384, 35.0866591]}, "properties": {"power": "plant", "fuel": "gas", "name": "부산복합화력발전소", "output_mw": "1800 MW", "source": "gas"}}, {"type": "Feature", "geometry": {"type": "Point", "coordinates": [126.7812797, 36.9575844]}, "properties": {"power": "plant", "fuel": "gas", "name": "당진복합화력발전소", "output_mw": "2513.7 MW", "source": "gas;biomass"}}, {"type": "Feature", "geometry": {"type": "Point", "coordinates": [129.4172555, 36.0323947]}, "properties": {"power": "plant", "fuel": "gas", "name": "포항 부생가스복합발전소", "output_mw": "290 MW", "source": "gas"}}, {"type": "Feature", "geometry": {"type": "Point", "coordinates": [127.7389805, 34.9105337]}, "properties": {"power": "plant", "fuel": "gas", "name": "광양 부생가스복합발전소", "output_mw": "284 MW", "source": "gas"}}, {"type": "Feature", "geometry": {"type": "Point", "coordinates": [127.2477266, 36.4686879]}, "properties": {"power": "plant", "fuel": "gas", "name": "세종천연가스발전소", "output_mw": "530 MW", "source": "gas"}}, {"type": "Feature", "geometry": {"type": "Point", "coordinates": [129.3408451, 37.1861751]}, "properties": {"power": "plant", "fuel": "coal", "name": "삼척그린파워발전소", "output_mw": "2000 MW", "source": "coal"}}, {"type": "Feature", "geometry": {"type": "Point", "coordinates": [128.5417786, 36.5949852]}, "properties": {"power": "plant", "fuel": "gas", "name": "안동복합화력발전소", "output_mw": "417 MW", "source": "gas"}}, {"type": "Feature", "geometry": {"type": "Point", "coordinates": [128.0674599, 35.5455007]}, "properties": {"power": "plant", "fuel": "hydro", "name": "합천수력발전소", "output_mw": "100 MW", "source": "hydro"}}, {"type": "Feature", "geometry": {"type": "Point", "coordinates": [129.1454298, 37.4847791]}, "properties": {"power": "plant", "fuel": "coal", "name": "동해화력발전소", "output_mw": "430 MW", "source": "coal;biomass"}}, {"type": "Feature", "geometry": {"type": "Point", "coordinates": [127.0558816, 37.1403489]}, "properties": {"power": "plant", "fuel": "gas", "name": "오산열병합발전소", "output_mw": "460.1 MW", "source": "gas"}}, {"type": "Feature", "geometry": {"type": "Point", "coordinates": [129.3833202, 35.512937]}, "properties": {"power": "plant", "fuel": "gas", "name": "영남파워", "output_mw": "476 MW", "source": "gas"}}, {"type": "Feature", "geometry": {"type": "Point", "coordinates": [127.1719248, 37.9462408]}, "properties": {"power": "plant", "fuel": "gas", "name": "포천천연가스발전소", "output_mw": "900 MW", "source": "gas"}}, {"type": "Feature", "geometry": {"type": "Point", "coordinates": [126.7784281, 37.2949498]}, "properties": {"power": "plant", "fuel": "gas", "name": "안산복합화력발전소", "output_mw": "751.2 MW", "source": "gas"}}, {"type": "Feature", "geometry": {"type": "Point", "coordinates": [127.167027, 37.9898127]}, "properties": {"power": "plant", "fuel": "gas", "name": "포천복합화력발전소", "output_mw": "1560 MW", "source": "gas"}}, {"type": "Feature", "geometry": {"type": "Point", "coordinates": [127.0907155, 37.9008185]}, "properties": {"power": "plant", "fuel": "gas", "name": "동두천복합화력발전소", "output_mw": "1716.8 MW", "source": "gas"}}, {"type": "Feature", "geometry": {"type": "Point", "coordinates": [127.1870345, 37.5521959]}, "properties": {"power": "plant", "fuel": "gas", "name": "하남열병합발전소", "output_mw": "399MW + 263Gcal/h", "source": "gas"}}, {"type": "Feature", "geometry": {"type": "Point", "coordinates": [127.7751428, 34.8889132]}, "properties": {"power": "plant", "fuel": "gas", "name": "광양복합화력발전소", "output_mw": "989 MW", "source": "gas"}}, {"type": "Feature", "geometry": {"type": "Point", "coordinates": [126.3650375, 36.9977059]}, "properties": {"power": "plant", "fuel": "coal", "name": "대산복합화력발전소", "output_mw": "465.8 MW", "source": "oil"}}, {"type": "Feature", "geometry": {"type": "Point", "coordinates": [127.3002565, 36.5886259]}, "properties": {"power": "plant", "fuel": "gas", "name": "한국가스공사 대전충청지역본부", "output_mw": "yes", "source": "gas"}}, {"type": "Feature", "geometry": {"type": "Point", "coordinates": [126.9170813, 37.5443634]}, "properties": {"power": "plant", "fuel": "gas", "name": "", "output_mw": "yes", "source": "gas"}}, {"type": "Feature", "geometry": {"type": "Point", "coordinates": [127.677315, 37.8358486]}, "properties": {"power": "plant", "fuel": "hydro", "name": "의암수력발전소", "output_mw": "48 MW", "source": "hydro"}}, {"type": "Feature", "geometry": {"type": "Point", "coordinates": [129.0161882, 36.4052932]}, "properties": {"power": "plant", "fuel": "hydro", "name": "청송양수발전소", "output_mw": "600 MW", "source": "hydro"}}, {"type": "Feature", "geometry": {"type": "Point", "coordinates": [127.7772538, 35.2562846]}, "properties": {"power": "plant", "fuel": "hydro", "name": "산청양수발전소", "output_mw": "700 MW", "source": "hydro"}}, {"type": "Feature", "geometry": {"type": "Point", "coordinates": [128.5506939, 38.0161281]}, "properties": {"power": "plant", "fuel": "hydro", "name": "양양양수발전소", "output_mw": "1000 MW", "source": "hydro"}}, {"type": "Feature", "geometry": {"type": "Point", "coordinates": [128.8784506, 35.413406]}, "properties": {"power": "plant", "fuel": "hydro", "name": "삼랑진양수발전소", "output_mw": "600 MW", "source": "hydro"}}, {"type": "Feature", "geometry": {"type": "Point", "coordinates": [127.7068829, 35.968326]}, "properties": {"power": "plant", "fuel": "hydro", "name": "무주양수발전소", "output_mw": "600 MW", "source": "hydro"}}, {"type": "Feature", "geometry": {"type": "Point", "coordinates": [128.8810044, 36.538905]}, "properties": {"power": "plant", "fuel": "hydro", "name": "임하수력발전소", "output_mw": "50 MW", "source": "hydro"}}, {"type": "Feature", "geometry": {"type": "Point", "coordinates": [128.7719764, 36.5842951]}, "properties": {"power": "plant", "fuel": "hydro", "name": "안동수력발전소", "output_mw": "90 MW", "source": "hydro"}}, {"type": "Feature", "geometry": {"type": "Point", "coordinates": [127.8108338, 37.9445975]}, "properties": {"power": "plant", "fuel": "hydro", "name": "소양강수력발전소", "output_mw": "200 MW", "source": "hydro"}}, {"type": "Feature", "geometry": {"type": "Point", "coordinates": [127.6591574, 37.3616546]}, "properties": {"power": "plant", "fuel": "gas", "name": "여주천연가스발전소", "output_mw": "996 MW", "source": "gas"}}, {"type": "Feature", "geometry": {"type": "Point", "coordinates": [126.6883725, 36.6610929]}, "properties": {"power": "plant", "fuel": "gas", "name": "내포그린에너지", "output_mw": "yes", "source": "gas"}}, {"type": "Feature", "geometry": {"type": "Point", "coordinates": [128.3738752, 36.0972672]}, "properties": {"power": "plant", "fuel": "coal", "name": "구미열병합발전소", "output_mw": "97 MW", "source": "oil"}}, {"type": "Feature", "geometry": {"type": "Point", "coordinates": [126.4757333, 37.4942402]}, "properties": {"power": "plant", "fuel": "gas", "name": "인천공항에너지", "output_mw": "127 MW", "source": "gas"}}, {"type": "Feature", "geometry": {"type": "Point", "coordinates": [126.5310183, 35.9472211]}, "properties": {"power": "plant", "fuel": "other", "name": "SMG에너지", "output_mw": "", "source": "biomass"}}, {"type": "Feature", "geometry": {"type": "Point", "coordinates": [127.2456908, 36.4662511]}, "properties": {"power": "plant", "fuel": "other", "name": "한국지역난방공사 세종지사", "output_mw": "no", "source": ""}}, {"type": "Feature", "geometry": {"type": "Point", "coordinates": [126.2720195, 33.4025104]}, "properties": {"power": "plant", "fuel": "gas", "name": "한림복합화력발전소", "output_mw": "105 MW", "source": "gas"}}, {"type": "Feature", "geometry": {"type": "Point", "coordinates": [126.7151489, 37.3984488]}, "properties": {"power": "plant", "fuel": "gas", "name": "논현열병합발전소", "output_mw": "24 MW", "source": "gas"}}, {"type": "Feature", "geometry": {"type": "Point", "coordinates": [126.8289869, 35.1590046]}, "properties": {"power": "plant", "fuel": "other", "name": "광주 수소연료전지발전소", "output_mw": "", "source": ""}}, {"type": "Feature", "geometry": {"type": "Point", "coordinates": [129.4023671, 36.0365405]}, "properties": {"power": "plant", "fuel": "gas", "name": "", "output_mw": "345 MW", "source": "gas"}}, {"type": "Feature", "geometry": {"type": "Point", "coordinates": [127.2323043, 37.9584576]}, "properties": {"power": "plant", "fuel": "coal", "name": "GS Pocheon Power Plant", "output_mw": "yes", "source": "coal"}}, {"type": "Feature", "geometry": {"type": "Point", "coordinates": [127.0514566, 37.7169838]}, "properties": {"power": "plant", "fuel": "other", "name": "의정부시 생활폐기물 자원회수시설", "output_mw": "yes", "source": "waste"}}, {"type": "Feature", "geometry": {"type": "Point", "coordinates": [128.7050678, 35.8826464]}, "properties": {"power": "plant", "fuel": "gas", "name": "Daegu Innovation City CHPP", "output_mw": "yes", "source": "gas"}}, {"type": "Feature", "geometry": {"type": "Point", "coordinates": [127.4035223, 36.4345846]}, "properties": {"power": "plant", "fuel": "other", "name": "", "output_mw": "", "source": ""}}, {"type": "Feature", "geometry": {"type": "Point", "coordinates": [126.714388, 36.9908735]}, "properties": {"power": "plant", "fuel": "other", "name": "현대제철 당진공장", "output_mw": "", "source": ""}}, {"type": "Feature", "geometry": {"type": "Point", "coordinates": [129.401459, 36.0352018]}, "properties": {"power": "plant", "fuel": "gas", "name": "", "output_mw": "yes", "source": "gas"}}, {"type": "Feature", "geometry": {"type": "Point", "coordinates": [126.719933, 37.7371509]}, "properties": {"power": "plant", "fuel": "gas", "name": "파주열병합발전소", "output_mw": "515 MW", "source": "gas"}}, {"type": "Feature", "geometry": {"type": "Point", "coordinates": [127.0130624, 37.0272604]}, "properties": {"power": "plant", "fuel": "other", "name": "", "output_mw": "", "source": ""}}, {"type": "Feature", "geometry": {"type": "Point", "coordinates": [127.0131142, 37.0284456]}, "properties": {"power": "plant", "fuel": "other", "name": "", "output_mw": "", "source": ""}}, {"type": "Feature", "geometry": {"type": "Point", "coordinates": [126.6147093, 37.3921014]}, "properties": {"power": "plant", "fuel": "other", "name": "송도국제도시 제 6, 8공구 생활폐기물 자동집하시설", "output_mw": "yes", "source": "waste"}}, {"type": "Feature", "geometry": {"type": "Point", "coordinates": [126.6145431, 37.3918329]}, "properties": {"power": "plant", "fuel": "other", "name": "송도국제도시 제 6, 8공구 생활폐기물 자동집하시설", "output_mw": "yes", "source": "waste"}}, {"type": "Feature", "geometry": {"type": "Point", "coordinates": [126.6013184, 38.3286047]}, "properties": {"power": "plant", "fuel": "hydro", "name": "", "output_mw": "yes", "source": "hydro"}}, {"type": "Feature", "geometry": {"type": "Point", "coordinates": [129.3008678, 35.3274761]}, "properties": {"power": "plant", "fuel": "nuclear", "name": "", "output_mw": "yes", "source": "nuclear"}}, {"type": "Feature", "geometry": {"type": "Point", "coordinates": [129.3754222, 36.8636677]}, "properties": {"power": "plant", "fuel": "wind", "name": "울진현종산풍력발전소", "output_mw": "yes", "source": "wind"}}, {"type": "Feature", "geometry": {"type": "Point", "coordinates": [127.1608808, 37.5887273]}, "properties": {"power": "plant", "fuel": "other", "name": "구리시 자원회수시설", "output_mw": "yes", "source": "waste"}}, {"type": "Feature", "geometry": {"type": "Point", "coordinates": [128.1259308, 34.9044776]}, "properties": {"power": "plant", "fuel": "coal", "name": "", "output_mw": "yes", "source": "coal"}}, {"type": "Feature", "geometry": {"type": "Point", "coordinates": [129.1779294, 35.3150106]}, "properties": {"power": "plant", "fuel": "gas", "name": "", "output_mw": "yes", "source": "gas"}}, {"type": "Feature", "geometry": {"type": "Point", "coordinates": [126.6382131, 35.9771867]}, "properties": {"power": "plant", "fuel": "gas", "name": "", "output_mw": "424 MW", "source": "gas"}}, {"type": "Feature", "geometry": {"type": "Point", "coordinates": [126.7832073, 36.9572642]}, "properties": {"power": "plant", "fuel": "other", "name": "Dangjin Bio-1 Power Plant", "output_mw": "", "source": ""}}, {"type": "Feature", "geometry": {"type": "Point", "coordinates": [127.1031246, 37.3936702]}, "properties": {"power": "plant", "fuel": "other", "name": "Korea District Heating Pangyo Branch", "output_mw": "", "source": ""}}, {"type": "Feature", "geometry": {"type": "Point", "coordinates": [127.0935481, 36.8000778]}, "properties": {"power": "plant", "fuel": "other", "name": "한국토지주택공사 아산에너지사업단", "output_mw": "", "source": ""}}, {"type": "Feature", "geometry": {"type": "Point", "coordinates": [128.954429, 35.0888741]}, "properties": {"power": "plant", "fuel": "other", "name": "", "output_mw": "", "source": ""}}, {"type": "Feature", "geometry": {"type": "Point", "coordinates": [127.7421583, 34.9104969]}, "properties": {"power": "plant", "fuel": "other", "name": "Gwyangyang Works Power Plant", "output_mw": "", "source": ""}}, {"type": "Feature", "geometry": {"type": "Point", "coordinates": [127.744971, 34.9078501]}, "properties": {"power": "plant", "fuel": "gas", "name": "POSCO Energy Gwangyang LNG Power Plant", "output_mw": "", "source": ""}}, {"type": "Feature", "geometry": {"type": "Point", "coordinates": [129.1751566, 37.4085494]}, "properties": {"power": "plant", "fuel": "coal", "name": "삼척화력발전소", "output_mw": "2100 MW", "source": "coal"}}, {"type": "Feature", "geometry": {"type": "Point", "coordinates": [127.039417, 35.2071366]}, "properties": {"power": "plant", "fuel": "hydro", "name": "자연에너지 소수력", "output_mw": "0.035 MW", "source": "hydro"}}, {"type": "Feature", "geometry": {"type": "Point", "coordinates": [126.4959132, 36.1443]}, "properties": {"power": "plant", "fuel": "coal", "name": "신서천발전본부", "output_mw": "1018 MW", "source": "coal"}}, {"type": "Feature", "geometry": {"type": "Point", "coordinates": [126.2736003, 33.1693865]}, "properties": {"power": "plant", "fuel": "other", "name": "Diesel Power Plant", "output_mw": "", "source": "diesel"}}, {"type": "Feature", "geometry": {"type": "Point", "coordinates": [127.7735419, 37.7657611]}, "properties": {"power": "plant", "fuel": "gas", "name": "Chuncheon CHP Power Plant", "output_mw": "yes", "source": "gas"}}, {"type": "Feature", "geometry": {"type": "Point", "coordinates": [127.4775257, 37.2535232]}, "properties": {"power": "plant", "fuel": "gas", "name": "", "output_mw": "yes", "source": "gas"}}, {"type": "Feature", "geometry": {"type": "Point", "coordinates": [126.3625722, 36.9952779]}, "properties": {"power": "plant", "fuel": "other", "name": "", "output_mw": "", "source": "biomass"}}, {"type": "Feature", "geometry": {"type": "Point", "coordinates": [127.181651, 37.4319778]}, "properties": {"power": "plant", "fuel": "other", "name": "성남시 환경에너지시설", "output_mw": "yes", "source": "waste"}}, {"type": "Feature", "geometry": {"type": "Point", "coordinates": [126.5846902, 37.6004992]}, "properties": {"power": "plant", "fuel": "other", "name": "김포열병합발전소", "output_mw": "", "source": ""}}, {"type": "Feature", "geometry": {"type": "Point", "coordinates": [129.3756643, 36.8637502]}, "properties": {"power": "plant", "fuel": "wind", "name": "울진현종산풍력발전소", "output_mw": "", "source": "wind"}}, {"type": "Feature", "geometry": {"type": "Point", "coordinates": [127.1935546, 37.5491464]}, "properties": {"power": "plant", "fuel": "gas", "name": "가스공급시설", "output_mw": "", "source": "gas"}}, {"type": "Feature", "geometry": {"type": "Point", "coordinates": [126.4716883, 38.3982089]}, "properties": {"power": "plant", "fuel": "other", "name": "", "output_mw": "", "source": ""}}, {"type": "Feature", "geometry": {"type": "Point", "coordinates": [127.1924285, 37.5793761]}, "properties": {"power": "plant", "fuel": "gas", "name": "가스공급시설", "output_mw": "", "source": "gas"}}, {"type": "Feature", "geometry": {"type": "Point", "coordinates": [126.4739643, 33.4559654]}, "properties": {"power": "plant", "fuel": "other", "name": "", "output_mw": "", "source": "battery"}}, {"type": "Feature", "geometry": {"type": "Point", "coordinates": [127.0998427, 37.3854894]}, "properties": {"power": "plant", "fuel": "hydro", "name": "판교가압장 소수력", "output_mw": "0.2 MW", "source": "hydro"}}, {"type": "Feature", "geometry": {"type": "Point", "coordinates": [128.1512656, 37.3643464]}, "properties": {"power": "plant", "fuel": "hydro", "name": "강림(안흥) 소수력", "output_mw": "0.45 MW", "source": "hydro"}}, {"type": "Feature", "geometry": {"type": "Point", "coordinates": [127.3297112, 36.9991507]}, "properties": {"power": "plant", "fuel": "hydro", "name": "금광 소수력", "output_mw": "0.36 MW", "source": "hydro"}}, {"type": "Feature", "geometry": {"type": "Point", "coordinates": [127.1810022, 37.1525311]}, "properties": {"power": "plant", "fuel": "hydro", "name": "남사배수지 소수력", "output_mw": "0.054 MW", "source": "hydro"}}, {"type": "Feature", "geometry": {"type": "Point", "coordinates": [126.4314964, 37.2607208]}, "properties": {"power": "plant", "fuel": "hydro", "name": "영흥해양 소수력", "output_mw": "13.599 MW", "source": "hydro"}}, {"type": "Feature", "geometry": {"type": "Point", "coordinates": [127.1193638, 38.0624935]}, "properties": {"power": "plant", "fuel": "hydro", "name": "고문 소수력", "output_mw": "1.5 MW", "source": "hydro"}}, {"type": "Feature", "geometry": {"type": "Point", "coordinates": [127.2194263, 38.0860373]}, "properties": {"power": "plant", "fuel": "hydro", "name": "포천 소수력", "output_mw": "0.855 MW", "source": "hydro"}}, {"type": "Feature", "geometry": {"type": "Point", "coordinates": [127.1642604, 37.5927207]}, "properties": {"power": "plant", "fuel": "hydro", "name": "토평 소수력", "output_mw": "0.045 MW", "source": "hydro"}}, {"type": "Feature", "geometry": {"type": "Point", "coordinates": [129.0390426, 37.5046349]}, "properties": {"power": "plant", "fuel": "hydro", "name": "달방 소수력", "output_mw": "0.17 MW", "source": "hydro"}}, {"type": "Feature", "geometry": {"type": "Point", "coordinates": [129.3462088, 37.1778047]}, "properties": {"power": "plant", "fuel": "hydro", "name": "삼척그린해양 소수력", "output_mw": "2.75 MW", "source": "hydro"}}, {"type": "Feature", "geometry": {"type": "Point", "coordinates": [129.1700142, 37.406077]}, "properties": {"power": "plant", "fuel": "hydro", "name": "삼척화력 소수력", "output_mw": "5 MW", "source": "hydro"}}, {"type": "Feature", "geometry": {"type": "Point", "coordinates": [128.2213894, 38.1262541]}, "properties": {"power": "plant", "fuel": "hydro", "name": "원통보 소수력", "output_mw": "0.2 MW", "source": "hydro"}}, {"type": "Feature", "geometry": {"type": "Point", "coordinates": [128.2911516, 37.9899006]}, "properties": {"power": "plant", "fuel": "hydro", "name": "인제서리보 소수력", "output_mw": "1.5 MW", "source": "hydro"}}, {"type": "Feature", "geometry": {"type": "Point", "coordinates": [128.6867162, 37.4047723]}, "properties": {"power": "plant", "fuel": "hydro", "name": "덕송 소수력", "output_mw": "2.8 MW", "source": "hydro"}}, {"type": "Feature", "geometry": {"type": "Point", "coordinates": [128.5199331, 37.1522083]}, "properties": {"power": "plant", "fuel": "hydro", "name": "영월 소수력", "output_mw": "2.97 MW", "source": "hydro"}}, {"type": "Feature", "geometry": {"type": "Point", "coordinates": [128.6821621, 37.4106541]}, "properties": {"power": "plant", "fuel": "hydro", "name": "영동 소수력", "output_mw": "4.8 MW", "source": "hydro"}}, {"type": "Feature", "geometry": {"type": "Point", "coordinates": [128.4887844, 38.2698379]}, "properties": {"power": "plant", "fuel": "hydro", "name": "도원 소수력", "output_mw": "0.18 MW", "source": "hydro"}}, {"type": "Feature", "geometry": {"type": "Point", "coordinates": [127.9902331, 37.7950089]}, "properties": {"power": "plant", "fuel": "hydro", "name": "북창보 소수력", "output_mw": "0.43 MW", "source": "hydro"}}, {"type": "Feature", "geometry": {"type": "Point", "coordinates": [128.8174255, 37.7009922]}, "properties": {"power": "plant", "fuel": "hydro", "name": "오봉 소수력", "output_mw": "0.53 MW", "source": "hydro"}}, {"type": "Feature", "geometry": {"type": "Point", "coordinates": [127.4575303, 38.1626785]}, "properties": {"power": "plant", "fuel": "hydro", "name": "잠곡 소수력", "output_mw": "0.465 MW", "source": "hydro"}}, {"type": "Feature", "geometry": {"type": "Point", "coordinates": [128.0415373, 38.241241]}, "properties": {"power": "plant", "fuel": "hydro", "name": "양구동면정수장 소수력", "output_mw": "0.18 MW", "source": "hydro"}}, {"type": "Feature", "geometry": {"type": "Point", "coordinates": [127.5782334, 38.2107236]}, "properties": {"power": "plant", "fuel": "hydro", "name": "상율목 소수력", "output_mw": "0.08 MW", "source": "hydro"}}, {"type": "Feature", "geometry": {"type": "Point", "coordinates": [128.8706217, 37.7490811]}, "properties": {"power": "plant", "fuel": "hydro", "name": "솔향강릉 소수력", "output_mw": "0.34 MW", "source": "hydro"}}, {"type": "Feature", "geometry": {"type": "Point", "coordinates": [127.6198876, 38.1647066]}, "properties": {"power": "plant", "fuel": "hydro", "name": "봉오초(희광) 소수력", "output_mw": "0.098 MW", "source": "hydro"}}, {"type": "Feature", "geometry": {"type": "Point", "coordinates": [127.5714519, 36.8942669]}, "properties": {"power": "plant", "fuel": "hydro", "name": "맹동 소수력", "output_mw": "0.36 MW", "source": "hydro"}}, {"type": "Feature", "geometry": {"type": "Point", "coordinates": [127.6736916, 36.277306]}, "properties": {"power": "plant", "fuel": "hydro", "name": "금강 소수력", "output_mw": "1.35 MW", "source": "hydro"}}, {"type": "Feature", "geometry": {"type": "Point", "coordinates": [127.6720708, 36.4771501]}, "properties": {"power": "plant", "fuel": "hydro", "name": "보청 소수력", "output_mw": "0.35 MW", "source": "hydro"}}, {"type": "Feature", "geometry": {"type": "Point", "coordinates": [127.3864847, 36.5527064]}, "properties": {"power": "plant", "fuel": "hydro", "name": "비룡 소수력", "output_mw": "0.6 MW", "source": "hydro"}}, {"type": "Feature", "geometry": {"type": "Point", "coordinates": [126.4875677, 36.4035495]}, "properties": {"power": "plant", "fuel": "hydro", "name": "보령화력 소수력", "output_mw": "7.5 MW", "source": "hydro"}}, {"type": "Feature", "geometry": {"type": "Point", "coordinates": [126.4843879, 36.3871603]}, "properties": {"power": "plant", "fuel": "hydro", "name": "신보령화력 소수력", "output_mw": "5 MW", "source": "hydro"}}, {"type": "Feature", "geometry": {"type": "Point", "coordinates": [126.4968448, 36.1476996]}, "properties": {"power": "plant", "fuel": "hydro", "name": "신서천화력 소수력", "output_mw": "2.586 MW", "source": "hydro"}}, {"type": "Feature", "geometry": {"type": "Point", "coordinates": [126.2436163, 36.9028582]}, "properties": {"power": "plant", "fuel": "hydro", "name": "태안화력 소수력", "output_mw": "7.2 MW", "source": "hydro"}}, {"type": "Feature", "geometry": {"type": "Point", "coordinates": [126.496728, 37.0602985]}, "properties": {"power": "plant", "fuel": "hydro", "name": "당진화력 소수력", "output_mw": "8.198 MW", "source": "hydro"}}, {"type": "Feature", "geometry": {"type": "Point", "coordinates": [127.6337867, 36.0292932]}, "properties": {"power": "plant", "fuel": "hydro", "name": "방우리 소수력", "output_mw": "2.12 MW", "source": "hydro"}}, {"type": "Feature", "geometry": {"type": "Point", "coordinates": [126.9979292, 36.7222847]}, "properties": {"power": "plant", "fuel": "hydro", "name": "궁평 소수력", "output_mw": "0.18 MW", "source": "hydro"}}, {"type": "Feature", "geometry": {"type": "Point", "coordinates": [126.6242174, 36.37886]}, "properties": {"power": "plant", "fuel": "hydro", "name": "보령지구 소수력", "output_mw": "0.49 MW", "source": "hydro"}}, {"type": "Feature", "geometry": {"type": "Point", "coordinates": [126.8083097, 36.6423377]}, "properties": {"power": "plant", "fuel": "hydro", "name": "예당 소수력", "output_mw": "0.48 MW", "source": "hydro"}}, {"type": "Feature", "geometry": {"type": "Point", "coordinates": [127.1478622, 36.1760973]}, "properties": {"power": "plant", "fuel": "hydro", "name": "탑정 소수력", "output_mw": "0.32 MW", "source": "hydro"}}, {"type": "Feature", "geometry": {"type": "Point", "coordinates": [127.5500573, 35.53327]}, "properties": {"power": "plant", "fuel": "hydro", "name": "동화정수장 소수력", "output_mw": "0.12 MW", "source": "hydro"}}, {"type": "Feature", "geometry": {"type": "Point", "coordinates": [127.261122, 35.9868022]}, "properties": {"power": "plant", "fuel": "hydro", "name": "용담고산 소수력", "output_mw": "0.898 MW", "source": "hydro"}}, {"type": "Feature", "geometry": {"type": "Point", "coordinates": [127.1219944, 35.7350483]}, "properties": {"power": "plant", "fuel": "hydro", "name": "구이 소수력", "output_mw": "0.36 MW", "source": "hydro"}}, {"type": "Feature", "geometry": {"type": "Point", "coordinates": [126.6901819, 35.3843001]}, "properties": {"power": "plant", "fuel": "hydro", "name": "고수 소수력", "output_mw": "0.099 MW", "source": "hydro"}}, {"type": "Feature", "geometry": {"type": "Point", "coordinates": [127.5391263, 35.5427597]}, "properties": {"power": "plant", "fuel": "hydro", "name": "동화 소수력", "output_mw": "0.6 MW", "source": "hydro"}}, {"type": "Feature", "geometry": {"type": "Point", "coordinates": [126.9528997, 35.6259439]}, "properties": {"power": "plant", "fuel": "hydro", "name": "삿갓보 소수력", "output_mw": "0.4 MW", "source": "hydro"}}, {"type": "Feature", "geometry": {"type": "Point", "coordinates": [126.7577248, 36.0306091]}, "properties": {"power": "plant", "fuel": "hydro", "name": "서포양수장 소수력", "output_mw": "0.35 MW", "source": "hydro"}}, {"type": "Feature", "geometry": {"type": "Point", "coordinates": [127.5120662, 35.6462094]}, "properties": {"power": "plant", "fuel": "hydro", "name": "용림 소수력", "output_mw": "0.6 MW", "source": "hydro"}}, {"type": "Feature", "geometry": {"type": "Point", "coordinates": [126.8747532, 35.6245142]}, "properties": {"power": "plant", "fuel": "hydro", "name": "정우양수장 소수력", "output_mw": "2.075 MW", "source": "hydro"}}, {"type": "Feature", "geometry": {"type": "Point", "coordinates": [127.0933311, 35.5950608]}, "properties": {"power": "plant", "fuel": "hydro", "name": "극동 소수력", "output_mw": "2.25 MW", "source": "hydro"}}, {"type": "Feature", "geometry": {"type": "Point", "coordinates": [126.9384656, 35.6401903]}, "properties": {"power": "plant", "fuel": "hydro", "name": "동진 소수력", "output_mw": "0.85 MW", "source": "hydro"}}, {"type": "Feature", "geometry": {"type": "Point", "coordinates": [127.6154045, 35.4332338]}, "properties": {"power": "plant", "fuel": "hydro", "name": "산내 소수력", "output_mw": "0.82 MW", "source": "hydro"}}, {"type": "Feature", "geometry": {"type": "Point", "coordinates": [126.9693934, 35.443249]}, "properties": {"power": "plant", "fuel": "hydro", "name": "낙덕 소수력", "output_mw": "0.06 MW", "source": "hydro"}}, {"type": "Feature", "geometry": {"type": "Point", "coordinates": [127.2586718, 35.44967]}, "properties": {"power": "plant", "fuel": "hydro", "name": "주월 소수력", "output_mw": "0.05 MW", "source": "hydro"}}, {"type": "Feature", "geometry": {"type": "Point", "coordinates": [126.7645994, 35.0670974]}, "properties": {"power": "plant", "fuel": "hydro", "name": "승촌보 소수력", "output_mw": "0.8 MW", "source": "hydro"}}, {"type": "Feature", "geometry": {"type": "Point", "coordinates": [127.2348229, 35.0722744]}, "properties": {"power": "plant", "fuel": "hydro", "name": "광천 소수력", "output_mw": "0.45 MW", "source": "hydro"}}, {"type": "Feature", "geometry": {"type": "Point", "coordinates": [127.0034093, 35.0513755]}, "properties": {"power": "plant", "fuel": "hydro", "name": "읍애 소수력", "output_mw": "0.177 MW", "source": "hydro"}}, {"type": "Feature", "geometry": {"type": "Point", "coordinates": [126.5070343, 35.2257138]}, "properties": {"power": "plant", "fuel": "hydro", "name": "불갑 소수력", "output_mw": "0.6 MW", "source": "hydro"}}, {"type": "Feature", "geometry": {"type": "Point", "coordinates": [127.2305729, 34.7581651]}, "properties": {"power": "plant", "fuel": "hydro", "name": "보성 소수력 #02", "output_mw": "0.55 MW", "source": "hydro"}}, {"type": "Feature", "geometry": {"type": "Point", "coordinates": [127.2308781, 34.7582289]}, "properties": {"power": "plant", "fuel": "hydro", "name": "보성 소수력 #01", "output_mw": "0.55 MW", "source": "hydro"}}, {"type": "Feature", "geometry": {"type": "Point", "coordinates": [126.8397379, 34.3524822]}, "properties": {"power": "plant", "fuel": "hydro", "name": "MD신지 소수력", "output_mw": "0.012 MW", "source": "hydro"}}, {"type": "Feature", "geometry": {"type": "Point", "coordinates": [126.8427832, 34.3523035]}, "properties": {"power": "plant", "fuel": "hydro", "name": "가보 소수력", "output_mw": "0.075 MW", "source": "hydro"}}, {"type": "Feature", "geometry": {"type": "Point", "coordinates": [126.8349129, 34.3572326]}, "properties": {"power": "plant", "fuel": "hydro", "name": "별빛 소수력 #06, #08", "output_mw": "0.19 MW", "source": "hydro"}}, {"type": "Feature", "geometry": {"type": "Point", "coordinates": [126.8354854, 34.3565811]}, "properties": {"power": "plant", "fuel": "hydro", "name": "별빛 소수력 #04~05", "output_mw": "0.15 MW", "source": "hydro"}}, {"type": "Feature", "geometry": {"type": "Point", "coordinates": [126.8374826, 34.3544608]}, "properties": {"power": "plant", "fuel": "hydro", "name": "별빛 소수력 #03", "output_mw": "0.15 MW", "source": "hydro"}}, {"type": "Feature", "geometry": {"type": "Point", "coordinates": [126.8309785, 34.3556644]}, "properties": {"power": "plant", "fuel": "hydro", "name": "별빛 소수력 #07", "output_mw": "0.17 MW", "source": "hydro"}}, {"type": "Feature", "geometry": {"type": "Point", "coordinates": [126.841556, 34.3522721]}, "properties": {"power": "plant", "fuel": "hydro", "name": "별빛 소수력 #01~02", "output_mw": "0.199 MW", "source": "hydro"}}, {"type": "Feature", "geometry": {"type": "Point", "coordinates": [126.5488351, 34.3104395]}, "properties": {"power": "plant", "fuel": "hydro", "name": "아진 소수력", "output_mw": "0.026 MW", "source": "hydro"}}, {"type": "Feature", "geometry": {"type": "Point", "coordinates": [128.8364035, 35.8084851]}, "properties": {"power": "plant", "fuel": "hydro", "name": "자인정수장 소수력", "output_mw": "0.065 MW", "source": "hydro"}}, {"type": "Feature", "geometry": {"type": "Point", "coordinates": [128.8459722, 36.5348502]}, "properties": {"power": "plant", "fuel": "hydro", "name": "반변 소수력", "output_mw": "1.06 MW", "source": "hydro"}}, {"type": "Feature", "geometry": {"type": "Point", "coordinates": [128.4281194, 36.7553962]}, "properties": {"power": "plant", "fuel": "hydro", "name": "예천 소수력", "output_mw": "0.9 MW", "source": "hydro"}}, {"type": "Feature", "geometry": {"type": "Point", "coordinates": [128.9126137, 36.8626856]}, "properties": {"power": "plant", "fuel": "hydro", "name": "봉화 소수력", "output_mw": "2.1 MW", "source": "hydro"}}, {"type": "Feature", "geometry": {"type": "Point", "coordinates": [129.0265146, 36.9280893]}, "properties": {"power": "plant", "fuel": "hydro", "name": "소천 소수력", "output_mw": "2.4 MW", "source": "hydro"}}, {"type": "Feature", "geometry": {"type": "Point", "coordinates": [128.9922971, 36.8791321]}, "properties": {"power": "plant", "fuel": "hydro", "name": "임기 소수력", "output_mw": "1.2 MW", "source": "hydro"}}, {"type": "Feature", "geometry": {"type": "Point", "coordinates": [128.4266219, 36.7547707]}, "properties": {"power": "plant", "fuel": "hydro", "name": "예천양수 소수력", "output_mw": "0.025 MW", "source": "hydro"}}, {"type": "Feature", "geometry": {"type": "Point", "coordinates": [128.528628, 36.9008009]}, "properties": {"power": "plant", "fuel": "hydro", "name": "금계 소수력", "output_mw": "0.28 MW", "source": "hydro"}}, {"type": "Feature", "geometry": {"type": "Point", "coordinates": [128.6079495, 36.9712446]}, "properties": {"power": "plant", "fuel": "hydro", "name": "단산 소수력", "output_mw": "0.25 MW", "source": "hydro"}}, {"type": "Feature", "geometry": {"type": "Point", "coordinates": [129.3580741, 36.8869557]}, "properties": {"power": "plant", "fuel": "hydro", "name": "묘곡 소수력", "output_mw": "0.25 MW", "source": "hydro"}}, {"type": "Feature", "geometry": {"type": "Point", "coordinates": [128.1625696, 36.7624367]}, "properties": {"power": "plant", "fuel": "hydro", "name": "문경당포 소수력", "output_mw": "0.22 MW", "source": "hydro"}}, {"type": "Feature", "geometry": {"type": "Point", "coordinates": [128.7257321, 37.0000175]}, "properties": {"power": "plant", "fuel": "hydro", "name": "물야 소수력", "output_mw": "0.41 MW", "source": "hydro"}}, {"type": "Feature", "geometry": {"type": "Point", "coordinates": [128.1294319, 36.4947381]}, "properties": {"power": "plant", "fuel": "hydro", "name": "오태 소수력", "output_mw": "0.189 MW", "source": "hydro"}}, {"type": "Feature", "geometry": {"type": "Point", "coordinates": [129.2210234, 35.5712418]}, "properties": {"power": "plant", "fuel": "hydro", "name": "천상 소수력", "output_mw": "0.25 MW", "source": "hydro"}}, {"type": "Feature", "geometry": {"type": "Point", "coordinates": [129.1148162, 35.1857031]}, "properties": {"power": "plant", "fuel": "hydro", "name": "수영하수처리장 소수력", "output_mw": "0.02 MW", "source": "hydro"}}, {"type": "Feature", "geometry": {"type": "Point", "coordinates": [127.7782127, 35.2577111]}, "properties": {"power": "plant", "fuel": "hydro", "name": "산청양수 소수력", "output_mw": "0.995 MW", "source": "hydro"}}, {"type": "Feature", "geometry": {"type": "Point", "coordinates": [128.1071662, 34.9155653]}, "properties": {"power": "plant", "fuel": "hydro", "name": "삼천포해양 소수력", "output_mw": "5 MW", "source": "hydro"}}, {"type": "Feature", "geometry": {"type": "Point", "coordinates": [128.000533, 35.7796907]}, "properties": {"power": "plant", "fuel": "hydro", "name": "가북 소수력", "output_mw": "0.65 MW", "source": "hydro"}}, {"type": "Feature", "geometry": {"type": "Point", "coordinates": [127.9759263, 35.4167208]}, "properties": {"power": "plant", "fuel": "hydro", "name": "율현 소수력", "output_mw": "0.56 MW", "source": "hydro"}}, {"type": "Feature", "geometry": {"type": "Point", "coordinates": [128.0839703, 35.7424582]}, "properties": {"power": "plant", "fuel": "hydro", "name": "죽전 소수력", "output_mw": "0.19 MW", "source": "hydro"}}, {"type": "Feature", "geometry": {"type": "Point", "coordinates": [127.7891587, 35.4525946]}, "properties": {"power": "plant", "fuel": "hydro", "name": "개취보 소수력", "output_mw": "0.42 MW", "source": "hydro"}}, {"type": "Feature", "geometry": {"type": "Point", "coordinates": [127.7563696, 35.4395097]}, "properties": {"power": "plant", "fuel": "hydro", "name": "운서보 소수력", "output_mw": "0.4 MW", "source": "hydro"}}, {"type": "Feature", "geometry": {"type": "Point", "coordinates": [127.9837558, 35.4334071]}, "properties": {"power": "plant", "fuel": "hydro", "name": "신손항 소수력", "output_mw": "0.15 MW", "source": "hydro"}}, {"type": "Feature", "geometry": {"type": "Point", "coordinates": [127.6116168, 35.2738684]}, "properties": {"power": "plant", "fuel": "hydro", "name": "목통탄소제로마을 소수력", "output_mw": "0.099 MW", "source": "hydro"}}, {"type": "Feature", "geometry": {"type": "Point", "coordinates": [127.6493966, 35.2893792]}, "properties": {"power": "plant", "fuel": "hydro", "name": "의신탄소제로마을 소수력", "output_mw": "0.08 MW", "source": "hydro"}}, {"type": "Feature", "geometry": {"type": "Point", "coordinates": [126.7634934, 33.2935739]}, "properties": {"power": "plant", "fuel": "hydro", "name": "대산 소수력", "output_mw": "0.069 MW", "source": "hydro"}}, {"type": "Feature", "geometry": {"type": "Point", "coordinates": [126.1783425, 33.3005222]}, "properties": {"power": "plant", "fuel": "hydro", "name": "제주고산 소수력", "output_mw": "0.4 MW", "source": "hydro"}}, {"type": "Feature", "geometry": {"type": "Point", "coordinates": [127.3474197, 36.3335384]}, "properties": {"power": "plant", "fuel": "gas", "name": "대전서남부 열병합", "output_mw": "48.3 MW", "source": "gas"}}, {"type": "Feature", "geometry": {"type": "Point", "coordinates": [126.8282956, 37.5152729]}, "properties": {"power": "plant", "fuel": "gas", "name": "신정 열병합", "output_mw": "6 MW", "source": "gas"}}, {"type": "Feature", "geometry": {"type": "Point", "coordinates": [126.7953374, 37.295575]}, "properties": {"power": "plant", "fuel": "gas", "name": "안산 열병합", "output_mw": "60 MW", "source": "gas"}}, {"type": "Feature", "geometry": {"type": "Point", "coordinates": [128.4903485, 35.831425]}, "properties": {"power": "plant", "fuel": "coal", "name": "대구 열병합", "output_mw": "46.5 MW", "source": "oil"}}, {"type": "Feature", "geometry": {"type": "Point", "coordinates": [128.1274021, 35.1789514]}, "properties": {"power": "plant", "fuel": "coal", "name": "무림 열병합", "output_mw": "26.3 MW", "source": "oil"}}, {"type": "Feature", "geometry": {"type": "Point", "coordinates": [126.7069641, 37.3308522]}, "properties": {"power": "plant", "fuel": "coal", "name": "시화 열병합", "output_mw": "20.8 MW", "source": "oil"}}, {"type": "Feature", "geometry": {"type": "Point", "coordinates": [128.1267014, 36.1555297]}, "properties": {"power": "plant", "fuel": "coal", "name": "김천 열병합", "output_mw": "59 MW", "source": "coal"}}, {"type": "Feature", "geometry": {"type": "Point", "coordinates": [128.5471986, 35.8820218]}, "properties": {"power": "plant", "fuel": "coal", "name": "대구염색 열병합", "output_mw": "72.9 MW", "source": "coal"}}, {"type": "Feature", "geometry": {"type": "Point", "coordinates": [127.0028032, 35.949615]}, "properties": {"power": "plant", "fuel": "coal", "name": "상공에너지 열병합", "output_mw": "9.8 MW", "source": "coal"}}, {"type": "Feature", "geometry": {"type": "Point", "coordinates": [126.9723911, 35.9453354]}, "properties": {"power": "plant", "fuel": "coal", "name": "익산에너지 열병합", "output_mw": "19 MW", "source": "coal"}}, {"type": "Feature", "geometry": {"type": "Point", "coordinates": [126.1506306, 33.3297016]}, "properties": {"power": "plant", "fuel": "other", "name": "", "output_mw": "0.5 MW", "source": "wave"}}, {"type": "Feature", "geometry": {"type": "Point", "coordinates": [127.0386648, 37.5730014]}, "properties": {"power": "plant", "fuel": "gas", "name": "동대문 환경자원센터", "output_mw": "1.065 MW", "source": "biogas"}}, {"type": "Feature", "geometry": {"type": "Point", "coordinates": [126.6608337, 37.4809874]}, "properties": {"power": "plant", "fuel": "other", "name": "이건에너지 열병합", "output_mw": "8.06 MW", "source": "biomass"}}, {"type": "Feature", "geometry": {"type": "Point", "coordinates": [127.0528436, 37.9290244]}, "properties": {"power": "plant", "fuel": "other", "name": "대재 바이오", "output_mw": "1.44 MW", "source": "biomass"}}, {"type": "Feature", "geometry": {"type": "Point", "coordinates": [127.0829643, 38.0067553]}, "properties": {"power": "plant", "fuel": "other", "name": "연천 바이오매스", "output_mw": "5 MW", "source": "biomass"}}, {"type": "Feature", "geometry": {"type": "Point", "coordinates": [127.2602138, 38.0075238]}, "properties": {"power": "plant", "fuel": "other", "name": "천일 바이오", "output_mw": "0.2 MW", "source": "biomass"}}, {"type": "Feature", "geometry": {"type": "Point", "coordinates": [127.0371799, 38.0681685]}, "properties": {"power": "plant", "fuel": "gas", "name": "연천 바이오가스", "output_mw": "0.45 MW", "source": "biogas"}}, {"type": "Feature", "geometry": {"type": "Point", "coordinates": [126.8890474, 37.4132321]}, "properties": {"power": "plant", "fuel": "gas", "name": "박달하수처리장 바이오", "output_mw": "2.664 MW", "source": "biogas"}}, {"type": "Feature", "geometry": {"type": "Point", "coordinates": [127.2968187, 37.0419446]}, "properties": {"power": "plant", "fuel": "gas", "name": "안성 바이오", "output_mw": "1.05 MW", "source": "biogas"}}, {"type": "Feature", "geometry": {"type": "Point", "coordinates": [126.7915616, 37.2995154]}, "properties": {"power": "plant", "fuel": "gas", "name": "진로발효 바이오", "output_mw": "2.9 MW", "source": "biogas"}}, {"type": "Feature", "geometry": {"type": "Point", "coordinates": [126.8548584, 36.9759414]}, "properties": {"power": "plant", "fuel": "other", "name": "포승 바이오매스", "output_mw": "43.2 MW", "source": "biomass"}}, {"type": "Feature", "geometry": {"type": "Point", "coordinates": [127.4850234, 37.139105]}, "properties": {"power": "plant", "fuel": "gas", "name": "이천 바이오가스", "output_mw": "0.499 MW", "source": "biogas"}}, {"type": "Feature", "geometry": {"type": "Point", "coordinates": [128.9898338, 37.6965869]}, "properties": {"power": "plant", "fuel": "other", "name": "강릉강동 바이오매스", "output_mw": "9.95 MW", "source": "biomass"}}, {"type": "Feature", "geometry": {"type": "Point", "coordinates": [129.0346965, 37.1123688]}, "properties": {"power": "plant", "fuel": "gas", "name": "태백(철암) 전자파플라즈마가스화", "output_mw": "3 MW", "source": "biogas"}}, {"type": "Feature", "geometry": {"type": "Point", "coordinates": [127.9366946, 37.3895617]}, "properties": {"power": "plant", "fuel": "gas", "name": "원주 바이오가스", "output_mw": "0.89 MW", "source": "biogas"}}, {"type": "Feature", "geometry": {"type": "Point", "coordinates": [127.87353, 37.3221143]}, "properties": {"power": "plant", "fuel": "gas", "name": "원주 LFG", "output_mw": "0.98 MW", "source": "biogas"}}, {"type": "Feature", "geometry": {"type": "Point", "coordinates": [127.6412665, 37.8066367]}, "properties": {"power": "plant", "fuel": "gas", "name": "춘천하수종말처리장 바이오", "output_mw": "0.8 MW", "source": "biogas"}}, {"type": "Feature", "geometry": {"type": "Point", "coordinates": [127.3954356, 36.6291468]}, "properties": {"power": "plant", "fuel": "gas", "name": "청주 LFG", "output_mw": "1.858 MW", "source": "biogas"}}, {"type": "Feature", "geometry": {"type": "Point", "coordinates": [127.4041017, 36.6249866]}, "properties": {"power": "plant", "fuel": "other", "name": "청주광역소각장 바이오", "output_mw": "0.99 MW", "source": "biomass"}}, {"type": "Feature", "geometry": {"type": "Point", "coordinates": [127.3988954, 36.6672267]}, "properties": {"power": "plant", "fuel": "gas", "name": "청주 유기성폐기물에너지화", "output_mw": "0.87 MW", "source": "biogas"}}, {"type": "Feature", "geometry": {"type": "Point", "coordinates": [127.3947396, 36.4635293]}, "properties": {"power": "plant", "fuel": "gas", "name": "대전금고동 LFG", "output_mw": "3.46 MW", "source": "biogas"}}, {"type": "Feature", "geometry": {"type": "Point", "coordinates": [127.2271202, 36.4956015]}, "properties": {"power": "plant", "fuel": "other", "name": "장군 열병합", "output_mw": "5 MW", "source": "biomass"}}, {"type": "Feature", "geometry": {"type": "Point", "coordinates": [126.3925997, 36.9969555]}, "properties": {"power": "plant", "fuel": "other", "name": "서해 열병합", "output_mw": "29 MW", "source": "biomass"}}, {"type": "Feature", "geometry": {"type": "Point", "coordinates": [126.5890102, 37.0095152]}, "properties": {"power": "plant", "fuel": "other", "name": "석문 바이오", "output_mw": "38.9 MW", "source": "biomass"}}, {"type": "Feature", "geometry": {"type": "Point", "coordinates": [126.9750553, 36.8043017]}, "properties": {"power": "plant", "fuel": "other", "name": "신창 바이오", "output_mw": "2 MW", "source": "biomass"}}, {"type": "Feature", "geometry": {"type": "Point", "coordinates": [126.5672747, 36.5044941]}, "properties": {"power": "plant", "fuel": "other", "name": "홍성 바이오", "output_mw": "1 MW", "source": "biomass"}}, {"type": "Feature", "geometry": {"type": "Point", "coordinates": [127.4170519, 36.3939604]}, "properties": {"power": "plant", "fuel": "gas", "name": "대전 바이오가스", "output_mw": "0.099 MW", "source": "biogas"}}, {"type": "Feature", "geometry": {"type": "Point", "coordinates": [127.099176, 36.1850786]}, "properties": {"power": "plant", "fuel": "other", "name": "논산 바이오매스", "output_mw": "0.86 MW", "source": "biomass"}}, {"type": "Feature", "geometry": {"type": "Point", "coordinates": [127.0331724, 36.3975206]}, "properties": {"power": "plant", "fuel": "gas", "name": "석계 바이오가스", "output_mw": "0.35 MW", "source": "biogas"}}, {"type": "Feature", "geometry": {"type": "Point", "coordinates": [126.5622066, 36.5267073]}, "properties": {"power": "plant", "fuel": "gas", "name": "원천 에너지전환센터", "output_mw": "0.43 MW", "source": "biogas"}}, {"type": "Feature", "geometry": {"type": "Point", "coordinates": [126.7558674, 36.4505977]}, "properties": {"power": "plant", "fuel": "gas", "name": "청양 바이오가스", "output_mw": "0.44 MW", "source": "biogas"}}, {"type": "Feature", "geometry": {"type": "Point", "coordinates": [126.9087002, 36.3331812]}, "properties": {"power": "plant", "fuel": "gas", "name": "칠성 바이오가스", "output_mw": "1.34 MW", "source": "biogas"}}, {"type": "Feature", "geometry": {"type": "Point", "coordinates": [126.5975224, 36.4777569]}, "properties": {"power": "plant", "fuel": "gas", "name": "홍보그린텍 바이오가스", "output_mw": "0.49 MW", "source": "biogas"}}, {"type": "Feature", "geometry": {"type": "Point", "coordinates": [126.639588, 35.9775242]}, "properties": {"power": "plant", "fuel": "coal", "name": "군장 열병합", "output_mw": "523.569 MW", "source": "coal"}}, {"type": "Feature", "geometry": {"type": "Point", "coordinates": [127.1411942, 35.9446615]}, "properties": {"power": "plant", "fuel": "other", "name": "썬텍 바이오", "output_mw": "3 MW", "source": "biomass"}}, {"type": "Feature", "geometry": {"type": "Point", "coordinates": [127.1412428, 35.9442268]}, "properties": {"power": "plant", "fuel": "other", "name": "엔프로텍 바이오", "output_mw": "5 MW", "source": "biomass"}}, {"type": "Feature", "geometry": {"type": "Point", "coordinates": [127.0741787, 35.7994183]}, "properties": {"power": "plant", "fuel": "other", "name": "전주 바이오", "output_mw": "2.45 MW", "source": "biomass"}}, {"type": "Feature", "geometry": {"type": "Point", "coordinates": [127.019428, 35.9582629]}, "properties": {"power": "plant", "fuel": "other", "name": "한솔홈데코 열병합", "output_mw": "4.05 MW", "source": "biomass"}}, {"type": "Feature", "geometry": {"type": "Point", "coordinates": [126.7194866, 35.4528824]}, "properties": {"power": "plant", "fuel": "gas", "name": "고창 바이오", "output_mw": "0.08 MW", "source": "biogas"}}, {"type": "Feature", "geometry": {"type": "Point", "coordinates": [126.6098357, 35.9460683]}, "properties": {"power": "plant", "fuel": "gas", "name": "군산 LFG", "output_mw": "1 MW", "source": "biogas"}}, {"type": "Feature", "geometry": {"type": "Point", "coordinates": [126.9320609, 35.8599431]}, "properties": {"power": "plant", "fuel": "gas", "name": "상상영농조합 바이오", "output_mw": "0.05 MW", "source": "biogas"}}, {"type": "Feature", "geometry": {"type": "Point", "coordinates": [126.8452818, 35.6087744]}, "properties": {"power": "plant", "fuel": "other", "name": "엠에코 바이오", "output_mw": "1.148 MW", "source": "biomass"}}, {"type": "Feature", "geometry": {"type": "Point", "coordinates": [126.8818308, 35.7025578]}, "properties": {"power": "plant", "fuel": "gas", "name": "친환경 바이오", "output_mw": "0.37 MW", "source": "biogas"}}, {"type": "Feature", "geometry": {"type": "Point", "coordinates": [126.9874372, 35.8335391]}, "properties": {"power": "plant", "fuel": "gas", "name": "한국 바이오", "output_mw": "0.999 MW", "source": "biogas"}}, {"type": "Feature", "geometry": {"type": "Point", "coordinates": [126.885734, 35.0877632]}, "properties": {"power": "plant", "fuel": "gas", "name": "광주양과 위생매립장 LFG", "output_mw": "1.06 MW", "source": "biogas"}}, {"type": "Feature", "geometry": {"type": "Point", "coordinates": [127.6081152, 34.9319863]}, "properties": {"power": "plant", "fuel": "gas", "name": "광양초남 위생처리장 LFG", "output_mw": "0.64 MW", "source": "biogas"}}, {"type": "Feature", "geometry": {"type": "Point", "coordinates": [126.4085627, 34.830544]}, "properties": {"power": "plant", "fuel": "gas", "name": "목포한화 LFG", "output_mw": "2.116 MW", "source": "biogas"}}, {"type": "Feature", "geometry": {"type": "Point", "coordinates": [127.5402773, 34.9694282]}, "properties": {"power": "plant", "fuel": "gas", "name": "순천 생활폐기물매립장 바이오", "output_mw": "2.45 MW", "source": "biogas"}}, {"type": "Feature", "geometry": {"type": "Point", "coordinates": [127.7339167, 34.7709709]}, "properties": {"power": "plant", "fuel": "gas", "name": "여수만흥 위생매립장 바이오", "output_mw": "1.848 MW", "source": "biogas"}}, {"type": "Feature", "geometry": {"type": "Point", "coordinates": [126.4094533, 34.8304512]}, "properties": {"power": "plant", "fuel": "gas", "name": "목포대양 LFG", "output_mw": "0.998 MW", "source": "biogas"}}, {"type": "Feature", "geometry": {"type": "Point", "coordinates": [128.5360384, 35.8640751]}, "properties": {"power": "plant", "fuel": "other", "name": "서대구 열병합", "output_mw": "1.5 MW", "source": "biomass"}}, {"type": "Feature", "geometry": {"type": "Point", "coordinates": [129.3928891, 35.983337]}, "properties": {"power": "plant", "fuel": "gas", "name": "포항호동 매립장 LFG", "output_mw": "2 MW", "source": "biogas"}}, {"type": "Feature", "geometry": {"type": "Point", "coordinates": [128.421371, 36.132216]}, "properties": {"power": "plant", "fuel": "gas", "name": "구미구포 매립장", "output_mw": "0.45 MW", "source": "biogas"}}, {"type": "Feature", "geometry": {"type": "Point", "coordinates": [128.9300977, 35.9241754]}, "properties": {"power": "plant", "fuel": "gas", "name": "영천 유기성폐기물광역에너지화시설", "output_mw": "1.05 MW", "source": "biogas"}}, {"type": "Feature", "geometry": {"type": "Point", "coordinates": [128.9603659, 35.0504478]}, "properties": {"power": "plant", "fuel": "other", "name": "부산다대 소각장 바이오", "output_mw": "0.768 MW", "source": "biomass"}}, {"type": "Feature", "geometry": {"type": "Point", "coordinates": [128.7782545, 35.2992486]}, "properties": {"power": "plant", "fuel": "gas", "name": "김해 음폐수처리장 바이오", "output_mw": "1.485 MW", "source": "biogas"}}, {"type": "Feature", "geometry": {"type": "Point", "coordinates": [128.8757445, 35.1284967]}, "properties": {"power": "plant", "fuel": "gas", "name": "부산생곡(파낙스) LFG", "output_mw": "3.174 MW", "source": "biogas"}}, {"type": "Feature", "geometry": {"type": "Point", "coordinates": [129.0182643, 35.3666956]}, "properties": {"power": "plant", "fuel": "gas", "name": "양산 바이오가스화시설", "output_mw": "0.6 MW", "source": "biogas"}}, {"type": "Feature", "geometry": {"type": "Point", "coordinates": [128.9649187, 35.3360372]}, "properties": {"power": "plant", "fuel": "gas", "name": "흙마음 바이오", "output_mw": "0.82 MW", "source": "biogas"}}, {"type": "Feature", "geometry": {"type": "Point", "coordinates": [128.4698513, 35.3643694]}, "properties": {"power": "plant", "fuel": "other", "name": "엠함안 바이오", "output_mw": "9.9 MW", "source": "biomass"}}, {"type": "Feature", "geometry": {"type": "Point", "coordinates": [128.0114333, 35.1176977]}, "properties": {"power": "plant", "fuel": "gas", "name": "진주 광역매립장 LFG", "output_mw": "0.925 MW", "source": "biogas"}}, {"type": "Feature", "geometry": {"type": "Point", "coordinates": [128.4395676, 35.5302915]}, "properties": {"power": "plant", "fuel": "other", "name": "창녕 바이오", "output_mw": "0.541 MW", "source": "biomass"}}, {"type": "Feature", "geometry": {"type": "Point", "coordinates": [128.5878742, 35.1369721]}, "properties": {"power": "plant", "fuel": "other", "name": "창원덕동 생활폐기물매립장", "output_mw": "0.7 MW", "source": "biomass"}}, {"type": "Feature", "geometry": {"type": "Point", "coordinates": [128.6968167, 35.1724508]}, "properties": {"power": "plant", "fuel": "other", "name": "창원마산 생활폐기물매립장", "output_mw": "0.9 MW", "source": "biomass"}}, {"type": "Feature", "geometry": {"type": "Point", "coordinates": [128.4960832, 35.4190673]}, "properties": {"power": "plant", "fuel": "gas", "name": "도방에너지 바이오", "output_mw": "0.19 MW", "source": "biogas"}}, {"type": "Feature", "geometry": {"type": "Point", "coordinates": [126.3701775, 33.4331101]}, "properties": {"power": "plant", "fuel": "other", "name": "서광 바이오", "output_mw": "2.4 MW", "source": "biomass"}}, {"type": "Feature", "geometry": {"type": "Point", "coordinates": [126.2890044, 33.3980821]}, "properties": {"power": "plant", "fuel": "gas", "name": "제주축산 바이오", "output_mw": "0.289 MW", "source": "biogas"}}, {"type": "Feature", "geometry": {"type": "Point", "coordinates": [126.5809198, 33.2908288]}, "properties": {"power": "plant", "fuel": "other", "name": "제주토평 바이오", "output_mw": "2.95 MW", "source": "biomass"}}, {"type": "Feature", "geometry": {"type": "Point", "coordinates": [126.6270665, 33.4609394]}, "properties": {"power": "plant", "fuel": "gas", "name": "제주회천 매립장 LFG", "output_mw": "1 MW", "source": "biogas"}}, {"type": "Feature", "geometry": {"type": "Point", "coordinates": [126.3357522, 33.3209966]}, "properties": {"power": "plant", "fuel": "gas", "name": "한라산 바이오", "output_mw": "0.5 MW", "source": "biogas"}}, {"type": "Feature", "geometry": {"type": "Point", "coordinates": [127.1636835, 37.568081]}, "properties": {"power": "plant", "fuel": "gas", "name": "강동 연료전지", "output_mw": "19.8 MW", "source": "gas"}}, {"type": "Feature", "geometry": {"type": "Point", "coordinates": [126.9024798, 37.437211]}, "properties": {"power": "plant", "fuel": "gas", "name": "SK(박미) 연료전지", "output_mw": "0.3 MW", "source": "gas"}}, {"type": "Feature", "geometry": {"type": "Point", "coordinates": [126.8329212, 37.5281009]}, "properties": {"power": "plant", "fuel": "gas", "name": "SK(개나리) 연료전지", "output_mw": "0.3 MW", "source": "gas"}}, {"type": "Feature", "geometry": {"type": "Point", "coordinates": [127.10204, 37.5132181]}, "properties": {"power": "plant", "fuel": "gas", "name": "롯데월드타워 연료전지", "output_mw": "0.8 MW", "source": "gas"}}, {"type": "Feature", "geometry": {"type": "Point", "coordinates": [126.6507281, 37.4854883]}, "properties": {"power": "plant", "fuel": "gas", "name": "인천 연료전지", "output_mw": "31.68 MW", "source": "gas"}}, {"type": "Feature", "geometry": {"type": "Point", "coordinates": [126.6331014, 37.6103925]}, "properties": {"power": "plant", "fuel": "gas", "name": "인천민자 연료전지", "output_mw": "39.6 MW", "source": "gas"}}, {"type": "Feature", "geometry": {"type": "Point", "coordinates": [126.7075594, 37.356581]}, "properties": {"power": "plant", "fuel": "gas", "name": "시흥배곧가압장 연료전지", "output_mw": "6 MW", "source": "gas"}}, {"type": "Feature", "geometry": {"type": "Point", "coordinates": [126.6300555, 37.4402904]}, "properties": {"power": "plant", "fuel": "gas", "name": "인천중구수영장 연료전지", "output_mw": "0.105 MW", "source": "gas"}}, {"type": "Feature", "geometry": {"type": "Point", "coordinates": [126.8133642, 37.7903278]}, "properties": {"power": "plant", "fuel": "gas", "name": "도내리 연료전지", "output_mw": "8.1 MW", "source": "gas"}}, {"type": "Feature", "geometry": {"type": "Point", "coordinates": [126.8133531, 37.7886671]}, "properties": {"power": "plant", "fuel": "gas", "name": "포천천연 연료전지", "output_mw": "0.44 MW", "source": "gas"}}, {"type": "Feature", "geometry": {"type": "Point", "coordinates": [127.2687568, 37.39861]}, "properties": {"power": "plant", "fuel": "gas", "name": "광주초월 연료전지", "output_mw": "9.6 MW", "source": "gas"}}, {"type": "Feature", "geometry": {"type": "Point", "coordinates": [127.4267549, 37.2884135]}, "properties": {"power": "plant", "fuel": "gas", "name": "이천관고 연료전지", "output_mw": "9.6 MW", "source": "gas"}}, {"type": "Feature", "geometry": {"type": "Point", "coordinates": [126.8438657, 37.2209841]}, "properties": {"power": "plant", "fuel": "gas", "name": "화성남양 연료전지", "output_mw": "39.6 MW", "source": "gas"}}, {"type": "Feature", "geometry": {"type": "Point", "coordinates": [126.8902743, 37.4223158]}, "properties": {"power": "plant", "fuel": "gas", "name": "광명 연료전지", "output_mw": "5 MW", "source": "gas"}}, {"type": "Feature", "geometry": {"type": "Point", "coordinates": [126.8901249, 37.4221652]}, "properties": {"power": "plant", "fuel": "gas", "name": "광명그린 연료전지", "output_mw": "2.64 MW", "source": "gas"}}, {"type": "Feature", "geometry": {"type": "Point", "coordinates": [126.9473195, 37.0282579]}, "properties": {"power": "plant", "fuel": "gas", "name": "오성 연료전지", "output_mw": "9.68 MW", "source": "gas"}}, {"type": "Feature", "geometry": {"type": "Point", "coordinates": [126.8195568, 37.0547337]}, "properties": {"power": "plant", "fuel": "gas", "name": "화성그린 연료전지", "output_mw": "19.8 MW", "source": "gas"}}, {"type": "Feature", "geometry": {"type": "Point", "coordinates": [127.0947034, 37.2485201]}, "properties": {"power": "plant", "fuel": "gas", "name": "미래개발원 연료전지", "output_mw": "0.1 MW", "source": "gas"}}, {"type": "Feature", "geometry": {"type": "Point", "coordinates": [126.57754, 37.2912623]}, "properties": {"power": "plant", "fuel": "gas", "name": "대부도에너지타운 연료전지", "output_mw": "0.88 MW", "source": "gas"}}, {"type": "Feature", "geometry": {"type": "Point", "coordinates": [126.8909338, 37.1709568]}, "properties": {"power": "plant", "fuel": "gas", "name": "한국가스공사 연료전지", "output_mw": "0.88 MW", "source": "gas"}}, {"type": "Feature", "geometry": {"type": "Point", "coordinates": [128.4920019, 37.1637839]}, "properties": {"power": "plant", "fuel": "gas", "name": "영월 연료전지", "output_mw": "15 MW", "source": "gas"}}, {"type": "Feature", "geometry": {"type": "Point", "coordinates": [129.1446362, 37.4828306]}, "properties": {"power": "plant", "fuel": "gas", "name": "동해 연료전지", "output_mw": "19.2 MW", "source": "gas"}}, {"type": "Feature", "geometry": {"type": "Point", "coordinates": [128.8620841, 37.8048937]}, "properties": {"power": "plant", "fuel": "gas", "name": "강릉사천 연료전지", "output_mw": "19.8 MW", "source": "gas"}}, {"type": "Feature", "geometry": {"type": "Point", "coordinates": [127.737354, 37.9396493]}, "properties": {"power": "plant", "fuel": "gas", "name": "춘천 연료전지", "output_mw": "29.4 MW", "source": "gas"}}, {"type": "Feature", "geometry": {"type": "Point", "coordinates": [128.7130438, 37.6708201]}, "properties": {"power": "plant", "fuel": "gas", "name": "KT대관령 연료전지", "output_mw": "0.096 MW", "source": "gas"}}, {"type": "Feature", "geometry": {"type": "Point", "coordinates": [127.5758848, 36.9827935]}, "properties": {"power": "plant", "fuel": "gas", "name": "음성 연료전지", "output_mw": "19.8 MW", "source": "gas"}}, {"type": "Feature", "geometry": {"type": "Point", "coordinates": [127.4463832, 36.6490373]}, "properties": {"power": "plant", "fuel": "gas", "name": "청주 연료전지", "output_mw": "19.8 MW", "source": "gas"}}, {"type": "Feature", "geometry": {"type": "Point", "coordinates": [127.3993953, 36.4030364]}, "properties": {"power": "plant", "fuel": "gas", "name": "KT대덕2연구센터 연료전지", "output_mw": "0.9 MW", "source": "gas"}}, {"type": "Feature", "geometry": {"type": "Point", "coordinates": [126.4873733, 36.3937888]}, "properties": {"power": "plant", "fuel": "gas", "name": "신보령 연료전지", "output_mw": "7.48 MW", "source": "gas"}}, {"type": "Feature", "geometry": {"type": "Point", "coordinates": [127.1616164, 36.7869983]}, "properties": {"power": "plant", "fuel": "gas", "name": "천안청수 연료전지", "output_mw": "5.28 MW", "source": "gas"}}, {"type": "Feature", "geometry": {"type": "Point", "coordinates": [126.3439666, 36.9929419]}, "properties": {"power": "plant", "fuel": "gas", "name": "대산 연료전지", "output_mw": "1 MW", "source": "gas"}}, {"type": "Feature", "geometry": {"type": "Point", "coordinates": [126.7797123, 36.9615763]}, "properties": {"power": "plant", "fuel": "gas", "name": "부곡 연료전지", "output_mw": "2.4 MW", "source": "gas"}}, {"type": "Feature", "geometry": {"type": "Point", "coordinates": [126.5994702, 36.9898005]}, "properties": {"power": "plant", "fuel": "gas", "name": "석문 연료전지", "output_mw": "19.8 MW", "source": "gas"}}, {"type": "Feature", "geometry": {"type": "Point", "coordinates": [127.4700196, 36.3184519]}, "properties": {"power": "plant", "fuel": "gas", "name": "S-Fuelcell(대전) 연료전지", "output_mw": "0.105 MW", "source": "gas"}}, {"type": "Feature", "geometry": {"type": "Point", "coordinates": [127.0056625, 35.9537665]}, "properties": {"power": "plant", "fuel": "gas", "name": "익산 연료전지", "output_mw": "15 MW", "source": "gas"}}, {"type": "Feature", "geometry": {"type": "Point", "coordinates": [126.7434012, 35.9816109]}, "properties": {"power": "plant", "fuel": "gas", "name": "군산 연료전지", "output_mw": "2.4 MW", "source": "gas"}}, {"type": "Feature", "geometry": {"type": "Point", "coordinates": [127.1091331, 35.9764498]}, "properties": {"power": "plant", "fuel": "gas", "name": "완주 연료전지", "output_mw": "2.4 MW", "source": "gas"}}, {"type": "Feature", "geometry": {"type": "Point", "coordinates": [126.7159877, 35.9779093]}, "properties": {"power": "plant", "fuel": "gas", "name": "S-Fuelcell(군산) 연료전지", "output_mw": "0.21 MW", "source": "gas"}}, {"type": "Feature", "geometry": {"type": "Point", "coordinates": [126.8372663, 35.1552581]}, "properties": {"power": "plant", "fuel": "gas", "name": "빛고을에코 연료전지", "output_mw": "12.32 MW", "source": "gas"}}, {"type": "Feature", "geometry": {"type": "Point", "coordinates": [126.9110319, 35.1797301]}, "properties": {"power": "plant", "fuel": "gas", "name": "S-Fuelcell(광주) 연료전지", "output_mw": "0.315 MW", "source": "gas"}}, {"type": "Feature", "geometry": {"type": "Point", "coordinates": [129.4824067, 35.9799593]}, "properties": {"power": "plant", "fuel": "gas", "name": "포항 연료전지", "output_mw": "22.2 MW", "source": "gas"}}, {"type": "Feature", "geometry": {"type": "Point", "coordinates": [129.3221358, 36.0674248]}, "properties": {"power": "plant", "fuel": "gas", "name": "포스코(포항) 연료전지", "output_mw": "0.3 MW", "source": "gas"}}, {"type": "Feature", "geometry": {"type": "Point", "coordinates": [128.4927073, 35.8598504]}, "properties": {"power": "plant", "fuel": "gas", "name": "KT대구물류센터 연료전지", "output_mw": "0.9 MW", "source": "gas"}}, {"type": "Feature", "geometry": {"type": "Point", "coordinates": [128.5051231, 35.8176019]}, "properties": {"power": "plant", "fuel": "gas", "name": "TCS1 연료전지", "output_mw": "11.2 MW", "source": "gas"}}, {"type": "Feature", "geometry": {"type": "Point", "coordinates": [128.5633193, 35.8467683]}, "properties": {"power": "plant", "fuel": "gas", "name": "S-Fuelcell(대구) 연료전지", "output_mw": "0.21 MW", "source": "gas"}}, {"type": "Feature", "geometry": {"type": "Point", "coordinates": [128.3416209, 36.0668009]}, "properties": {"power": "plant", "fuel": "gas", "name": "그린랜드 연료전지", "output_mw": "0.88 MW", "source": "gas"}}, {"type": "Feature", "geometry": {"type": "Point", "coordinates": [128.7125619, 35.8702795]}, "properties": {"power": "plant", "fuel": "gas", "name": "동호 연료전지", "output_mw": "0.297 MW", "source": "gas"}}, {"type": "Feature", "geometry": {"type": "Point", "coordinates": [128.4121694, 36.077868]}, "properties": {"power": "plant", "fuel": "gas", "name": "천호산업 연료전지", "output_mw": "0.198 MW", "source": "gas"}}, {"type": "Feature", "geometry": {"type": "Point", "coordinates": [128.3385769, 36.1141618]}, "properties": {"power": "plant", "fuel": "gas", "name": "구미 연료전지", "output_mw": "2.4 MW", "source": "gas"}}, {"type": "Feature", "geometry": {"type": "Point", "coordinates": [128.8872822, 35.1043435]}, "properties": {"power": "plant", "fuel": "gas", "name": "부산 연료전지", "output_mw": "5.6 MW", "source": "gas"}}, {"type": "Feature", "geometry": {"type": "Point", "coordinates": [129.1076823, 35.5269282]}, "properties": {"power": "plant", "fuel": "gas", "name": "울산 연료전지", "output_mw": "7 MW", "source": "gas"}}, {"type": "Feature", "geometry": {"type": "Point", "coordinates": [129.107627, 35.5275123]}, "properties": {"power": "plant", "fuel": "gas", "name": "울주햇빛상생 연료전지", "output_mw": "8.1 MW", "source": "gas"}}, {"type": "Feature", "geometry": {"type": "Point", "coordinates": [129.3657887, 35.5541426]}, "properties": {"power": "plant", "fuel": "gas", "name": "대원그린 연료전지", "output_mw": "19.8 MW", "source": "gas"}}, {"type": "Feature", "geometry": {"type": "Point", "coordinates": [127.9140381, 35.693457]}, "properties": {"power": "plant", "fuel": "gas", "name": "그린파크 연료전지", "output_mw": "0.105 MW", "source": "gas"}}, {"type": "Feature", "geometry": {"type": "Point", "coordinates": [127.9221035, 35.6838493]}, "properties": {"power": "plant", "fuel": "gas", "name": "S-Fuelcell(거창) 연료전지", "output_mw": "0.21 MW", "source": "gas"}}, {"type": "Feature", "geometry": {"type": "Point", "coordinates": [128.5904213, 38.1764577]}, "properties": {"power": "plant", "fuel": "other", "name": "속초 환경자원사업소", "output_mw": "0.49 MW", "source": "waste"}}, {"type": "Feature", "geometry": {"type": "Point", "coordinates": [129.0038702, 37.1977799]}, "properties": {"power": "plant", "fuel": "other", "name": "태백 매립소각장", "output_mw": "0.498 MW", "source": "waste"}}, {"type": "Feature", "geometry": {"type": "Point", "coordinates": [127.8479724, 36.9412005]}, "properties": {"power": "plant", "fuel": "other", "name": "충주 클린에너지파크", "output_mw": "0.76 MW", "source": "waste"}}, {"type": "Feature", "geometry": {"type": "Point", "coordinates": [127.5576283, 36.5703732]}, "properties": {"power": "plant", "fuel": "other", "name": "삼성에너지 폐기물", "output_mw": "0.5 MW", "source": "waste"}}, {"type": "Feature", "geometry": {"type": "Point", "coordinates": [126.5562032, 36.3545163]}, "properties": {"power": "plant", "fuel": "other", "name": "보령 그린발전", "output_mw": "0.44 MW", "source": "waste"}}, {"type": "Feature", "geometry": {"type": "Point", "coordinates": [127.07709, 35.8555453]}, "properties": {"power": "plant", "fuel": "other", "name": "KC환경서비스 폐기물", "output_mw": "0.16 MW", "source": "waste"}}, {"type": "Feature", "geometry": {"type": "Point", "coordinates": [126.438431, 34.8351563]}, "properties": {"power": "plant", "fuel": "other", "name": "남해환경 폐기물", "output_mw": "0.48 MW", "source": "waste"}}, {"type": "Feature", "geometry": {"type": "Point", "coordinates": [126.4299823, 34.8983741]}, "properties": {"power": "plant", "fuel": "other", "name": "동양그린 폐기물", "output_mw": "0.4 MW", "source": "waste"}}, {"type": "Feature", "geometry": {"type": "Point", "coordinates": [128.4194207, 35.9617752]}, "properties": {"power": "plant", "fuel": "other", "name": "제일에너지 폐기물", "output_mw": "0.16 MW", "source": "waste"}}, {"type": "Feature", "geometry": {"type": "Point", "coordinates": [127.9325099, 35.6908376]}, "properties": {"power": "plant", "fuel": "other", "name": "거창 생활폐기물소각시설 GT", "output_mw": "0.133 MW", "source": "waste"}}, {"type": "Feature", "geometry": {"type": "Point", "coordinates": [128.6897607, 35.1414119]}, "properties": {"power": "plant", "fuel": "other", "name": "창원진해 생활폐기물소각", "output_mw": "0.4 MW", "source": "waste"}}, {"type": "Feature", "geometry": {"type": "Point", "coordinates": [127.7499183, 35.50612]}, "properties": {"power": "plant", "fuel": "other", "name": "함양군 폐기물소각", "output_mw": "0.14 MW", "source": "waste"}}, {"type": "Feature", "geometry": {"type": "Point", "coordinates": [126.9169845, 37.5154002]}, "properties": {"power": "plant", "fuel": "gas", "name": "SK(신길) 연료전지", "output_mw": "0.3 MW", "source": "gas"}}, {"type": "Feature", "geometry": {"type": "Point", "coordinates": [127.1236324, 35.739907]}, "properties": {"power": "plant", "fuel": "hydro", "name": "구이 소수력", "output_mw": "0.36 MW", "source": "hydro"}}, {"type": "Feature", "geometry": {"type": "Point", "coordinates": [127.526109, 35.9457733]}, "properties": {"power": "plant", "fuel": "hydro", "name": "용담수력발전소", "output_mw": "22.1 MW", "source": "hydro"}}, {"type": "Feature", "geometry": {"type": "Point", "coordinates": [127.2990036, 36.5273805]}, "properties": {"power": "plant", "fuel": "gas", "name": "신세종 열병합", "output_mw": "597.171 MW", "source": "gas"}}, {"type": "Feature", "geometry": {"type": "Point", "coordinates": [126.8909664, 37.4227928]}, "properties": {"power": "plant", "fuel": "other", "name": "삼천리열병합발전소", "output_mw": "", "source": ""}}, {"type": "Feature", "geometry": {"type": "Point", "coordinates": [126.6255239, 37.5657494]}, "properties": {"power": "plant", "fuel": "hydro", "name": "", "output_mw": "yes", "source": "hydro"}}, {"type": "Feature", "geometry": {"type": "Point", "coordinates": [129.3524895, 35.4233653]}, "properties": {"power": "plant", "fuel": "gas", "name": "", "output_mw": "270 MW", "source": "gas"}}, {"type": "Feature", "geometry": {"type": "Point", "coordinates": [126.4391212, 37.2433381]}, "properties": {"power": "plant", "fuel": "coal", "name": "", "output_mw": "yes", "source": "coal"}}, {"type": "Feature", "geometry": {"type": "Point", "coordinates": [126.4391233, 37.2427042]}, "properties": {"power": "plant", "fuel": "coal", "name": "", "output_mw": "yes", "source": "coal"}}, {"type": "Feature", "geometry": {"type": "Point", "coordinates": [126.4390451, 37.2421239]}, "properties": {"power": "plant", "fuel": "coal", "name": "", "output_mw": "yes", "source": "coal"}}, {"type": "Feature", "geometry": {"type": "Point", "coordinates": [126.4355249, 37.2437002]}, "properties": {"power": "plant", "fuel": "coal", "name": "석탄", "output_mw": "yes", "source": "coal"}}, {"type": "Feature", "geometry": {"type": "Point", "coordinates": [126.4402251, 37.2338482]}, "properties": {"power": "plant", "fuel": "coal", "name": "", "output_mw": "yes", "source": "coal"}}, {"type": "Feature", "geometry": {"type": "Point", "coordinates": [129.3510269, 35.4924169]}, "properties": {"power": "plant", "fuel": "gas", "name": "울산 GPS", "output_mw": "yes", "source": "gas"}}, {"type": "Feature", "geometry": {"type": "Point", "coordinates": [128.4881193, 35.8313992]}, "properties": {"power": "plant", "fuel": "gas", "name": "", "output_mw": "270 MW", "source": "gas"}}, {"type": "Feature", "geometry": {"type": "Point", "coordinates": [129.3799145, 36.0112575]}, "properties": {"power": "plant", "fuel": "gas", "name": "", "output_mw": "yes", "source": "gas"}}, {"type": "Feature", "geometry": {"type": "Point", "coordinates": [129.3863033, 36.0276726]}, "properties": {"power": "plant", "fuel": "other", "name": "", "output_mw": "", "source": ""}}, {"type": "Feature", "geometry": {"type": "Point", "coordinates": [129.3944302, 36.0320806]}, "properties": {"power": "plant", "fuel": "gas", "name": "", "output_mw": "150 MW", "source": "gas"}}, {"type": "Feature", "geometry": {"type": "Point", "coordinates": [127.6853934, 34.8371277]}, "properties": {"power": "plant", "fuel": "other", "name": "", "output_mw": "", "source": ""}}, {"type": "Feature", "geometry": {"type": "Point", "coordinates": [127.2187002, 37.5186801]}, "properties": {"power": "plant", "fuel": "gas", "name": "가스공급시설", "output_mw": "", "source": "gas"}}, {"type": "Feature", "geometry": {"type": "Point", "coordinates": [129.0231926, 35.3250192]}, "properties": {"power": "plant", "fuel": "other", "name": "", "output_mw": "", "source": ""}}, {"type": "Feature", "geometry": {"type": "Point", "coordinates": [128.7771368, 37.4629638]}, "properties": {"power": "plant", "fuel": "hydro", "name": "정선 소수력", "output_mw": "1.92 MW", "source": "hydro"}}, {"type": "Feature", "geometry": {"type": "Point", "coordinates": [127.456432, 35.4630632]}, "properties": {"power": "plant", "fuel": "gas", "name": "", "output_mw": "", "source": "gas"}}, {"type": "Feature", "geometry": {"type": "Point", "coordinates": [127.4547596, 35.461783]}, "properties": {"power": "plant", "fuel": "gas", "name": "", "output_mw": "", "source": "gas"}}, {"type": "Feature", "geometry": {"type": "Point", "coordinates": [129.4016987, 34.6430302]}, "properties": {"power": "plant", "fuel": "other", "name": "", "output_mw": "", "source": ""}}, {"type": "Feature", "geometry": {"type": "Point", "coordinates": [129.9424834, 33.2573834]}, "properties": {"power": "plant", "fuel": "other", "name": "さが西部クリーンセンター", "output_mw": "", "source": "waste"}}, {"type": "Feature", "geometry": {"type": "Point", "coordinates": [126.8159402, 33.5538681]}, "properties": {"power": "plant", "fuel": "wind", "name": "행원 풍력", "output_mw": "", "source": "wind"}}, {"type": "Feature", "geometry": {"type": "Point", "coordinates": [126.6149635, 37.5097643]}, "properties": {"power": "plant", "fuel": "gas", "name": "인천 LNG복합발전소", "output_mw": "3412 MW", "source": "gas"}}, {"type": "Feature", "geometry": {"type": "Point", "coordinates": [126.7300129, 33.3783115]}, "properties": {"power": "plant", "fuel": "wind", "name": "가시리(SK) 풍력", "output_mw": "", "source": "wind"}}, {"type": "Feature", "geometry": {"type": "Point", "coordinates": [126.7677541, 33.562482]}, "properties": {"power": "plant", "fuel": "wind", "name": "김녕(실증) 풍력", "output_mw": "", "source": "wind"}}, {"type": "Feature", "geometry": {"type": "Point", "coordinates": [127.1068533, 33.7606331]}, "properties": {"power": "plant", "fuel": "wind", "name": "월정1(해상)", "output_mw": "", "source": "wind"}}, {"type": "Feature", "geometry": {"type": "Point", "coordinates": [127.0908113, 33.746054]}, "properties": {"power": "plant", "fuel": "wind", "name": "김녕", "output_mw": "", "source": "wind"}}, {"type": "Feature", "geometry": {"type": "Point", "coordinates": [127.1316253, 33.7300229]}, "properties": {"power": "plant", "fuel": "wind", "name": "행원마을", "output_mw": "", "source": "wind"}}, {"type": "Feature", "geometry": {"type": "Point", "coordinates": [127.1025125, 33.7605856]}, "properties": {"power": "plant", "fuel": "wind", "name": "월정2(해상)", "output_mw": "", "source": "wind"}}, {"type": "Feature", "geometry": {"type": "Point", "coordinates": [127.0996744, 33.7484742]}, "properties": {"power": "plant", "fuel": "wind", "name": "월정", "output_mw": "", "source": "wind"}}, {"type": "Feature", "geometry": {"type": "Point", "coordinates": [126.8141454, 33.5444699]}, "properties": {"power": "plant", "fuel": "wind", "name": "행원마을 풍력", "output_mw": "", "source": "wind"}}, {"type": "Feature", "geometry": {"type": "Point", "coordinates": [126.7384223, 33.3920039]}, "properties": {"power": "plant", "fuel": "wind", "name": "가시리 풍력", "output_mw": "", "source": "wind"}}, {"type": "Feature", "geometry": {"type": "Point", "coordinates": [126.7871145, 33.5750718]}, "properties": {"power": "plant", "fuel": "wind", "name": "월정 해상풍력", "output_mw": "", "source": "wind"}}, {"type": "Feature", "geometry": {"type": "Point", "coordinates": [126.2146911, 33.3818927]}, "properties": {"power": "plant", "fuel": "wind", "name": "월령 풍력", "output_mw": "", "source": "wind"}}, {"type": "Feature", "geometry": {"type": "Point", "coordinates": [126.7733529, 33.5605378]}, "properties": {"power": "plant", "fuel": "wind", "name": "김녕 풍력", "output_mw": "", "source": "wind"}}, {"type": "Feature", "geometry": {"type": "Point", "coordinates": [126.8235284, 33.3966224]}, "properties": {"power": "plant", "fuel": "wind", "name": "삼달 풍력", "output_mw": "", "source": "wind"}}, {"type": "Feature", "geometry": {"type": "Point", "coordinates": [126.8332772, 33.4432517]}, "properties": {"power": "plant", "fuel": "wind", "name": "성산 풍력", "output_mw": "", "source": "wind"}}, {"type": "Feature", "geometry": {"type": "Point", "coordinates": [126.1680209, 33.3401906]}, "properties": {"power": "plant", "fuel": "wind", "name": "한경 풍력", "output_mw": "", "source": "wind"}}, {"type": "Feature", "geometry": {"type": "Point", "coordinates": [126.782216, 33.5629587]}, "properties": {"power": "plant", "fuel": "wind", "name": "월정육상 풍력", "output_mw": "", "source": "wind"}}, {"type": "Feature", "geometry": {"type": "Point", "coordinates": [126.1742169, 33.341371]}, "properties": {"power": "plant", "fuel": "wind", "name": "신창 풍력", "output_mw": "", "source": "wind"}}, {"type": "Feature", "geometry": {"type": "Point", "coordinates": [126.6668682, 33.367552]}, "properties": {"power": "plant", "fuel": "wind", "name": "수망 풍력", "output_mw": "", "source": "wind"}}, {"type": "Feature", "geometry": {"type": "Point", "coordinates": [126.7241594, 33.5325324]}, "properties": {"power": "plant", "fuel": "wind", "name": "동복리마을 풍력", "output_mw": "", "source": "wind"}}, {"type": "Feature", "geometry": {"type": "Point", "coordinates": [126.1782606, 33.3606198]}, "properties": {"power": "plant", "fuel": "wind", "name": "탐라 해상풍력", "output_mw": "", "source": "wind"}}, {"type": "Feature", "geometry": {"type": "Point", "coordinates": [126.2908798, 33.3402139]}, "properties": {"power": "plant", "fuel": "wind", "name": "제주상명 풍력", "output_mw": "", "source": "wind"}}, {"type": "Feature", "geometry": {"type": "Point", "coordinates": [126.7537787, 33.5254392]}, "properties": {"power": "plant", "fuel": "wind", "name": "제주김녕 풍력", "output_mw": "", "source": "wind"}}, {"type": "Feature", "geometry": {"type": "Point", "coordinates": [126.7147786, 33.533515]}, "properties": {"power": "plant", "fuel": "wind", "name": "동복북촌 풍력", "output_mw": "", "source": "wind"}}, {"type": "Feature", "geometry": {"type": "Point", "coordinates": [126.77733, 33.5629383]}, "properties": {"power": "plant", "fuel": "wind", "name": "월정 풍력", "output_mw": "", "source": "wind"}}, {"type": "Feature", "geometry": {"type": "Point", "coordinates": [126.3175048, 35.481649]}, "properties": {"power": "plant", "fuel": "wind", "name": "서남해 해상풍력", "output_mw": "", "source": "wind"}}, {"type": "Feature", "geometry": {"type": "Point", "coordinates": [126.5981664, 35.7125038]}, "properties": {"power": "plant", "fuel": "wind", "name": "부안 풍력", "output_mw": "", "source": "wind"}}, {"type": "Feature", "geometry": {"type": "Point", "coordinates": [126.5289724, 35.9518755]}, "properties": {"power": "plant", "fuel": "wind", "name": "군산산단 풍력", "output_mw": "", "source": "wind"}}, {"type": "Feature", "geometry": {"type": "Point", "coordinates": [126.5305579, 35.7291164]}, "properties": {"power": "plant", "fuel": "wind", "name": "새만금가력도 풍력", "output_mw": "", "source": "wind"}}, {"type": "Feature", "geometry": {"type": "Point", "coordinates": [126.5739208, 35.9728683]}, "properties": {"power": "plant", "fuel": "wind", "name": "새만금 풍력", "output_mw": "", "source": "wind"}}, {"type": "Feature", "geometry": {"type": "Point", "coordinates": [126.5227959, 35.960251]}, "properties": {"power": "plant", "fuel": "wind", "name": "전북 풍력", "output_mw": "", "source": "wind"}}, {"type": "Feature", "geometry": {"type": "Point", "coordinates": [129.2140791, 36.6131099]}, "properties": {"power": "plant", "fuel": "wind", "name": "영양(GS) 풍력", "output_mw": "", "source": "wind"}}, {"type": "Feature", "geometry": {"type": "Point", "coordinates": [129.5098927, 35.8366211]}, "properties": {"power": "plant", "fuel": "wind", "name": "감포댐 풍력", "output_mw": "", "source": "wind"}}, {"type": "Feature", "geometry": {"type": "Point", "coordinates": [129.3642674, 35.7522532]}, "properties": {"power": "plant", "fuel": "wind", "name": "경주 풍력", "output_mw": "", "source": "wind"}}, {"type": "Feature", "geometry": {"type": "Point", "coordinates": [129.5170185, 35.8516529]}, "properties": {"power": "plant", "fuel": "wind", "name": "경포 풍력", "output_mw": "", "source": "wind"}}, {"type": "Feature", "geometry": {"type": "Point", "coordinates": [129.2357827, 36.5646117]}, "properties": {"power": "plant", "fuel": "wind", "name": "영양(맥쿼리) 풍력", "output_mw": "", "source": "wind"}}, {"type": "Feature", "geometry": {"type": "Point", "coordinates": [129.4214204, 36.4216349]}, "properties": {"power": "plant", "fuel": "wind", "name": "영덕 풍력", "output_mw": "", "source": "wind"}}, {"type": "Feature", "geometry": {"type": "Point", "coordinates": [129.2773461, 36.0926949]}, "properties": {"power": "plant", "fuel": "wind", "name": "도음산(포항신광) 풍력", "output_mw": "", "source": "wind"}}, {"type": "Feature", "geometry": {"type": "Point", "coordinates": [129.2279405, 36.6134346]}, "properties": {"power": "plant", "fuel": "wind", "name": "영양무창 풍력", "output_mw": "", "source": "wind"}}, {"type": "Feature", "geometry": {"type": "Point", "coordinates": [129.3708087, 35.7128964]}, "properties": {"power": "plant", "fuel": "wind", "name": "경주2 풍력", "output_mw": "", "source": "wind"}}, {"type": "Feature", "geometry": {"type": "Point", "coordinates": [129.3127616, 35.9626369]}, "properties": {"power": "plant", "fuel": "wind", "name": "경주강동", "output_mw": "", "source": "wind"}}, {"type": "Feature", "geometry": {"type": "Point", "coordinates": [129.2791438, 35.9366427]}, "properties": {"power": "plant", "fuel": "wind", "name": "천북 풍력", "output_mw": "", "source": "wind"}}, {"type": "Feature", "geometry": {"type": "Point", "coordinates": [129.3800068, 36.8655337]}, "properties": {"power": "plant", "fuel": "wind", "name": "울진현종산 풍력", "output_mw": "", "source": "wind"}}, {"type": "Feature", "geometry": {"type": "Point", "coordinates": [127.2307143, 34.7582047]}, "properties": {"power": "plant", "fuel": "hydro", "name": "보성 소수력", "output_mw": "1.1 MW", "source": "hydro"}}, {"type": "Feature", "geometry": {"type": "Point", "coordinates": [126.8362257, 34.3547475]}, "properties": {"power": "plant", "fuel": "hydro", "name": "별빛 소수력", "output_mw": "0.859 MW", "source": "hydro"}}, {"type": "Feature", "geometry": {"type": "Point", "coordinates": [126.336816, 36.9871535]}, "properties": {"power": "plant", "fuel": "gas", "name": "대산그린 연료전지", "output_mw": "50.16 MW", "source": "gas"}}]}