{
"type": "FeatureCollection",
"name": "candidates_p3",
"crs": { "type": "name", "properties": { "name": "urn:ogc:def:crs:OGC:1.3:CRS84" } },
"features": [
{ "type": "Feature", "properties": { "idx": 19, "lat": 37.215144829595232, "lon": 127.37617633511314, "priority": 3, "score": 54.0, "s1": 5.3, "s2": 14.4, "s3": 10.1, "s4": 5.3, "s5": 8.0, "s6": null, "dp": 4.0, "dr": 2.0, "du": 0.1, "dem": 1.23 }, "geometry": { "type": "Point", "coordinates": [ 127.376176335113144, 37.215144829595232 ] } },
{ "type": "Feature", "properties": { "idx": 20, "lat": 37.39542369220392, "lon": 127.37588038441424, "priority": 3, "score": 50.1, "s1": 4.7, "s2": 14.8, "s3": 6.8, "s4": 8.7, "s5": 5.0, "s6": null, "dp": 0.3, "dr": 0.2, "du": 0.9, "dem": 0.37 }, "geometry": { "type": "Point", "coordinates": [ 127.375880384414245, 37.39542369220392 ] } },
{ "type": "Feature", "properties": { "idx": 21, "lat": 37.846096714210837, "lon": 127.37512886986579, "priority": 3, "score": 50.0, "s1": 2.9, "s2": 13.4, "s3": 9.0, "s4": 8.7, "s5": 6.0, "s6": null, "dp": 0.2, "dr": 5.9, "du": 0.9, "dem": 3.19 }, "geometry": { "type": "Point", "coordinates": [ 127.37512886986579, 37.846096714210837 ] } },
{ "type": "Feature", "properties": { "idx": 22, "lat": 37.936227172289314, "lon": 127.37497654666701, "priority": 3, "score": 52.7, "s1": 2.2, "s2": 13.3, "s3": 10.6, "s4": 10.1, "s5": 6.0, "s6": null, "dp": 1.3, "dr": 13.2, "du": 2.8, "dem": 3.43 }, "geometry": { "type": "Point", "coordinates": [ 127.374976546667014, 37.936227172289314 ] } },
{ "type": "Feature", "properties": { "idx": 24, "lat": 38.206610234359779, "lon": 127.37451547857914, "priority": 3, "score": 53.3, "s1": 2.7, "s2": 13.8, "s3": 10.6, "s4": 9.5, "s5": 6.0, "s6": null, "dp": 1.6, "dr": 10.9, "du": 1.8, "dem": 2.35 }, "geometry": { "type": "Point", "coordinates": [ 127.374515478579141, 38.206610234359779 ] } },
{ "type": "Feature", "properties": { "idx": 25, "lat": 35.321946394968315, "lon": 127.48914956834368, "priority": 3, "score": 52.3, "s1": 2.0, "s2": 12.4, "s3": 10.8, "s4": 8.6, "s5": 8.0, "s6": null, "dp": 2.6, "dr": 9.7, "du": 0.9, "dem": 5.29 }, "geometry": { "type": "Point", "coordinates": [ 127.489149568343677, 35.321946394968315 ] } },
{ "type": "Feature", "properties": { "idx": 29, "lat": 37.936293054120441, "lon": 127.48877671654076, "priority": 3, "score": 51.4, "s1": 1.7, "s2": 12.9, "s3": 11.1, "s4": 9.3, "s5": 6.0, "s6": null, "dp": 4.9, "dr": 8.3, "du": 1.5, "dem": 4.11 }, "geometry": { "type": "Point", "coordinates": [ 127.488776716540755, 37.936293054120441 ] } },
{ "type": "Feature", "properties": { "idx": 30, "lat": 38.026422340189022, "lon": 127.48876298140665, "priority": 3, "score": 51.6, "s1": 1.7, "s2": 13.1, "s3": 12.1, "s4": 8.4, "s5": 6.0, "s6": null, "dp": 9.9, "dr": 17.8, "du": 0.7, "dem": 3.87 }, "geometry": { "type": "Point", "coordinates": [ 127.488762981406651, 38.026422340189022 ] } },
{ "type": "Feature", "properties": { "idx": 31, "lat": 38.116550241053915, "lon": 127.48874918485534, "priority": 3, "score": 50.7, "s1": 1.7, "s2": 12.9, "s3": 11.9, "s4": 8.1, "s5": 6.0, "s6": null, "dp": 5.3, "dr": 25.0, "du": 0.6, "dem": 4.27 }, "geometry": { "type": "Point", "coordinates": [ 127.488749184855337, 38.116550241053915 ] } },
{ "type": "Feature", "properties": { "idx": 32, "lat": 35.231736060232961, "lon": 127.59905936332781, "priority": 3, "score": 53.6, "s1": 2.4, "s2": 11.8, "s3": 11.2, "s4": 9.5, "s5": 8.0, "s6": null, "dp": 4.4, "dr": 10.2, "du": 1.7, "dem": 6.39 }, "geometry": { "type": "Point", "coordinates": [ 127.599059363327811, 35.231736060232961 ] } },
{ "type": "Feature", "properties": { "idx": 34, "lat": 35.412075020822797, "lon": 127.59927956013897, "priority": 3, "score": 53.6, "s1": 2.0, "s2": 13.0, "s3": 11.1, "s4": 8.7, "s5": 8.0, "s6": null, "dp": 2.4, "dr": 16.1, "du": 0.9, "dem": 3.92 }, "geometry": { "type": "Point", "coordinates": [ 127.599279560138967, 35.412075020822797 ] } },
{ "type": "Feature", "properties": { "idx": 42, "lat": 37.936248880226529, "lon": 127.6025769475394, "priority": 3, "score": 53.3, "s1": 2.0, "s2": 14.0, "s3": 10.4, "s4": 10.2, "s5": 6.0, "s6": null, "dp": 2.0, "dr": 6.7, "du": 3.0, "dem": 2.08 }, "geometry": { "type": "Point", "coordinates": [ 127.602576947539404, 37.936248880226529 ] } },
{ "type": "Feature", "properties": { "idx": 43, "lat": 38.026378023716838, "lon": 127.60270248167186, "priority": 3, "score": 50.5, "s1": 1.6, "s2": 12.0, "s3": 11.3, "s4": 9.5, "s5": 6.0, "s6": null, "dp": 4.1, "dr": 13.3, "du": 1.8, "dem": 6.07 }, "geometry": { "type": "Point", "coordinates": [ 127.602702481671855, 38.026378023716838 ] } },
{ "type": "Feature", "properties": { "idx": 44, "lat": 38.11650578165878, "lon": 127.60282857713405, "priority": 3, "score": 47.8, "s1": 1.9, "s2": 12.9, "s3": 11.2, "s4": 6.3, "s5": 6.0, "s6": null, "dp": 2.1, "dr": 22.3, "du": 0.1, "dem": 4.2 }, "geometry": { "type": "Point", "coordinates": [ 127.602828577134048, 38.11650578165878 ] } },
{ "type": "Feature", "properties": { "idx": 45, "lat": 38.296757136715399, "lon": 127.60308246281711, "priority": 3, "score": 53.1, "s1": 2.6, "s2": 14.7, "s3": 12.2, "s4": 6.9, "s5": 6.0, "s6": null, "dp": 9.4, "dr": 24.4, "du": 0.2, "dem": 0.65 }, "geometry": { "type": "Point", "coordinates": [ 127.603082462817113, 38.296757136715399 ] } },
{ "type": "Feature", "properties": { "idx": 51, "lat": 36.764296568339681, "lon": 127.71303945276277, "priority": 3, "score": 53.4, "s1": 2.4, "s2": 14.7, "s3": 10.5, "s4": 7.1, "s5": 8.0, "s6": null, "dp": 3.3, "dr": 4.3, "du": 0.3, "dem": 0.53 }, "geometry": { "type": "Point", "coordinates": [ 127.713039452762771, 36.764296568339681 ] } },
{ "type": "Feature", "properties": { "idx": 54, "lat": 38.026223297038484, "lon": 127.71664142061046, "priority": 3, "score": 49.1, "s1": 2.0, "s2": 13.1, "s3": 8.2, "s4": 9.9, "s5": 6.0, "s6": null, "dp": 0.0, "dr": 10.1, "du": 2.5, "dem": 3.76 }, "geometry": { "type": "Point", "coordinates": [ 127.716641420610458, 38.026223297038484 ] } },
{ "type": "Feature", "properties": { "idx": 55, "lat": 38.20647642711419, "lon": 127.71717457991332, "priority": 3, "score": 51.7, "s1": 2.4, "s2": 13.2, "s3": 12.1, "s4": 7.6, "s5": 6.0, "s6": null, "dp": 6.2, "dr": 30.1, "du": 0.4, "dem": 3.5 }, "geometry": { "type": "Point", "coordinates": [ 127.717174579913319, 38.20647642711419 ] } },
{ "type": "Feature", "properties": { "idx": 56, "lat": 38.296600909398386, "lon": 127.71744294986404, "priority": 3, "score": 53.6, "s1": 2.7, "s2": 12.9, "s3": 12.8, "s4": 8.6, "s5": 6.0, "s6": null, "dp": 15.0, "dr": 33.9, "du": 0.9, "dem": 4.29 }, "geometry": { "type": "Point", "coordinates": [ 127.717442949864036, 38.296600909398386 ] } },
{ "type": "Feature", "properties": { "idx": 58, "lat": 36.042827943447314, "lon": 127.82209249434757, "priority": 3, "score": 52.9, "s1": 2.4, "s2": 13.4, "s3": 11.2, "s4": 7.4, "s5": 8.0, "s6": null, "dp": 5.9, "dr": 7.7, "du": 0.3, "dem": 3.28 }, "geometry": { "type": "Point", "coordinates": [ 127.822092494347572, 36.042827943447314 ] } },
{ "type": "Feature", "properties": { "idx": 61, "lat": 36.854188937601563, "lon": 127.82546423398983, "priority": 3, "score": 53.6, "s1": 2.6, "s2": 14.6, "s3": 10.5, "s4": 8.1, "s5": 7.0, "s6": null, "dp": 3.5, "dr": 4.4, "du": 0.6, "dem": 0.89 }, "geometry": { "type": "Point", "coordinates": [ 127.825464233989834, 36.854188937601563 ] } },
{ "type": "Feature", "properties": { "idx": 64, "lat": 38.025958162741794, "lon": 127.83057917549839, "priority": 3, "score": 54.1, "s1": 2.6, "s2": 14.5, "s3": 11.5, "s4": 8.7, "s5": 6.0, "s6": null, "dp": 5.4, "dr": 12.9, "du": 0.9, "dem": 1.09 }, "geometry": { "type": "Point", "coordinates": [ 127.830579175498386, 38.025958162741794 ] } },
{ "type": "Feature", "properties": { "idx": 66, "lat": 35.862163175211052, "lon": 127.93212054326186, "priority": 3, "score": 54.0, "s1": 2.0, "s2": 12.6, "s3": 12.3, "s4": 9.2, "s5": 7.0, "s6": null, "dp": 10.6, "dr": 25.5, "du": 1.4, "dem": 4.73 }, "geometry": { "type": "Point", "coordinates": [ 127.93212054326186, 35.862163175211052 ] } },
{ "type": "Feature", "properties": { "idx": 72, "lat": 36.853828884728443, "lon": 127.93763740965402, "priority": 3, "score": 43.4, "s1": 2.8, "s2": 14.6, "s3": 8.4, "s4": 8.9, "s5": 0.0, "s6": null, "dp": 0.9, "dr": 0.6, "du": 1.1, "dem": 0.71 }, "geometry": { "type": "Point", "coordinates": [ 127.937637409654016, 36.853828884728443 ] } },
{ "type": "Feature", "properties": { "idx": 74, "lat": 37.84532806561792, "lon": 127.94343091330778, "priority": 3, "score": 53.9, "s1": 2.6, "s2": 14.3, "s3": 11.6, "s4": 9.6, "s5": 5.0, "s6": null, "dp": 6.5, "dr": 13.4, "du": 1.9, "dem": 1.38 }, "geometry": { "type": "Point", "coordinates": [ 127.943430913307779, 37.84532806561792 ] } },
{ "type": "Feature", "properties": { "idx": 76, "lat": 38.29595402404231, "lon": 127.94615968872569, "priority": 3, "score": 54.1, "s1": 2.9, "s2": 13.5, "s3": 12.7, "s4": 8.2, "s5": 6.0, "s6": null, "dp": 9.9, "dr": 43.9, "du": 0.6, "dem": 2.94 }, "geometry": { "type": "Point", "coordinates": [ 127.946159688725686, 38.29595402404231 ] } },
{ "type": "Feature", "properties": { "idx": 79, "lat": 35.861713766022021, "lon": 128.04287755779069, "priority": 3, "score": 54.0, "s1": 1.7, "s2": 13.5, "s3": 12.2, "s4": 8.8, "s5": 7.0, "s6": null, "dp": 8.6, "dr": 23.6, "du": 1.0, "dem": 2.93 }, "geometry": { "type": "Point", "coordinates": [ 128.042877557790689, 35.861713766022021 ] } },
{ "type": "Feature", "properties": { "idx": 85, "lat": 37.84484525415656, "lon": 128.05708657001784, "priority": 3, "score": 52.4, "s1": 2.2, "s2": 13.7, "s3": 11.1, "s4": 9.9, "s5": 5.0, "s6": null, "dp": 1.6, "dr": 23.4, "du": 2.5, "dem": 2.56 }, "geometry": { "type": "Point", "coordinates": [ 128.057086570017844, 37.84484525415656 ] } },
{ "type": "Feature", "properties": { "idx": 86, "lat": 38.205342545558928, "lon": 128.05982292263241, "priority": 3, "score": 53.2, "s1": 2.2, "s2": 13.6, "s3": 12.0, "s4": 8.8, "s5": 6.0, "s6": null, "dp": 3.8, "dr": 40.9, "du": 1.0, "dem": 2.84 }, "geometry": { "type": "Point", "coordinates": [ 128.059822922632407, 38.205342545558928 ] } },
{ "type": "Feature", "properties": { "idx": 93, "lat": 37.573870875791499, "lon": 128.1683065992008, "priority": 3, "score": 48.1, "s1": 2.6, "s2": 14.6, "s3": 4.2, "s4": 9.0, "s5": 8.0, "s6": null, "dp": 0.0, "dr": 0.8, "du": 1.2, "dem": 0.75 }, "geometry": { "type": "Point", "coordinates": [ 128.168306599200804, 37.573870875791499 ] } },
{ "type": "Feature", "properties": { "idx": 96, "lat": 38.20474237155419, "lon": 128.17403371248713, "priority": 3, "score": 53.3, "s1": 1.7, "s2": 13.0, "s3": 12.2, "s4": 9.7, "s5": 6.0, "s6": null, "dp": 5.8, "dr": 39.3, "du": 2.0, "dem": 4.02 }, "geometry": { "type": "Point", "coordinates": [ 128.17403371248713, 38.20474237155419 ] } },
{ "type": "Feature", "properties": { "idx": 99, "lat": 36.761974697040074, "lon": 128.27323394129957, "priority": 3, "score": 53.8, "s1": 3.1, "s2": 12.7, "s3": 10.3, "s4": 9.0, "s5": 8.0, "s6": null, "dp": 1.1, "dr": 9.7, "du": 1.2, "dem": 4.54 }, "geometry": { "type": "Point", "coordinates": [ 128.273233941299566, 36.761974697040074 ] } },
{ "type": "Feature", "properties": { "idx": 106, "lat": 38.2040311060383, "lon": 128.28824079270981, "priority": 3, "score": 53.4, "s1": 1.6, "s2": 14.1, "s3": 10.2, "s4": 10.8, "s5": 6.0, "s6": null, "dp": 0.2, "dr": 36.4, "du": 4.9, "dem": 1.75 }, "geometry": { "type": "Point", "coordinates": [ 128.288240792709814, 38.2040311060383 ] } },
{ "type": "Feature", "properties": { "idx": 110, "lat": 37.121731254793829, "lon": 128.38944415699547, "priority": 3, "score": 53.2, "s1": 3.0, "s2": 14.8, "s3": 9.8, "s4": 6.9, "s5": 8.0, "s6": null, "dp": 3.7, "dr": 1.3, "du": 0.2, "dem": 0.42 }, "geometry": { "type": "Point", "coordinates": [ 128.389444156995467, 37.121731254793829 ] } },
{ "type": "Feature", "properties": { "idx": 113, "lat": 37.662495334340164, "lon": 128.39585696363733, "priority": 3, "score": 49.9, "s1": 2.0, "s2": 14.0, "s3": 11.4, "s4": 7.5, "s5": 5.0, "s6": null, "dp": 9.7, "dr": 6.3, "du": 0.4, "dem": 2.05 }, "geometry": { "type": "Point", "coordinates": [ 128.395856963637328, 37.662495334340164 ] } },
{ "type": "Feature", "properties": { "idx": 114, "lat": 37.93285839612448, "lon": 128.39912821930696, "priority": 3, "score": 54.3, "s1": 2.0, "s2": 12.9, "s3": 12.0, "s4": 8.5, "s5": 8.0, "s6": null, "dp": 4.9, "dr": 29.7, "du": 0.8, "dem": 4.21 }, "geometry": { "type": "Point", "coordinates": [ 128.399128219306959, 37.93285839612448 ] } },
{ "type": "Feature", "properties": { "idx": 115, "lat": 38.022976596794948, "lon": 128.40022839787252, "priority": 3, "score": 50.2, "s1": 1.7, "s2": 12.5, "s3": 11.4, "s4": 9.5, "s5": 5.0, "s6": null, "dp": 1.5, "dr": 38.5, "du": 1.8, "dem": 4.9 }, "geometry": { "type": "Point", "coordinates": [ 128.400228397872525, 38.022976596794948 ] } },
{ "type": "Feature", "properties": { "idx": 117, "lat": 38.20320876094587, "lon": 128.40244353501592, "priority": 3, "score": 53.7, "s1": 1.7, "s2": 12.9, "s3": 11.8, "s4": 10.5, "s5": 6.0, "s6": null, "dp": 3.3, "dr": 35.1, "du": 3.9, "dem": 4.11 }, "geometry": { "type": "Point", "coordinates": [ 128.402443535015919, 38.20320876094587 ] } },
{ "type": "Feature", "properties": { "idx": 118, "lat": 38.293322722036528, "lon": 128.4035585408505, "priority": 3, "score": 54.0, "s1": 2.0, "s2": 14.2, "s3": 11.6, "s4": 9.4, "s5": 6.0, "s6": null, "dp": 3.3, "dr": 25.1, "du": 1.7, "dem": 1.69 }, "geometry": { "type": "Point", "coordinates": [ 128.403558540850497, 38.293322722036528 ] } },
{ "type": "Feature", "properties": { "idx": 120, "lat": 36.94057326840403, "lon": 128.49963214808656, "priority": 3, "score": 51.8, "s1": 2.4, "s2": 12.5, "s3": 9.8, "s4": 8.7, "s5": 8.0, "s6": null, "dp": 4.6, "dr": 1.1, "du": 0.9, "dem": 4.94 }, "geometry": { "type": "Point", "coordinates": [ 128.499632148086562, 36.94057326840403 ] } },
{ "type": "Feature", "properties": { "idx": 122, "lat": 37.301087806111951, "lon": 128.50438418075777, "priority": 3, "score": 53.9, "s1": 2.9, "s2": 13.4, "s3": 10.4, "s4": 8.5, "s5": 8.0, "s6": null, "dp": 1.6, "dr": 7.9, "du": 0.8, "dem": 3.29 }, "geometry": { "type": "Point", "coordinates": [ 128.504384180757768, 37.301087806111951 ] } },
{ "type": "Feature", "properties": { "idx": 124, "lat": 37.661579803061791, "lon": 128.50922158302495, "priority": 3, "score": 50.7, "s1": 2.0, "s2": 14.0, "s3": 10.0, "s4": 9.5, "s5": 5.0, "s6": null, "dp": 6.7, "dr": 1.0, "du": 1.8, "dem": 1.97 }, "geometry": { "type": "Point", "coordinates": [ 128.509221583024953, 37.661579803061791 ] } },
{ "type": "Feature", "properties": { "idx": 127, "lat": 38.112162972518711, "lon": 128.51539085947704, "priority": 3, "score": 51.6, "s1": 2.2, "s2": 11.1, "s3": 11.7, "s4": 8.3, "s5": 8.0, "s6": null, "dp": 2.3, "dr": 45.1, "du": 0.7, "dem": 7.85 }, "geometry": { "type": "Point", "coordinates": [ 128.515390859477037, 38.112162972518711 ] } },
{ "type": "Feature", "properties": { "idx": 132, "lat": 36.939575048824658, "lon": 128.61191472916164, "priority": 3, "score": 49.5, "s1": 2.1, "s2": 14.1, "s3": 10.5, "s4": 8.0, "s5": 5.0, "s6": null, "dp": 3.1, "dr": 4.6, "du": 0.5, "dem": 1.86 }, "geometry": { "type": "Point", "coordinates": [ 128.61191472916164, 36.939575048824658 ] } },
{ "type": "Feature", "properties": { "idx": 133, "lat": 37.029702539114282, "lon": 128.61322730998597, "priority": 3, "score": 50.8, "s1": 1.7, "s2": 13.9, "s3": 11.6, "s4": 8.4, "s5": 5.0, "s6": null, "dp": 6.1, "dr": 13.0, "du": 0.8, "dem": 2.24 }, "geometry": { "type": "Point", "coordinates": [ 128.613227309985973, 37.029702539114282 ] } },
{ "type": "Feature", "properties": { "idx": 134, "lat": 37.570437773486866, "lon": 128.62122664320111, "priority": 3, "score": 51.8, "s1": 2.3, "s2": 13.7, "s3": 10.4, "s4": 9.9, "s5": 5.0, "s6": null, "dp": 4.2, "dr": 3.2, "du": 2.5, "dem": 2.51 }, "geometry": { "type": "Point", "coordinates": [ 128.621226643201112, 37.570437773486866 ] } },
{ "type": "Feature", "properties": { "idx": 135, "lat": 37.750671501162074, "lon": 128.62394093517904, "priority": 3, "score": 54.0, "s1": 1.7, "s2": 13.3, "s3": 11.0, "s4": 9.2, "s5": 8.0, "s6": null, "dp": 7.9, "dr": 3.9, "du": 1.4, "dem": 3.3 }, "geometry": { "type": "Point", "coordinates": [ 128.623940935179036, 37.750671501162074 ] } },
{ "type": "Feature", "properties": { "idx": 136, "lat": 37.840786230673373, "lon": 128.62530717995114, "priority": 3, "score": 50.4, "s1": 1.9, "s2": 11.8, "s3": 11.6, "s4": 10.1, "s5": 5.0, "s6": null, "dp": 6.1, "dr": 13.5, "du": 2.9, "dem": 6.44 }, "geometry": { "type": "Point", "coordinates": [ 128.625307179951136, 37.840786230673373 ] } },
{ "type": "Feature", "properties": { "idx": 137, "lat": 38.02101141441441, "lon": 128.62805801138009, "priority": 3, "score": 52.4, "s1": 2.7, "s2": 14.1, "s3": 11.3, "s4": 8.8, "s5": 5.0, "s6": null, "dp": 1.7, "dr": 31.9, "du": 1.0, "dem": 1.85 }, "geometry": { "type": "Point", "coordinates": [ 128.628058011380091, 38.02101141441441 ] } },
{ "type": "Feature", "properties": { "idx": 140, "lat": 37.118717074374167, "lon": 128.72708801347594, "priority": 3, "score": 54.1, "s1": 2.1, "s2": 13.8, "s3": 10.0, "s4": 9.3, "s5": 8.0, "s6": null, "dp": 1.2, "dr": 6.0, "du": 1.6, "dem": 2.37 }, "geometry": { "type": "Point", "coordinates": [ 128.727088013475935, 37.118717074374167 ] } },
{ "type": "Feature", "properties": { "idx": 142, "lat": 37.749534473328531, "lon": 128.73743133355538, "priority": 3, "score": 52.7, "s1": 2.2, "s2": 12.4, "s3": 9.1, "s4": 10.4, "s5": 8.0, "s6": null, "dp": 3.6, "dr": 0.5, "du": 3.6, "dem": 5.11 }, "geometry": { "type": "Point", "coordinates": [ 128.737431333555378, 37.749534473328531 ] } },
{ "type": "Feature", "properties": { "idx": 143, "lat": 37.839645527430662, "lon": 128.73893545343597, "priority": 3, "score": 49.5, "s1": 2.4, "s2": 13.8, "s3": 10.1, "s4": 8.3, "s5": 5.0, "s6": null, "dp": 0.8, "dr": 9.6, "du": 0.7, "dem": 2.37 }, "geometry": { "type": "Point", "coordinates": [ 128.738935453435971, 37.839645527430662 ] } },
{ "type": "Feature", "properties": { "idx": 147, "lat": 37.117498739465205, "lon": 128.83962381235074, "priority": 3, "score": 53.3, "s1": 2.1, "s2": 14.0, "s3": 9.8, "s4": 8.8, "s5": 8.0, "s6": null, "dp": 1.4, "dr": 3.6, "du": 1.0, "dem": 2.03 }, "geometry": { "type": "Point", "coordinates": [ 128.839623812350737, 37.117498739465205 ] } },
{ "type": "Feature", "properties": { "idx": 153, "lat": 37.566723075199732, "lon": 128.96085561150878, "priority": 3, "score": 50.8, "s1": 3.2, "s2": 12.5, "s3": 8.3, "s4": 8.5, "s5": 8.0, "s6": null, "dp": 0.9, "dr": 0.6, "du": 0.8, "dem": 4.96 }, "geometry": { "type": "Point", "coordinates": [ 128.960855611508777, 37.566723075199732 ] } }
]
}
