{
"type": "FeatureCollection",
"name": "candidates_p1",
"crs": { "type": "name", "properties": { "name": "urn:ogc:def:crs:OGC:1.3:CRS84" } },
"features": [
{ "type": "Feature", "properties": { "idx": 1, "lat": 34.772488792752803, "lon": 126.06856389245839, "priority": 1, "score": 67.0, "s1": 14.3, "s2": 15.0, "s3": 11.7, "s4": 9.2, "s5": 3.4, "s6": 3.3, "dp": 4.3, "dr": 24.3, "du": 1.4, "dem": 0.0, "grad": 39.5, "var": 452.6, "sig": 134.0, "sigo": 1, "lreq": 34.8, "lnow": 84.5, "dfc": 2.43 }, "geometry": { "type": "Point", "coordinates": [ 126.068563892458386, 34.772488792752803 ] } },
{ "type": "Feature", "properties": { "idx": 2, "lat": 33.241986752707795, "lon": 126.30868378967227, "priority": 1, "score": 77.2, "s1": 25.0, "s2": 14.4, "s3": 11.4, "s4": 8.2, "s5": 2.9, "s6": 3.7, "dp": 1.2, "dr": 50.0, "du": 0.6, "dem": 1.13, "grad": 45.3, "var": 375.4, "sig": 223.0, "sigo": 1, "lreq": 26.9, "lnow": 131.7, "dfc": 4.9 }, "geometry": { "type": "Point", "coordinates": [ 126.308683789672273, 33.241986752707795 ] } },
{ "type": "Feature", "properties": { "idx": 3, "lat": 36.667862413227262, "lon": 126.25803765158393, "priority": 1, "score": 64.9, "s1": 9.6, "s2": 15.0, "s3": 11.8, "s4": 9.7, "s5": 5.0, "s6": 4.1, "dp": 3.6, "dr": 31.6, "du": 2.1, "dem": 0.03, "grad": 26.0, "var": 173.6, "sig": 71.0, "sigo": 1, "lreq": 47.6, "lnow": 139.3, "dfc": 2.93 }, "geometry": { "type": "Point", "coordinates": [ 126.258037651583933, 36.667862413227262 ] } },
{ "type": "Feature", "properties": { "idx": 4, "lat": 34.326006062528954, "lon": 126.51096799124811, "priority": 1, "score": 67.5, "s1": 12.2, "s2": 14.8, "s3": 11.8, "s4": 8.8, "s5": 6.8, "s6": 2.9, "dp": 3.5, "dr": 30.5, "du": 1.1, "dem": 0.33, "grad": 17.1, "var": 125.5, "sig": 154.0, "sigo": 1, "lreq": 32.3, "lnow": 58.5, "dfc": 1.81 }, "geometry": { "type": "Point", "coordinates": [ 126.510967991248108, 34.326006062528954 ] } },
{ "type": "Feature", "properties": { "idx": 7, "lat": 36.401948218746263, "lon": 126.81987144358216, "priority": 1, "score": 61.9, "s1": 5.0, "s2": 14.7, "s3": 11.1, "s4": 8.0, "s5": 10.0, "s6": 3.9, "dp": 2.6, "dr": 14.4, "du": 0.5, "dem": 0.69, "grad": 3.7, "var": 15.1, "sig": 49.0, "sigo": 1, "lreq": 57.3, "lnow": 38.2, "dfc": 0.67 }, "geometry": { "type": "Point", "coordinates": [ 126.819871443582159, 36.401948218746263 ] } },
{ "type": "Feature", "properties": { "idx": 8, "lat": 35.500973625903249, "lon": 126.93781199626503, "priority": 1, "score": 58.8, "s1": 7.0, "s2": 14.3, "s3": 11.0, "s4": 8.2, "s5": 6.4, "s6": 3.0, "dp": 4.9, "dr": 6.2, "du": 0.7, "dem": 1.32, "grad": 18.9, "var": 364.5, "sig": 195.0, "sigo": 1, "lreq": 28.8, "lnow": 38.5, "dfc": 1.34 }, "geometry": { "type": "Point", "coordinates": [ 126.937811996265026, 35.500973625903249 ] } },
{ "type": "Feature", "properties": { "idx": 9, "lat": 36.582826307593599, "lon": 126.93006818765602, "priority": 1, "score": 63.1, "s1": 5.8, "s2": 14.7, "s3": 10.8, "s4": 8.7, "s5": 9.7, "s6": 4.0, "dp": 2.7, "dr": 9.2, "du": 0.9, "dem": 0.69, "grad": 7.1, "var": 91.8, "sig": 50.0, "sigo": 1, "lreq": 57.1, "lnow": 40.8, "dfc": 0.71 }, "geometry": { "type": "Point", "coordinates": [ 126.930068187656019, 36.582826307593599 ] } },
{ "type": "Feature", "properties": { "idx": 12, "lat": 34.599728268266588, "lon": 127.05301139272342, "priority": 1, "score": 63.7, "s1": 8.3, "s2": 14.8, "s3": 11.9, "s4": 10.5, "s5": 4.8, "s6": 3.9, "dp": 14.1, "dr": 9.2, "du": 3.8, "dem": 0.33, "grad": 27.6, "var": 172.0, "sig": 127.0, "sigo": 1, "lreq": 35.7, "lnow": 23.2, "dfc": 0.65 }, "geometry": { "type": "Point", "coordinates": [ 127.05301139272342, 34.599728268266588 ] } },
{ "type": "Feature", "properties": { "idx": 13, "lat": 36.583308340886212, "lon": 127.0418460828428, "priority": 1, "score": 62.4, "s1": 5.6, "s2": 14.2, "s3": 11.1, "s4": 8.7, "s5": 10.0, "s6": 3.3, "dp": 4.3, "dr": 9.4, "du": 0.9, "dem": 1.53, "grad": 2.9, "var": 41.6, "sig": 49.0, "sigo": 1, "lreq": 57.7, "lnow": 36.0, "dfc": 0.62 }, "geometry": { "type": "Point", "coordinates": [ 127.041846082842795, 36.583308340886212 ] } },
{ "type": "Feature", "properties": { "idx": 14, "lat": 38.205743947085352, "lon": 127.03186259369727, "priority": 1, "score": 58.0, "s1": 5.2, "s2": 14.9, "s3": 10.8, "s4": 8.4, "s5": 6.0, "s6": 4.0, "dp": 11.4, "dr": 2.0, "du": 0.8, "dem": 0.28, "grad": null, "var": null, "sig": 88.0, "sigo": 0, "lreq": 42.8, "lnow": 51.9, "dfc": 1.21 }, "geometry": { "type": "Point", "coordinates": [ 127.031862593697269, 38.205743947085352 ] } },
{ "type": "Feature", "properties": { "idx": 15, "lat": 34.690257138794877, "lon": 127.16170162775033, "priority": 1, "score": 58.7, "s1": 7.6, "s2": 14.7, "s3": 10.9, "s4": 9.2, "s5": 4.2, "s6": 3.4, "dp": 9.3, "dr": 2.9, "du": 1.4, "dem": 0.56, "grad": 31.7, "var": 168.6, "sig": 121.0, "sigo": 1, "lreq": 36.5, "lnow": 27.2, "dfc": 0.74 }, "geometry": { "type": "Point", "coordinates": [ 127.161701627750332, 34.690257138794877 ] } },
{ "type": "Feature", "properties": { "idx": 20, "lat": 37.39542369220392, "lon": 127.37588038441424, "priority": 1, "score": 58.0, "s1": 4.7, "s2": 14.8, "s3": 6.8, "s4": 8.7, "s5": 10.0, "s6": 4.2, "dp": 0.3, "dr": 0.2, "du": 0.9, "dem": 0.37, "grad": 4.0, "var": 22.5, "sig": 26.0, "sigo": 1, "lreq": 78.4, "lnow": 35.1, "dfc": 0.45 }, "geometry": { "type": "Point", "coordinates": [ 127.375880384414245, 37.39542369220392 ] } },
{ "type": "Feature", "properties": { "idx": 35, "lat": 35.592408584733853, "lon": 127.59950172157968, "priority": 1, "score": 60.4, "s1": 2.8, "s2": 14.2, "s3": 11.7, "s4": 8.8, "s5": 9.7, "s6": 4.1, "dp": 7.3, "dr": 13.2, "du": 1.1, "dem": 1.63, "grad": 7.1, "var": 91.0, "sig": 76.0, "sigo": 1, "lreq": 46.0, "lnow": 13.4, "dfc": 0.29 }, "geometry": { "type": "Point", "coordinates": [ 127.599501721579685, 35.592408584733853 ] } },
{ "type": "Feature", "properties": { "idx": 41, "lat": 37.215165982988921, "lon": 127.60159256613683, "priority": 1, "score": 59.3, "s1": 4.5, "s2": 14.4, "s3": 9.3, "s4": 8.3, "s5": 10.0, "s6": 3.8, "dp": 2.5, "dr": 0.9, "du": 0.7, "dem": 1.1, "grad": 3.7, "var": 39.6, "sig": 38.0, "sigo": 1, "lreq": 65.1, "lnow": 54.3, "dfc": 0.83 }, "geometry": { "type": "Point", "coordinates": [ 127.60159256613683, 37.215165982988921 ] } },
{ "type": "Feature", "properties": { "idx": 46, "lat": 35.321765927731413, "lon": 127.70918837716678, "priority": 1, "score": 59.5, "s1": 2.4, "s2": 13.2, "s3": 11.9, "s4": 10.0, "s5": 9.3, "s6": 3.9, "dp": 6.0, "dr": 20.5, "du": 2.7, "dem": 3.68, "grad": 8.7, "var": 85.8, "sig": 126.0, "sigo": 1, "lreq": 35.8, "lnow": 55.4, "dfc": 1.55 }, "geometry": { "type": "Point", "coordinates": [ 127.709188377166782, 35.321765927731413 ] } },
{ "type": "Feature", "properties": { "idx": 48, "lat": 35.772594114946344, "lon": 127.71036256692372, "priority": 1, "score": 59.1, "s1": 2.8, "s2": 12.2, "s3": 12.4, "s4": 8.9, "s5": 9.6, "s6": 4.3, "dp": 13.8, "dr": 21.1, "du": 1.1, "dem": 5.5, "grad": 7.4, "var": 51.9, "sig": 97.0, "sigo": 1, "lreq": 40.8, "lnow": 58.6, "dfc": 1.44 }, "geometry": { "type": "Point", "coordinates": [ 127.71036256692372, 35.772594114946344 ] } },
{ "type": "Feature", "properties": { "idx": 50, "lat": 36.674148626671567, "lon": 127.71279065575112, "priority": 1, "score": 57.8, "s1": 1.7, "s2": 14.5, "s3": 11.7, "s4": 7.9, "s5": 9.0, "s6": 4.2, "dp": 8.9, "dr": 10.1, "du": 0.5, "dem": 0.97, "grad": 9.4, "var": 78.8, "sig": 140.0, "sigo": 1, "lreq": 34.0, "lnow": 21.0, "dfc": 0.62 }, "geometry": { "type": "Point", "coordinates": [ 127.712790655751121, 36.674148626671567 ] } },
{ "type": "Feature", "properties": { "idx": 52, "lat": 37.665700404520344, "lon": 127.71558926595122, "priority": 1, "score": 59.8, "s1": 2.7, "s2": 14.6, "s3": 11.5, "s4": 8.3, "s5": 9.9, "s6": 3.9, "dp": 6.6, "dr": 11.0, "du": 0.7, "dem": 0.88, "grad": 6.3, "var": 56.3, "sig": 50.0, "sigo": 1, "lreq": 56.9, "lnow": 59.6, "dfc": 1.05 }, "geometry": { "type": "Point", "coordinates": [ 127.715589265951223, 37.665700404520344 ] } },
{ "type": "Feature", "properties": { "idx": 53, "lat": 37.755833203995806, "lon": 127.71585054811798, "priority": 1, "score": 57.9, "s1": 2.7, "s2": 14.7, "s3": 8.6, "s4": 9.8, "s5": 9.6, "s6": 3.8, "dp": 0.5, "dr": 1.5, "du": 2.3, "dem": 0.67, "grad": 7.4, "var": 73.2, "sig": 53.0, "sigo": 1, "lreq": 55.3, "lnow": 69.8, "dfc": 1.26 }, "geometry": { "type": "Point", "coordinates": [ 127.715850548117984, 37.755833203995806 ] } },
{ "type": "Feature", "properties": { "idx": 59, "lat": 36.583747589886855, "lon": 127.82432530103883, "priority": 1, "score": 58.7, "s1": 1.9, "s2": 14.3, "s3": 12.6, "s4": 8.4, "s5": 8.9, "s6": 3.9, "dp": 17.6, "dr": 22.5, "du": 0.7, "dem": 1.47, "grad": 9.9, "var": 50.3, "sig": 104.0, "sigo": 1, "lreq": 39.4, "lnow": 47.1, "dfc": 1.2 }, "geometry": { "type": "Point", "coordinates": [ 127.824325301038826, 36.583747589886855 ] } },
{ "type": "Feature", "properties": { "idx": 60, "lat": 36.673896077378146, "lon": 127.82470325861303, "priority": 1, "score": 59.5, "s1": 1.7, "s2": 14.4, "s3": 12.3, "s4": 8.3, "s5": 9.6, "s6": 4.2, "dp": 16.2, "dr": 16.1, "du": 0.7, "dem": 1.25, "grad": 7.3, "var": 63.7, "sig": 141.0, "sigo": 1, "lreq": 33.8, "lnow": 38.6, "dfc": 1.14 }, "geometry": { "type": "Point", "coordinates": [ 127.824703258613027, 36.673896077378146 ] } },
{ "type": "Feature", "properties": { "idx": 62, "lat": 37.214758163876731, "lon": 127.82700664523, "priority": 1, "score": 62.1, "s1": 4.1, "s2": 14.5, "s3": 10.8, "s4": 9.2, "s5": 10.0, "s6": 4.2, "dp": 2.7, "dr": 8.2, "du": 1.5, "dem": 0.95, "grad": 1.7, "var": 29.4, "sig": 86.0, "sigo": 1, "lreq": 43.3, "lnow": 65.8, "dfc": 1.52 }, "geometry": { "type": "Point", "coordinates": [ 127.82700664523, 37.214758163876731 ] } },
{ "type": "Feature", "properties": { "idx": 65, "lat": 34.870332721235798, "lon": 127.92686677879259, "priority": 1, "score": 62.9, "s1": 6.7, "s2": 14.7, "s3": 11.0, "s4": 9.9, "s5": 6.7, "s6": 4.5, "dp": 2.6, "dr": 11.8, "du": 2.5, "dem": 0.58, "grad": 17.6, "var": 136.0, "sig": 149.0, "sigo": 1, "lreq": 32.9, "lnow": 19.3, "dfc": 0.59 }, "geometry": { "type": "Point", "coordinates": [ 127.926866778792586, 34.870332721235798 ] } },
{ "type": "Feature", "properties": { "idx": 68, "lat": 36.042478340094675, "lon": 127.93310365756862, "priority": 1, "score": 57.8, "s1": 2.3, "s2": 13.8, "s3": 10.2, "s4": 9.2, "s5": 9.3, "s6": 4.4, "dp": 1.5, "dr": 6.2, "du": 1.4, "dem": 2.33, "grad": 8.7, "var": 48.2, "sig": 105.0, "sigo": 1, "lreq": 39.2, "lnow": 39.3, "dfc": 1.0 }, "geometry": { "type": "Point", "coordinates": [ 127.933103657568623, 36.042478340094675 ] } },
{ "type": "Feature", "properties": { "idx": 69, "lat": 36.312940850556835, "lon": 127.93459480459907, "priority": 1, "score": 61.5, "s1": 3.7, "s2": 15.0, "s3": 11.0, "s4": 9.0, "s5": 9.7, "s6": 4.0, "dp": 6.7, "dr": 5.0, "du": 1.2, "dem": 0.05, "grad": 7.2, "var": 132.2, "sig": 93.0, "sigo": 1, "lreq": 41.8, "lnow": 39.7, "dfc": 0.95 }, "geometry": { "type": "Point", "coordinates": [ 127.934594804599072, 36.312940850556835 ] } },
{ "type": "Feature", "properties": { "idx": 71, "lat": 36.673538365212899, "lon": 127.93661417733213, "priority": 1, "score": 61.3, "s1": 2.3, "s2": 14.7, "s3": 12.0, "s4": 9.1, "s5": 10.0, "s6": 4.0, "dp": 17.8, "dr": 8.4, "du": 1.3, "dem": 0.57, "grad": 4.3, "var": 33.5, "sig": 142.0, "sigo": 1, "lreq": 33.7, "lnow": 56.3, "dfc": 1.67 }, "geometry": { "type": "Point", "coordinates": [ 127.936614177332132, 36.673538365212899 ] } },
{ "type": "Feature", "properties": { "idx": 74, "lat": 37.84532806561792, "lon": 127.94343091330778, "priority": 1, "score": 60.2, "s1": 2.6, "s2": 14.3, "s3": 11.6, "s4": 9.6, "s5": 9.1, "s6": 4.0, "dp": 6.5, "dr": 13.4, "du": 1.9, "dem": 1.38, "grad": 9.3, "var": 22.9, "sig": 43.0, "sigo": 1, "lreq": 61.1, "lnow": 79.2, "dfc": 1.3 }, "geometry": { "type": "Point", "coordinates": [ 127.943430913307779, 37.84532806561792 ] } },
{ "type": "Feature", "properties": { "idx": 77, "lat": 34.689551928085777, "lon": 128.03511156283167, "priority": 1, "score": 58.7, "s1": 7.4, "s2": 14.8, "s3": 12.7, "s4": 10.0, "s5": 0.4, "s6": 4.6, "dp": 21.2, "dr": 22.2, "du": 2.5, "dem": 0.36, "grad": 180.6, "var": 654.8, "sig": 188.0, "sigo": 1, "lreq": 29.3, "lnow": 35.8, "dfc": 1.22 }, "geometry": { "type": "Point", "coordinates": [ 128.035111562831673, 34.689551928085777 ] } },
{ "type": "Feature", "properties": { "idx": 80, "lat": 36.312483997434498, "lon": 128.04598592943108, "priority": 1, "score": 58.0, "s1": 3.9, "s2": 13.8, "s3": 9.3, "s4": 8.9, "s5": 10.0, "s6": 3.5, "dp": 5.6, "dr": 0.4, "du": 1.1, "dem": 2.5, "grad": 2.9, "var": 62.6, "sig": 89.0, "sigo": 1, "lreq": 42.7, "lnow": 23.3, "dfc": 0.55 }, "geometry": { "type": "Point", "coordinates": [ 128.045985929431083, 36.312483997434498 ] } },
{ "type": "Feature", "properties": { "idx": 81, "lat": 36.58292968401858, "lon": 128.04788437121383, "priority": 1, "score": 59.4, "s1": 2.9, "s2": 14.8, "s3": 11.3, "s4": 8.2, "s5": 10.0, "s6": 3.2, "dp": 9.2, "dr": 5.4, "du": 0.6, "dem": 0.37, "grad": 2.9, "var": 69.6, "sig": 102.0, "sigo": 1, "lreq": 39.8, "lnow": 57.6, "dfc": 1.45 }, "geometry": { "type": "Point", "coordinates": [ 128.047884371213826, 36.58292968401858 ] } },
{ "type": "Feature", "properties": { "idx": 82, "lat": 37.304057542958759, "lon": 128.0530724511344, "priority": 1, "score": 59.2, "s1": 2.5, "s2": 13.7, "s3": 10.5, "s4": 10.4, "s5": 10.0, "s6": 3.3, "dp": 4.3, "dr": 3.4, "du": 3.5, "dem": 2.6, "grad": 0.4, "var": 58.8, "sig": 61.0, "sigo": 1, "lreq": 51.5, "lnow": 53.7, "dfc": 1.04 }, "geometry": { "type": "Point", "coordinates": [ 128.053072451134398, 37.304057542958759 ] } },
{ "type": "Feature", "properties": { "idx": 84, "lat": 37.754717445340141, "lon": 128.05641007550918, "priority": 1, "score": 60.4, "s1": 2.0, "s2": 13.9, "s3": 11.7, "s4": 10.1, "s5": 9.9, "s6": 3.8, "dp": 4.5, "dr": 21.0, "du": 2.8, "dem": 2.2, "grad": 6.0, "var": 34.4, "sig": 38.0, "sigo": 1, "lreq": 65.1, "lnow": 61.9, "dfc": 0.95 }, "geometry": { "type": "Point", "coordinates": [ 128.056410075509177, 37.754717445340141 ] } },
{ "type": "Feature", "properties": { "idx": 85, "lat": 37.84484525415656, "lon": 128.05708657001784, "priority": 1, "score": 59.9, "s1": 2.2, "s2": 13.7, "s3": 11.1, "s4": 9.9, "s5": 10.0, "s6": 3.9, "dp": 1.6, "dr": 23.4, "du": 2.5, "dem": 2.56, "grad": 3.4, "var": 28.5, "sig": 38.0, "sigo": 1, "lreq": 65.1, "lnow": 61.9, "dfc": 0.95 }, "geometry": { "type": "Point", "coordinates": [ 128.057086570017844, 37.84484525415656 ] } },
{ "type": "Feature", "properties": { "idx": 90, "lat": 36.942931062605552, "lon": 128.16275533498003, "priority": 1, "score": 58.4, "s1": 3.3, "s2": 14.1, "s3": 11.8, "s4": 7.0, "s5": 9.6, "s6": 3.7, "dp": 10.2, "dr": 11.5, "du": 0.3, "dem": 1.72, "grad": 7.3, "var": 106.8, "sig": 144.0, "sigo": 1, "lreq": 33.5, "lnow": 38.6, "dfc": 1.15 }, "geometry": { "type": "Point", "coordinates": [ 128.162755334980034, 36.942931062605552 ] } },
{ "type": "Feature", "properties": { "idx": 92, "lat": 37.393609310718844, "lon": 128.16670283269062, "priority": 1, "score": 59.0, "s1": 2.2, "s2": 14.1, "s3": 10.9, "s4": 9.3, "s5": 10.0, "s6": 3.7, "dp": 3.2, "dr": 8.1, "du": 1.6, "dem": 1.83, "grad": 3.6, "var": 60.9, "sig": 47.0, "sigo": 1, "lreq": 58.7, "lnow": 58.0, "dfc": 0.99 }, "geometry": { "type": "Point", "coordinates": [ 128.166702832690618, 37.393609310718844 ] } },
{ "type": "Feature", "properties": { "idx": 94, "lat": 37.663999567505108, "lon": 128.1691138564413, "priority": 1, "score": 60.0, "s1": 2.0, "s2": 14.3, "s3": 11.4, "s4": 9.9, "s5": 10.0, "s6": 3.4, "dp": 6.0, "dr": 10.7, "du": 2.4, "dem": 1.34, "grad": 2.7, "var": 56.4, "sig": 37.0, "sigo": 1, "lreq": 65.7, "lnow": 40.2, "dfc": 0.61 }, "geometry": { "type": "Point", "coordinates": [ 128.1691138564413, 37.663999567505108 ] } },
{ "type": "Feature", "properties": { "idx": 109, "lat": 36.761193865577916, "lon": 128.38526309955415, "priority": 1, "score": 59.0, "s1": 3.1, "s2": 13.9, "s3": 10.6, "s4": 8.3, "s5": 9.9, "s6": 4.2, "dp": 1.9, "dr": 8.8, "du": 0.7, "dem": 2.2, "grad": 6.0, "var": 42.7, "sig": 39.0, "sigo": 1, "lreq": 64.6, "lnow": 69.4, "dfc": 1.07 }, "geometry": { "type": "Point", "coordinates": [ 128.385263099554152, 36.761193865577916 ] } },
{ "type": "Feature", "properties": { "idx": 112, "lat": 37.482246255767784, "lon": 128.39370029653821, "priority": 1, "score": 58.0, "s1": 2.6, "s2": 14.5, "s3": 10.2, "s4": 9.3, "s5": 10.0, "s6": 2.8, "dp": 2.5, "dr": 3.6, "du": 1.5, "dem": 1.05, "grad": 3.8, "var": 33.6, "sig": 41.0, "sigo": 1, "lreq": 62.6, "lnow": 24.2, "dfc": 0.39 }, "geometry": { "type": "Point", "coordinates": [ 128.393700296538213, 37.482246255767784 ] } },
{ "type": "Feature", "properties": { "idx": 113, "lat": 37.662495334340164, "lon": 128.39585696363733, "priority": 1, "score": 57.7, "s1": 2.0, "s2": 14.0, "s3": 11.4, "s4": 7.5, "s5": 10.0, "s6": 4.1, "dp": 9.7, "dr": 6.3, "du": 0.4, "dem": 2.05, "grad": 4.5, "var": 27.2, "sig": 36.0, "sigo": 1, "lreq": 66.8, "lnow": 20.0, "dfc": 0.3 }, "geometry": { "type": "Point", "coordinates": [ 128.395856963637328, 37.662495334340164 ] } },
{ "type": "Feature", "properties": { "idx": 119, "lat": 36.489898532603917, "lon": 128.49380976355755, "priority": 1, "score": 61.2, "s1": 4.8, "s2": 14.1, "s3": 11.7, "s4": 8.8, "s5": 8.7, "s6": 3.8, "dp": 10.0, "dr": 10.4, "du": 1.0, "dem": 1.75, "grad": 10.3, "var": 35.9, "sig": 59.0, "sigo": 1, "lreq": 52.3, "lnow": 76.8, "dfc": 1.47 }, "geometry": { "type": "Point", "coordinates": [ 128.49380976355755, 36.489898532603917 ] } },
{ "type": "Feature", "properties": { "idx": 124, "lat": 37.661579803061791, "lon": 128.50922158302495, "priority": 1, "score": 58.5, "s1": 2.0, "s2": 14.0, "s3": 10.0, "s4": 9.5, "s5": 10.0, "s6": 4.2, "dp": 6.7, "dr": 1.0, "du": 1.8, "dem": 1.97, "grad": 1.2, "var": 28.7, "sig": 35.0, "sigo": 1, "lreq": 67.6, "lnow": 26.9, "dfc": 0.4 }, "geometry": { "type": "Point", "coordinates": [ 128.509221583024953, 37.661579803061791 ] } },
{ "type": "Feature", "properties": { "idx": 125, "lat": 37.75169927030516, "lon": 128.51044446142916, "priority": 1, "score": 61.3, "s1": 2.0, "s2": 13.6, "s3": 11.8, "s4": 10.8, "s5": 9.7, "s6": 4.2, "dp": 14.3, "dr": 7.7, "du": 4.9, "dem": 2.79, "grad": 7.0, "var": 50.9, "sig": 29.0, "sigo": 1, "lreq": 74.2, "lnow": 45.8, "dfc": 0.62 }, "geometry": { "type": "Point", "coordinates": [ 128.510444461429159, 37.75169927030516 ] } },
{ "type": "Feature", "properties": { "idx": 126, "lat": 37.931933957305723, "lon": 128.51290663137979, "priority": 1, "score": 60.6, "s1": 2.2, "s2": 14.1, "s3": 11.7, "s4": 9.7, "s5": 10.0, "s6": 3.8, "dp": 3.8, "dr": 25.8, "du": 2.2, "dem": 1.79, "grad": 2.9, "var": 36.7, "sig": 29.0, "sigo": 1, "lreq": 74.2, "lnow": 38.0, "dfc": 0.51 }, "geometry": { "type": "Point", "coordinates": [ 128.512906631379792, 37.931933957305723 ] } },
{ "type": "Feature", "properties": { "idx": 128, "lat": 38.382495838932883, "lon": 128.51915902390093, "priority": 1, "score": 58.6, "s1": 3.5, "s2": 15.0, "s3": 11.5, "s4": 9.5, "s5": 6.0, "s6": 4.4, "dp": 3.8, "dr": 18.2, "du": 1.8, "dem": 0.05, "grad": null, "var": null, "sig": 88.0, "sigo": 0, "lreq": 42.8, "lnow": 91.1, "dfc": 2.13 }, "geometry": { "type": "Point", "coordinates": [ 128.519159023900926, 38.382495838932883 ] } },
{ "type": "Feature", "properties": { "idx": 132, "lat": 36.939575048824658, "lon": 128.61191472916164, "priority": 1, "score": 57.7, "s1": 2.1, "s2": 14.1, "s3": 10.5, "s4": 8.0, "s5": 10.0, "s6": 4.4, "dp": 3.1, "dr": 4.6, "du": 0.5, "dem": 1.86, "grad": 1.5, "var": 17.6, "sig": 40.0, "sigo": 1, "lreq": 63.9, "lnow": 46.6, "dfc": 0.73 }, "geometry": { "type": "Point", "coordinates": [ 128.61191472916164, 36.939575048824658 ] } },
{ "type": "Feature", "properties": { "idx": 133, "lat": 37.029702539114282, "lon": 128.61322730998597, "priority": 1, "score": 58.4, "s1": 1.7, "s2": 13.9, "s3": 11.6, "s4": 8.4, "s5": 10.0, "s6": 4.1, "dp": 6.1, "dr": 13.0, "du": 0.8, "dem": 2.24, "grad": 1.3, "var": 22.8, "sig": 32.0, "sigo": 1, "lreq": 70.6, "lnow": 48.7, "dfc": 0.69 }, "geometry": { "type": "Point", "coordinates": [ 128.613227309985973, 37.029702539114282 ] } },
{ "type": "Feature", "properties": { "idx": 134, "lat": 37.570437773486866, "lon": 128.62122664320111, "priority": 1, "score": 59.4, "s1": 2.3, "s2": 13.7, "s3": 10.4, "s4": 9.9, "s5": 9.8, "s6": 4.2, "dp": 4.2, "dr": 3.2, "du": 2.5, "dem": 2.51, "grad": 6.6, "var": 28.2, "sig": 32.0, "sigo": 1, "lreq": 70.8, "lnow": 35.7, "dfc": 0.5 }, "geometry": { "type": "Point", "coordinates": [ 128.621226643201112, 37.570437773486866 ] } },
{ "type": "Feature", "properties": { "idx": 135, "lat": 37.750671501162074, "lon": 128.62394093517904, "priority": 1, "score": 57.7, "s1": 1.7, "s2": 13.3, "s3": 11.0, "s4": 9.2, "s5": 9.9, "s6": 3.9, "dp": 7.9, "dr": 3.9, "du": 1.4, "dem": 3.3, "grad": 5.9, "var": 43.6, "sig": 26.0, "sigo": 1, "lreq": 78.3, "lnow": 55.1, "dfc": 0.7 }, "geometry": { "type": "Point", "coordinates": [ 128.623940935179036, 37.750671501162074 ] } },
{ "type": "Feature", "properties": { "idx": 136, "lat": 37.840786230673373, "lon": 128.62530717995114, "priority": 1, "score": 57.9, "s1": 1.9, "s2": 11.8, "s3": 11.6, "s4": 10.1, "s5": 10.0, "s6": 3.9, "dp": 6.1, "dr": 13.5, "du": 2.9, "dem": 6.44, "grad": 0.7, "var": 25.1, "sig": 26.0, "sigo": 1, "lreq": 78.3, "lnow": 55.1, "dfc": 0.7 }, "geometry": { "type": "Point", "coordinates": [ 128.625307179951136, 37.840786230673373 ] } },
{ "type": "Feature", "properties": { "idx": 137, "lat": 38.02101141441441, "lon": 128.62805801138009, "priority": 1, "score": 59.9, "s1": 2.7, "s2": 14.1, "s3": 11.3, "s4": 8.8, "s5": 10.0, "s6": 4.0, "dp": 1.7, "dr": 31.9, "du": 1.0, "dem": 1.85, "grad": 3.9, "var": 19.2, "sig": 23.0, "sigo": 1, "lreq": 83.1, "lnow": 46.9, "dfc": 0.56 }, "geometry": { "type": "Point", "coordinates": [ 128.628058011380091, 38.02101141441441 ] } },
{ "type": "Feature", "properties": { "idx": 138, "lat": 34.775075137882034, "lon": 128.69136862505698, "priority": 1, "score": 67.1, "s1": 8.1, "s2": 14.2, "s3": 12.3, "s4": 10.4, "s5": 7.8, "s6": 4.2, "dp": 8.6, "dr": 28.5, "du": 3.7, "dem": 1.56, "grad": 13.4, "var": 245.8, "sig": 166.0, "sigo": 1, "lreq": 31.2, "lnow": 25.0, "dfc": 0.8 }, "geometry": { "type": "Point", "coordinates": [ 128.691368625056981, 34.775075137882034 ] } },
{ "type": "Feature", "properties": { "idx": 139, "lat": 37.028594603001764, "lon": 128.72563652849948, "priority": 1, "score": 58.1, "s1": 1.7, "s2": 13.9, "s3": 10.8, "s4": 9.0, "s5": 10.0, "s6": 3.9, "dp": 2.7, "dr": 9.3, "du": 1.2, "dem": 2.1, "grad": 2.8, "var": 30.9, "sig": 49.0, "sigo": 1, "lreq": 57.4, "lnow": 32.3, "dfc": 0.56 }, "geometry": { "type": "Point", "coordinates": [ 128.725636528499479, 37.028594603001764 ] } },
{ "type": "Feature", "properties": { "idx": 140, "lat": 37.118717074374167, "lon": 128.72708801347594, "priority": 1, "score": 57.8, "s1": 2.1, "s2": 13.8, "s3": 10.0, "s4": 9.3, "s5": 9.8, "s6": 4.0, "dp": 1.2, "dr": 6.0, "du": 1.6, "dem": 2.37, "grad": 6.5, "var": 51.0, "sig": 47.0, "sigo": 1, "lreq": 58.3, "lnow": 47.1, "dfc": 0.81 }, "geometry": { "type": "Point", "coordinates": [ 128.727088013475935, 37.118717074374167 ] } },
{ "type": "Feature", "properties": { "idx": 141, "lat": 37.569308070212379, "lon": 128.73444312688949, "priority": 1, "score": 59.2, "s1": 2.5, "s2": 13.2, "s3": 10.1, "s4": 10.4, "s5": 10.0, "s6": 4.1, "dp": 7.4, "dr": 1.1, "du": 3.5, "dem": 3.54, "grad": 4.4, "var": 49.0, "sig": 34.0, "sigo": 1, "lreq": 68.6, "lnow": 49.8, "dfc": 0.73 }, "geometry": { "type": "Point", "coordinates": [ 128.734443126889488, 37.569308070212379 ] } },
{ "type": "Feature", "properties": { "idx": 145, "lat": 36.757016093147364, "lon": 128.83332784570879, "priority": 1, "score": 60.0, "s1": 4.0, "s2": 14.4, "s3": 11.5, "s4": 6.8, "s5": 10.0, "s6": 4.3, "dp": 7.6, "dr": 9.6, "du": 0.2, "dem": 1.16, "grad": 4.2, "var": 70.6, "sig": 73.0, "sigo": 1, "lreq": 47.1, "lnow": 30.6, "dfc": 0.65 }, "geometry": { "type": "Point", "coordinates": [ 128.833327845708794, 36.757016093147364 ] } },
{ "type": "Feature", "properties": { "idx": 146, "lat": 37.027380221115791, "lon": 128.83803930500508, "priority": 1, "score": 58.0, "s1": 1.9, "s2": 13.0, "s3": 11.5, "s4": 9.6, "s5": 9.3, "s6": 3.9, "dp": 9.9, "dr": 6.9, "du": 2.0, "dem": 3.92, "grad": 8.4, "var": 53.6, "sig": 54.0, "sigo": 1, "lreq": 54.5, "lnow": 18.8, "dfc": 0.34 }, "geometry": { "type": "Point", "coordinates": [ 128.838039305005083, 37.027380221115791 ] } },
{ "type": "Feature", "properties": { "idx": 148, "lat": 37.568069830609801, "lon": 128.84765298526688, "priority": 1, "score": 58.9, "s1": 2.5, "s2": 14.9, "s3": 10.9, "s4": 7.8, "s5": 10.0, "s6": 3.9, "dp": 4.0, "dr": 6.7, "du": 0.5, "dem": 0.13, "grad": 2.0, "var": 45.2, "sig": 42.0, "sigo": 1, "lreq": 62.0, "lnow": 42.9, "dfc": 0.69 }, "geometry": { "type": "Point", "coordinates": [ 128.847652985266876, 37.568069830609801 ] } },
{ "type": "Feature", "properties": { "idx": 151, "lat": 37.296397744681272, "lon": 128.9556105483623, "priority": 1, "score": 60.0, "s1": 3.1, "s2": 13.8, "s3": 10.2, "s4": 10.2, "s5": 10.0, "s6": 3.7, "dp": 2.1, "dr": 4.6, "du": 3.0, "dem": 2.46, "grad": 3.3, "var": 50.8, "sig": 59.0, "sigo": 1, "lreq": 52.5, "lnow": 35.7, "dfc": 0.68 }, "geometry": { "type": "Point", "coordinates": [ 128.955610548362301, 37.296397744681272 ] } },
{ "type": "Feature", "properties": { "idx": 162, "lat": 36.752776096541737, "lon": 129.16930562464663, "priority": 1, "score": 58.4, "s1": 2.0, "s2": 14.5, "s3": 12.3, "s4": 9.3, "s5": 7.6, "s6": 3.9, "dp": 15.2, "dr": 16.9, "du": 1.5, "dem": 1.06, "grad": 14.3, "var": 190.0, "sig": 81.0, "sigo": 1, "lreq": 44.7, "lnow": 67.1, "dfc": 1.5 }, "geometry": { "type": "Point", "coordinates": [ 129.169305624646626, 36.752776096541737 ] } },
{ "type": "Feature", "properties": { "idx": 163, "lat": 37.023098608788189, "lon": 129.17520308309926, "priority": 1, "score": 59.5, "s1": 2.6, "s2": 13.7, "s3": 10.8, "s4": 10.5, "s5": 8.9, "s6": 4.0, "dp": 6.8, "dr": 3.7, "du": 4.0, "dem": 2.61, "grad": 9.7, "var": 116.8, "sig": 69.0, "sigo": 1, "lreq": 48.3, "lnow": 62.5, "dfc": 1.3 }, "geometry": { "type": "Point", "coordinates": [ 129.175203083099262, 37.023098608788189 ] } },
{ "type": "Feature", "properties": { "idx": 164, "lat": 37.203306308794204, "lon": 129.17917865878593, "priority": 1, "score": 58.3, "s1": 3.1, "s2": 14.6, "s3": 10.6, "s4": 10.0, "s5": 7.7, "s6": 3.6, "dp": 2.5, "dr": 7.2, "du": 2.6, "dem": 0.85, "grad": 13.9, "var": 68.8, "sig": 65.0, "sigo": 1, "lreq": 49.9, "lnow": 40.9, "dfc": 0.82 }, "geometry": { "type": "Point", "coordinates": [ 129.179178658785929, 37.203306308794204 ] } },
{ "type": "Feature", "properties": { "idx": 178, "lat": 37.437274302691037, "lon": 130.87954734910005, "priority": 1, "score": 89.3, "s1": 22.6, "s2": 13.9, "s3": 15.0, "s4": 15.0, "s5": 6.0, "s6": 3.4, "dp": 133.1, "dr": 130.4, "du": 135.6, "dem": 2.25, "grad": null, "var": null, "sig": 88.0, "sigo": 0, "lreq": 42.8, "lnow": 301.0, "dfc": 7.03 }, "geometry": { "type": "Point", "coordinates": [ 130.879547349100051, 37.437274302691037 ] } }
]
}
