{
"type": "FeatureCollection",
"name": "candidates_p2",
"crs": { "type": "name", "properties": { "name": "urn:ogc:def:crs:OGC:1.3:CRS84" } },
"features": [
{ "type": "Feature", "properties": { "idx": 7, "lat": 37.844737071170044, "lon": 126.9204957318541, "priority": 2, "score": 53.9, "s1": 5.9, "s2": 14.7, "s3": 9.6, "s4": 7.9, "s5": 5.0, "dp": 0.6, "dr": 6.2, "du": 0.5, "dem": 0.53 }, "geometry": { "type": "Point", "coordinates": [ 126.920495731854103, 37.844737071170044 ] } },
{ "type": "Feature", "properties": { "idx": 8, "lat": 37.934863137275507, "lon": 126.91978887356858, "priority": 2, "score": 53.8, "s1": 5.4, "s2": 13.7, "s3": 10.6, "s4": 8.3, "s5": 5.0, "dp": 2.5, "dr": 6.7, "du": 0.7, "dem": 2.63 }, "geometry": { "type": "Point", "coordinates": [ 126.919788873568578, 37.934863137275507 ] } },
{ "type": "Feature", "properties": { "idx": 10, "lat": 38.205743947085352, "lon": 127.03186259369727, "priority": 2, "score": 56.0, "s1": 5.7, "s2": 14.9, "s3": 10.8, "s4": 8.4, "s5": 5.0, "dp": 11.4, "dr": 2.0, "du": 0.8, "dem": 0.28 }, "geometry": { "type": "Point", "coordinates": [ 127.031862593697269, 38.205743947085352 ] } },
{ "type": "Feature", "properties": { "idx": 18, "lat": 38.116483933420668, "lon": 127.3746698542875, "priority": 2, "score": 54.0, "s1": 2.4, "s2": 14.5, "s3": 11.6, "s4": 9.6, "s5": 5.0, "dp": 4.7, "dr": 17.9, "du": 2.0, "dem": 0.94 }, "geometry": { "type": "Point", "coordinates": [ 127.374669854287504, 38.116483933420668 ] } },
{ "type": "Feature", "properties": { "idx": 21, "lat": 35.412115334796276, "lon": 127.48913749533914, "priority": 2, "score": 54.9, "s1": 2.6, "s2": 14.1, "s3": 10.3, "s4": 8.9, "s5": 8.0, "dp": 1.7, "dr": 6.3, "du": 1.1, "dem": 1.7 }, "geometry": { "type": "Point", "coordinates": [ 127.489137495339136, 35.412115334796276 ] } },
{ "type": "Feature", "properties": { "idx": 22, "lat": 35.772777590940763, "lon": 127.48908866352789, "priority": 2, "score": 55.7, "s1": 3.1, "s2": 13.4, "s3": 10.6, "s4": 9.4, "s5": 8.0, "dp": 0.9, "dr": 17.5, "du": 1.7, "dem": 3.21 }, "geometry": { "type": "Point", "coordinates": [ 127.489088663527895, 35.772777590940763 ] } },
{ "type": "Feature", "properties": { "idx": 23, "lat": 37.575762079232597, "lon": 127.48883104871294, "priority": 2, "score": 56.5, "s1": 4.4, "s2": 14.4, "s3": 8.8, "s4": 9.7, "s5": 8.0, "dp": 0.3, "dr": 2.9, "du": 2.1, "dem": 1.29 }, "geometry": { "type": "Point", "coordinates": [ 127.488831048712939, 37.575762079232597 ] } },
{ "type": "Feature", "properties": { "idx": 27, "lat": 35.231736060232961, "lon": 127.59905936332781, "priority": 2, "score": 53.9, "s1": 2.6, "s2": 11.8, "s3": 11.2, "s4": 9.5, "s5": 8.0, "dp": 4.4, "dr": 10.2, "du": 1.7, "dem": 6.39 }, "geometry": { "type": "Point", "coordinates": [ 127.599059363327811, 35.231736060232961 ] } },
{ "type": "Feature", "properties": { "idx": 31, "lat": 35.772736740464332, "lon": 127.59972586522606, "priority": 2, "score": 54.8, "s1": 2.7, "s2": 13.7, "s3": 11.9, "s4": 7.7, "s5": 8.0, "dp": 4.9, "dr": 25.6, "du": 0.4, "dem": 2.69 }, "geometry": { "type": "Point", "coordinates": [ 127.599725865226063, 35.772736740464332 ] } },
{ "type": "Feature", "properties": { "idx": 35, "lat": 36.584146217488183, "lon": 127.60075952521841, "priority": 2, "score": 55.2, "s1": 2.9, "s2": 14.4, "s3": 11.1, "s4": 7.8, "s5": 8.0, "dp": 3.2, "dr": 11.4, "du": 0.4, "dem": 1.11 }, "geometry": { "type": "Point", "coordinates": [ 127.600759525218407, 36.584146217488183 ] } },
{ "type": "Feature", "properties": { "idx": 42, "lat": 35.59226689785288, "lon": 127.70988975974066, "priority": 2, "score": 56.2, "s1": 3.3, "s2": 13.3, "s3": 10.9, "s4": 9.4, "s5": 8.0, "dp": 6.8, "dr": 4.2, "du": 1.6, "dem": 3.38 }, "geometry": { "type": "Point", "coordinates": [ 127.709889759740662, 35.59226689785288 ] } },
{ "type": "Feature", "properties": { "idx": 43, "lat": 35.772594114946344, "lon": 127.71036256692372, "priority": 2, "score": 55.7, "s1": 3.1, "s2": 12.2, "s3": 12.4, "s4": 8.9, "s5": 8.0, "dp": 13.8, "dr": 21.1, "du": 1.1, "dem": 5.5 }, "geometry": { "type": "Point", "coordinates": [ 127.71036256692372, 35.772594114946344 ] } },
{ "type": "Feature", "properties": { "idx": 44, "lat": 36.674148626671567, "lon": 127.71279065575112, "priority": 2, "score": 55.4, "s1": 2.2, "s2": 14.5, "s3": 11.7, "s4": 7.9, "s5": 8.0, "dp": 8.9, "dr": 10.1, "du": 0.5, "dem": 0.97 }, "geometry": { "type": "Point", "coordinates": [ 127.712790655751121, 36.674148626671567 ] } },
{ "type": "Feature", "properties": { "idx": 45, "lat": 36.764296568339681, "lon": 127.71303945276277, "priority": 2, "score": 54.1, "s1": 3.0, "s2": 14.7, "s3": 10.5, "s4": 7.1, "s5": 8.0, "dp": 3.3, "dr": 4.3, "du": 0.3, "dem": 0.53 }, "geometry": { "type": "Point", "coordinates": [ 127.713039452762771, 36.764296568339681 ] } },
{ "type": "Feature", "properties": { "idx": 46, "lat": 37.665700404520344, "lon": 127.71558926595122, "priority": 2, "score": 56.6, "s1": 2.9, "s2": 14.6, "s3": 11.5, "s4": 8.3, "s5": 8.0, "dp": 6.6, "dr": 11.0, "du": 0.7, "dem": 0.88 }, "geometry": { "type": "Point", "coordinates": [ 127.715589265951223, 37.665700404520344 ] } },
{ "type": "Feature", "properties": { "idx": 47, "lat": 37.755833203995806, "lon": 127.71585054811798, "priority": 2, "score": 55.0, "s1": 3.0, "s2": 14.7, "s3": 8.6, "s4": 9.8, "s5": 8.0, "dp": 0.5, "dr": 1.5, "du": 2.3, "dem": 0.67 }, "geometry": { "type": "Point", "coordinates": [ 127.715850548117984, 37.755833203995806 ] } },
{ "type": "Feature", "properties": { "idx": 51, "lat": 36.042827943447314, "lon": 127.82209249434757, "priority": 2, "score": 54.7, "s1": 3.8, "s2": 13.4, "s3": 11.2, "s4": 7.4, "s5": 8.0, "dp": 5.9, "dr": 7.7, "du": 0.3, "dem": 3.28 }, "geometry": { "type": "Point", "coordinates": [ 127.822092494347572, 36.042827943447314 ] } },
{ "type": "Feature", "properties": { "idx": 53, "lat": 36.673896077378146, "lon": 127.82470325861303, "priority": 2, "score": 56.4, "s1": 2.2, "s2": 14.4, "s3": 12.3, "s4": 8.3, "s5": 8.0, "dp": 16.2, "dr": 16.1, "du": 0.7, "dem": 1.25 }, "geometry": { "type": "Point", "coordinates": [ 127.824703258613027, 36.673896077378146 ] } },
{ "type": "Feature", "properties": { "idx": 59, "lat": 36.312940850556835, "lon": 127.93459480459907, "priority": 2, "score": 54.9, "s1": 4.0, "s2": 15.0, "s3": 11.0, "s4": 9.0, "s5": 5.0, "dp": 6.7, "dr": 5.0, "du": 1.2, "dem": 0.05 }, "geometry": { "type": "Point", "coordinates": [ 127.934594804599072, 36.312940850556835 ] } },
{ "type": "Feature", "properties": { "idx": 62, "lat": 37.665067947891622, "lon": 127.94235632847882, "priority": 2, "score": 55.1, "s1": 2.7, "s2": 15.0, "s3": 11.0, "s4": 7.4, "s5": 8.0, "dp": 2.1, "dr": 14.9, "du": 0.3, "dem": 0.07 }, "geometry": { "type": "Point", "coordinates": [ 127.942356328478823, 37.665067947891622 ] } },
{ "type": "Feature", "properties": { "idx": 64, "lat": 38.115707818030515, "lon": 127.9450608671052, "priority": 2, "score": 54.7, "s1": 3.0, "s2": 14.5, "s3": 12.0, "s4": 9.3, "s5": 5.0, "dp": 5.4, "dr": 26.8, "du": 1.5, "dem": 1.03 }, "geometry": { "type": "Point", "coordinates": [ 127.945060867105198, 38.115707818030515 ] } },
{ "type": "Feature", "properties": { "idx": 67, "lat": 36.312483997434498, "lon": 128.04598592943108, "priority": 2, "score": 55.2, "s1": 4.2, "s2": 13.8, "s3": 9.3, "s4": 8.9, "s5": 8.0, "dp": 5.6, "dr": 0.4, "du": 1.1, "dem": 2.5 }, "geometry": { "type": "Point", "coordinates": [ 128.045985929431083, 36.312483997434498 ] } },
{ "type": "Feature", "properties": { "idx": 69, "lat": 37.304057542958759, "lon": 128.0530724511344, "priority": 2, "score": 56.6, "s1": 2.7, "s2": 13.7, "s3": 10.5, "s4": 10.4, "s5": 8.0, "dp": 4.3, "dr": 3.4, "du": 3.5, "dem": 2.6 }, "geometry": { "type": "Point", "coordinates": [ 128.053072451134398, 37.304057542958759 ] } },
{ "type": "Feature", "properties": { "idx": 78, "lat": 37.393609310718844, "lon": 128.16670283269062, "priority": 2, "score": 55.8, "s1": 2.4, "s2": 14.1, "s3": 10.9, "s4": 9.3, "s5": 8.0, "dp": 3.2, "dr": 8.1, "du": 1.6, "dem": 1.83 }, "geometry": { "type": "Point", "coordinates": [ 128.166702832690618, 37.393609310718844 ] } },
{ "type": "Feature", "properties": { "idx": 81, "lat": 37.844252763291173, "lon": 128.17073920374065, "priority": 2, "score": 55.4, "s1": 2.2, "s2": 13.3, "s3": 11.0, "s4": 9.7, "s5": 8.0, "dp": 1.2, "dr": 29.7, "du": 2.2, "dem": 3.44 }, "geometry": { "type": "Point", "coordinates": [ 128.170739203740652, 37.844252763291173 ] } },
{ "type": "Feature", "properties": { "idx": 83, "lat": 38.294861270429706, "lon": 128.1748665696758, "priority": 2, "score": 53.7, "s1": 2.2, "s2": 13.9, "s3": 12.6, "s4": 9.3, "s5": 5.0, "dp": 12.6, "dr": 30.4, "du": 1.5, "dem": 2.23 }, "geometry": { "type": "Point", "coordinates": [ 128.1748665696758, 38.294861270429706 ] } },
{ "type": "Feature", "properties": { "idx": 84, "lat": 36.761974697040074, "lon": 128.27323394129957, "priority": 2, "score": 54.2, "s1": 3.3, "s2": 12.7, "s3": 10.3, "s4": 9.0, "s5": 8.0, "dp": 1.1, "dr": 9.7, "du": 1.2, "dem": 4.54 }, "geometry": { "type": "Point", "coordinates": [ 128.273233941299566, 36.761974697040074 ] } },
{ "type": "Feature", "properties": { "idx": 86, "lat": 37.663301926952904, "lon": 128.28248751795431, "priority": 2, "score": 55.9, "s1": 2.1, "s2": 13.2, "s3": 11.3, "s4": 10.1, "s5": 8.0, "dp": 7.4, "dr": 7.5, "du": 2.9, "dem": 3.65 }, "geometry": { "type": "Point", "coordinates": [ 128.282487517954308, 37.663301926952904 ] } },
{ "type": "Feature", "properties": { "idx": 90, "lat": 38.113913089298116, "lon": 128.28727118870717, "priority": 2, "score": 54.4, "s1": 1.9, "s2": 14.4, "s3": 12.0, "s4": 10.2, "s5": 5.0, "dp": 3.3, "dr": 46.2, "du": 3.1, "dem": 1.14 }, "geometry": { "type": "Point", "coordinates": [ 128.287271188707166, 38.113913089298116 ] } },
{ "type": "Feature", "properties": { "idx": 97, "lat": 37.662495334340164, "lon": 128.39585696363733, "priority": 2, "score": 56.4, "s1": 2.2, "s2": 14.0, "s3": 11.4, "s4": 7.5, "s5": 10.0, "dp": 9.7, "dr": 6.3, "du": 0.4, "dem": 2.05 }, "geometry": { "type": "Point", "coordinates": [ 128.395856963637328, 37.662495334340164 ] } },
{ "type": "Feature", "properties": { "idx": 98, "lat": 37.93285839612448, "lon": 128.39912821930696, "priority": 2, "score": 54.5, "s1": 2.2, "s2": 12.9, "s3": 12.0, "s4": 8.5, "s5": 8.0, "dp": 4.9, "dr": 29.7, "du": 0.8, "dem": 4.21 }, "geometry": { "type": "Point", "coordinates": [ 128.399128219306959, 37.93285839612448 ] } },
{ "type": "Feature", "properties": { "idx": 104, "lat": 36.94057326840403, "lon": 128.49963214808656, "priority": 2, "score": 54.5, "s1": 2.6, "s2": 12.5, "s3": 9.8, "s4": 8.7, "s5": 10.0, "dp": 4.6, "dr": 1.1, "du": 0.9, "dem": 4.94 }, "geometry": { "type": "Point", "coordinates": [ 128.499632148086562, 36.94057326840403 ] } },
{ "type": "Feature", "properties": { "idx": 105, "lat": 37.030704011272583, "lon": 128.50081223973172, "priority": 2, "score": 55.1, "s1": 2.2, "s2": 12.8, "s3": 11.6, "s4": 9.5, "s5": 8.0, "dp": 7.8, "dr": 10.0, "du": 1.8, "dem": 4.37 }, "geometry": { "type": "Point", "coordinates": [ 128.500812239731715, 37.030704011272583 ] } },
{ "type": "Feature", "properties": { "idx": 107, "lat": 37.481336627552828, "lon": 128.50679211051732, "priority": 2, "score": 54.9, "s1": 2.8, "s2": 12.9, "s3": 10.2, "s4": 10.1, "s5": 8.0, "dp": 1.9, "dr": 4.8, "du": 2.8, "dem": 4.29 }, "geometry": { "type": "Point", "coordinates": [ 128.506792110517324, 37.481336627552828 ] } },
{ "type": "Feature", "properties": { "idx": 112, "lat": 38.382495838932883, "lon": 128.51915902390093, "priority": 2, "score": 56.0, "s1": 3.8, "s2": 15.0, "s3": 11.5, "s4": 9.5, "s5": 5.0, "dp": 3.8, "dr": 18.2, "du": 1.8, "dem": 0.05 }, "geometry": { "type": "Point", "coordinates": [ 128.519159023900926, 38.382495838932883 ] } },
{ "type": "Feature", "properties": { "idx": 114, "lat": 36.939575048824658, "lon": 128.61191472916164, "priority": 2, "score": 56.0, "s1": 2.3, "s2": 14.1, "s3": 10.5, "s4": 8.0, "s5": 10.0, "dp": 3.1, "dr": 4.6, "du": 0.5, "dem": 1.86 }, "geometry": { "type": "Point", "coordinates": [ 128.61191472916164, 36.939575048824658 ] } },
{ "type": "Feature", "properties": { "idx": 121, "lat": 37.118717074374167, "lon": 128.72708801347594, "priority": 2, "score": 54.3, "s1": 2.3, "s2": 13.8, "s3": 10.0, "s4": 9.3, "s5": 8.0, "dp": 1.2, "dr": 6.0, "du": 1.6, "dem": 2.37 }, "geometry": { "type": "Point", "coordinates": [ 128.727088013475935, 37.118717074374167 ] } },
{ "type": "Feature", "properties": { "idx": 124, "lat": 37.839645527430662, "lon": 128.73893545343597, "priority": 2, "score": 56.0, "s1": 2.6, "s2": 13.8, "s3": 10.1, "s4": 8.3, "s5": 10.0, "dp": 0.8, "dr": 9.6, "du": 0.7, "dem": 2.37 }, "geometry": { "type": "Point", "coordinates": [ 128.738935453435971, 37.839645527430662 ] } },
{ "type": "Feature", "properties": { "idx": 125, "lat": 36.757016093147364, "lon": 128.83332784570879, "priority": 2, "score": 56.3, "s1": 4.3, "s2": 14.4, "s3": 11.5, "s4": 6.8, "s5": 8.0, "dp": 7.6, "dr": 9.6, "du": 0.2, "dem": 1.16 }, "geometry": { "type": "Point", "coordinates": [ 128.833327845708794, 36.757016093147364 ] } },
{ "type": "Feature", "properties": { "idx": 126, "lat": 37.027380221115791, "lon": 128.83803930500508, "priority": 2, "score": 55.8, "s1": 2.5, "s2": 13.0, "s3": 11.5, "s4": 9.6, "s5": 8.0, "dp": 9.9, "dr": 6.9, "du": 2.0, "dem": 3.92 }, "geometry": { "type": "Point", "coordinates": [ 128.838039305005083, 37.027380221115791 ] } },
{ "type": "Feature", "properties": { "idx": 127, "lat": 37.117498739465205, "lon": 128.83962381235074, "priority": 2, "score": 53.9, "s1": 2.6, "s2": 14.0, "s3": 9.8, "s4": 8.8, "s5": 8.0, "dp": 1.4, "dr": 3.6, "du": 1.0, "dem": 2.03 }, "geometry": { "type": "Point", "coordinates": [ 128.839623812350737, 37.117498739465205 ] } },
{ "type": "Feature", "properties": { "idx": 131, "lat": 37.566723075199732, "lon": 128.96085561150878, "priority": 2, "score": 53.6, "s1": 3.5, "s2": 12.5, "s3": 8.3, "s4": 8.5, "s5": 10.0, "dp": 0.9, "dr": 0.6, "du": 0.8, "dem": 4.96 }, "geometry": { "type": "Point", "coordinates": [ 128.960855611508777, 37.566723075199732 ] } },
{ "type": "Feature", "properties": { "idx": 135, "lat": 36.212091780179861, "lon": 129.15774399383417, "priority": 2, "score": 55.4, "s1": 5.3, "s2": 13.8, "s3": 11.4, "s4": 8.9, "s5": 5.0, "dp": 4.2, "dr": 14.0, "du": 1.1, "dem": 2.44 }, "geometry": { "type": "Point", "coordinates": [ 129.157743993834174, 36.212091780179861 ] } },
{ "type": "Feature", "properties": { "idx": 136, "lat": 36.662665676101128, "lon": 129.16735721794367, "priority": 2, "score": 53.8, "s1": 2.7, "s2": 13.9, "s3": 11.8, "s4": 9.7, "s5": 5.0, "dp": 6.2, "dr": 17.1, "du": 2.0, "dem": 2.12 }, "geometry": { "type": "Point", "coordinates": [ 129.167357217943675, 36.662665676101128 ] } },
{ "type": "Feature", "properties": { "idx": 138, "lat": 37.023098608788189, "lon": 129.17520308309926, "priority": 2, "score": 55.1, "s1": 4.0, "s2": 13.7, "s3": 10.8, "s4": 10.5, "s5": 5.0, "dp": 6.8, "dr": 3.7, "du": 4.0, "dem": 2.61 }, "geometry": { "type": "Point", "coordinates": [ 129.175203083099262, 37.023098608788189 ] } },
{ "type": "Feature", "properties": { "idx": 142, "lat": 36.570940355230213, "lon": 129.27713296805217, "priority": 2, "score": 55.9, "s1": 3.5, "s2": 13.3, "s3": 10.6, "s4": 9.3, "s5": 8.0, "dp": 3.2, "dr": 5.6, "du": 1.5, "dem": 3.42 }, "geometry": { "type": "Point", "coordinates": [ 129.277132968052172, 36.570940355230213 ] } },
{ "type": "Feature", "properties": { "idx": 143, "lat": 36.751152086742977, "lon": 129.28128163354796, "priority": 2, "score": 53.6, "s1": 2.1, "s2": 14.1, "s3": 11.8, "s4": 10.0, "s5": 5.0, "dp": 11.0, "dr": 10.0, "du": 2.6, "dem": 1.86 }, "geometry": { "type": "Point", "coordinates": [ 129.281281633547962, 36.751152086742977 ] } },
{ "type": "Feature", "properties": { "idx": 146, "lat": 35.848361387997983, "lon": 129.37158954283311, "priority": 2, "score": 54.6, "s1": 4.9, "s2": 14.5, "s3": 9.7, "s4": 9.6, "s5": 5.0, "dp": 1.5, "dr": 3.0, "du": 1.9, "dem": 0.97 }, "geometry": { "type": "Point", "coordinates": [ 129.371589542833107, 35.848361387997983 ] } }
]
}
