{
"type": "FeatureCollection",
"name": "density_req_sparse",
"crs": { "type": "name", "properties": { "name": "urn:ogc:def:crs:OGC:1.3:CRS84" } },
"features": [
{ "type": "Feature", "properties": { "sigma_nT": 34.0, "sigma_obs": 1, "spacing_req": 68.9, "spacing_now": 51.4, "deficit": 0.75, "sp_tier": "sparse", "df_tier": "ok" }, "geometry": { "type": "Polygon", "coordinates": [ [ [ 127.35, 36.65 ], [ 127.35, 36.75 ], [ 127.25, 36.75 ], [ 127.25, 36.65 ], [ 127.35, 36.65 ] ] ] } },
{ "type": "Feature", "properties": { "sigma_nT": 37.0, "sigma_obs": 1, "spacing_req": 65.9, "spacing_now": 53.7, "deficit": 0.82, "sp_tier": "sparse", "df_tier": "ok" }, "geometry": { "type": "Polygon", "coordinates": [ [ [ 127.35, 36.75 ], [ 127.35, 36.85 ], [ 127.25, 36.85 ], [ 127.25, 36.75 ], [ 127.35, 36.75 ] ] ] } },
{ "type": "Feature", "properties": { "sigma_nT": 35.0, "sigma_obs": 1, "spacing_req": 67.7, "spacing_now": 37.1, "deficit": 0.55, "sp_tier": "sparse", "df_tier": "ok" }, "geometry": { "type": "Polygon", "coordinates": [ [ [ 127.45, 36.75 ], [ 127.45, 36.85 ], [ 127.35, 36.85 ], [ 127.35, 36.75 ], [ 127.45, 36.75 ] ] ] } },
{ "type": "Feature", "properties": { "sigma_nT": 34.0, "sigma_obs": 1, "spacing_req": 68.5, "spacing_now": 51.0, "deficit": 0.74, "sp_tier": "sparse", "df_tier": "ok" }, "geometry": { "type": "Polygon", "coordinates": [ [ [ 127.45, 36.85 ], [ 127.45, 36.95 ], [ 127.35, 36.95 ], [ 127.35, 36.85 ], [ 127.45, 36.85 ] ] ] } },
{ "type": "Feature", "properties": { "sigma_nT": 33.0, "sigma_obs": 1, "spacing_req": 69.6, "spacing_now": 69.3, "deficit": 0.99, "sp_tier": "sparse", "df_tier": "ok" }, "geometry": { "type": "Polygon", "coordinates": [ [ [ 127.45, 36.95 ], [ 127.45, 37.05 ], [ 127.35, 37.05 ], [ 127.35, 36.95 ], [ 127.45, 36.95 ] ] ] } },
{ "type": "Feature", "properties": { "sigma_nT": 36.0, "sigma_obs": 1, "spacing_req": 66.9, "spacing_now": 53.9, "deficit": 0.81, "sp_tier": "sparse", "df_tier": "ok" }, "geometry": { "type": "Polygon", "coordinates": [ [ [ 128.549999999999869, 36.95 ], [ 128.549999999999869, 37.05 ], [ 128.449999999999847, 37.05 ], [ 128.449999999999847, 36.95 ], [ 128.549999999999869, 36.95 ] ] ] } },
{ "type": "Feature", "properties": { "sigma_nT": 32.0, "sigma_obs": 1, "spacing_req": 70.6, "spacing_now": 48.7, "deficit": 0.69, "sp_tier": "sparse", "df_tier": "ok" }, "geometry": { "type": "Polygon", "coordinates": [ [ [ 128.649999999999864, 36.95 ], [ 128.649999999999864, 37.05 ], [ 128.549999999999841, 37.05 ], [ 128.549999999999841, 36.95 ], [ 128.649999999999864, 36.95 ] ] ] } },
{ "type": "Feature", "properties": { "sigma_nT": 36.0, "sigma_obs": 1, "spacing_req": 66.6, "spacing_now": 83.5, "deficit": 1.25, "sp_tier": "sparse", "df_tier": "mild" }, "geometry": { "type": "Polygon", "coordinates": [ [ [ 127.45, 37.05 ], [ 127.45, 37.15 ], [ 127.35, 37.15 ], [ 127.35, 37.05 ], [ 127.45, 37.05 ] ] ] } },
{ "type": "Feature", "properties": { "sigma_nT": 37.0, "sigma_obs": 1, "spacing_req": 66.5, "spacing_now": 78.0, "deficit": 1.17, "sp_tier": "sparse", "df_tier": "mild" }, "geometry": { "type": "Polygon", "coordinates": [ [ [ 127.55, 37.05 ], [ 127.55, 37.15 ], [ 127.45, 37.15 ], [ 127.45, 37.05 ], [ 127.55, 37.05 ] ] ] } },
{ "type": "Feature", "properties": { "sigma_nT": 36.0, "sigma_obs": 1, "spacing_req": 67.1, "spacing_now": 51.6, "deficit": 0.77, "sp_tier": "sparse", "df_tier": "ok" }, "geometry": { "type": "Polygon", "coordinates": [ [ [ 128.549999999999869, 37.05 ], [ 128.549999999999869, 37.15 ], [ 128.449999999999847, 37.15 ], [ 128.449999999999847, 37.05 ], [ 128.549999999999869, 37.05 ] ] ] } },
{ "type": "Feature", "properties": { "sigma_nT": 32.0, "sigma_obs": 1, "spacing_req": 71.5, "spacing_now": 59.5, "deficit": 0.83, "sp_tier": "sparse", "df_tier": "ok" }, "geometry": { "type": "Polygon", "coordinates": [ [ [ 128.649999999999864, 37.05 ], [ 128.649999999999864, 37.15 ], [ 128.549999999999841, 37.15 ], [ 128.549999999999841, 37.05 ], [ 128.649999999999864, 37.05 ] ] ] } },
{ "type": "Feature", "properties": { "sigma_nT": 37.0, "sigma_obs": 1, "spacing_req": 66.4, "spacing_now": 63.8, "deficit": 0.96, "sp_tier": "sparse", "df_tier": "ok" }, "geometry": { "type": "Polygon", "coordinates": [ [ [ 127.45, 37.15 ], [ 127.45, 37.25 ], [ 127.35, 37.25 ], [ 127.35, 37.15 ], [ 127.45, 37.15 ] ] ] } },
{ "type": "Feature", "properties": { "sigma_nT": 32.0, "sigma_obs": 1, "spacing_req": 70.9, "spacing_now": 56.6, "deficit": 0.8, "sp_tier": "sparse", "df_tier": "ok" }, "geometry": { "type": "Polygon", "coordinates": [ [ [ 127.55, 37.15 ], [ 127.55, 37.25 ], [ 127.45, 37.25 ], [ 127.45, 37.15 ], [ 127.55, 37.15 ] ] ] } },
{ "type": "Feature", "properties": { "sigma_nT": 38.0, "sigma_obs": 1, "spacing_req": 65.1, "spacing_now": 54.3, "deficit": 0.83, "sp_tier": "sparse", "df_tier": "ok" }, "geometry": { "type": "Polygon", "coordinates": [ [ [ 127.65, 37.15 ], [ 127.65, 37.25 ], [ 127.55, 37.25 ], [ 127.55, 37.15 ], [ 127.65, 37.15 ] ] ] } },
{ "type": "Feature", "properties": { "sigma_nT": 33.0, "sigma_obs": 1, "spacing_req": 70.1, "spacing_now": 64.7, "deficit": 0.92, "sp_tier": "sparse", "df_tier": "ok" }, "geometry": { "type": "Polygon", "coordinates": [ [ [ 128.649999999999864, 37.15 ], [ 128.649999999999864, 37.25 ], [ 128.549999999999841, 37.25 ], [ 128.549999999999841, 37.15 ], [ 128.649999999999864, 37.15 ] ] ] } },
{ "type": "Feature", "properties": { "sigma_nT": 32.0, "sigma_obs": 1, "spacing_req": 70.8, "spacing_now": 46.5, "deficit": 0.66, "sp_tier": "sparse", "df_tier": "ok" }, "geometry": { "type": "Polygon", "coordinates": [ [ [ 127.45, 37.25 ], [ 127.45, 37.35 ], [ 127.35, 37.35 ], [ 127.35, 37.25 ], [ 127.45, 37.25 ] ] ] } },
{ "type": "Feature", "properties": { "sigma_nT": 30.0, "sigma_obs": 1, "spacing_req": 73.7, "spacing_now": 35.9, "deficit": 0.49, "sp_tier": "sparse", "df_tier": "ok" }, "geometry": { "type": "Polygon", "coordinates": [ [ [ 127.55, 37.25 ], [ 127.55, 37.35 ], [ 127.45, 37.35 ], [ 127.45, 37.25 ], [ 127.55, 37.25 ] ] ] } },
{ "type": "Feature", "properties": { "sigma_nT": 30.0, "sigma_obs": 1, "spacing_req": 73.9, "spacing_now": 32.2, "deficit": 0.44, "sp_tier": "sparse", "df_tier": "ok" }, "geometry": { "type": "Polygon", "coordinates": [ [ [ 127.65, 37.25 ], [ 127.65, 37.35 ], [ 127.55, 37.35 ], [ 127.55, 37.25 ], [ 127.65, 37.25 ] ] ] } },
{ "type": "Feature", "properties": { "sigma_nT": 36.0, "sigma_obs": 1, "spacing_req": 66.6, "spacing_now": 37.6, "deficit": 0.56, "sp_tier": "sparse", "df_tier": "ok" }, "geometry": { "type": "Polygon", "coordinates": [ [ [ 127.75, 37.25 ], [ 127.75, 37.35 ], [ 127.65, 37.35 ], [ 127.65, 37.25 ], [ 127.75, 37.25 ] ] ] } },
{ "type": "Feature", "properties": { "sigma_nT": 37.0, "sigma_obs": 1, "spacing_req": 66.3, "spacing_now": 51.1, "deficit": 0.77, "sp_tier": "sparse", "df_tier": "ok" }, "geometry": { "type": "Polygon", "coordinates": [ [ [ 128.649999999999864, 37.25 ], [ 128.649999999999864, 37.35 ], [ 128.549999999999841, 37.35 ], [ 128.549999999999841, 37.25 ], [ 128.649999999999864, 37.25 ] ] ] } },
{ "type": "Feature", "properties": { "sigma_nT": 26.0, "sigma_obs": 1, "spacing_req": 78.4, "spacing_now": 35.1, "deficit": 0.45, "sp_tier": "sparse", "df_tier": "ok" }, "geometry": { "type": "Polygon", "coordinates": [ [ [ 127.45, 37.35 ], [ 127.45, 37.45 ], [ 127.35, 37.45 ], [ 127.35, 37.35 ], [ 127.45, 37.35 ] ] ] } },
{ "type": "Feature", "properties": { "sigma_nT": 25.0, "sigma_obs": 1, "spacing_req": 80.6, "spacing_now": 18.8, "deficit": 0.23, "sp_tier": "sparse", "df_tier": "ok" }, "geometry": { "type": "Polygon", "coordinates": [ [ [ 127.55, 37.35 ], [ 127.55, 37.45 ], [ 127.45, 37.45 ], [ 127.45, 37.35 ], [ 127.55, 37.35 ] ] ] } },
{ "type": "Feature", "properties": { "sigma_nT": 29.0, "sigma_obs": 1, "spacing_req": 74.4, "spacing_now": 10.2, "deficit": 0.14, "sp_tier": "sparse", "df_tier": "ok" }, "geometry": { "type": "Polygon", "coordinates": [ [ [ 127.65, 37.35 ], [ 127.65, 37.45 ], [ 127.55, 37.45 ], [ 127.55, 37.35 ], [ 127.65, 37.35 ] ] ] } },
{ "type": "Feature", "properties": { "sigma_nT": 33.0, "sigma_obs": 1, "spacing_req": 70.1, "spacing_now": 21.9, "deficit": 0.31, "sp_tier": "sparse", "df_tier": "ok" }, "geometry": { "type": "Polygon", "coordinates": [ [ [ 127.75, 37.35 ], [ 127.75, 37.45 ], [ 127.65, 37.45 ], [ 127.65, 37.35 ], [ 127.75, 37.35 ] ] ] } },
{ "type": "Feature", "properties": { "sigma_nT": 35.0, "sigma_obs": 1, "spacing_req": 67.9, "spacing_now": 38.5, "deficit": 0.57, "sp_tier": "sparse", "df_tier": "ok" }, "geometry": { "type": "Polygon", "coordinates": [ [ [ 127.849999999999895, 37.35 ], [ 127.849999999999895, 37.45 ], [ 127.75, 37.45 ], [ 127.75, 37.35 ], [ 127.849999999999895, 37.35 ] ] ] } },
{ "type": "Feature", "properties": { "sigma_nT": 38.0, "sigma_obs": 1, "spacing_req": 65.3, "spacing_now": 55.7, "deficit": 0.85, "sp_tier": "sparse", "df_tier": "ok" }, "geometry": { "type": "Polygon", "coordinates": [ [ [ 127.949999999999889, 37.35 ], [ 127.949999999999889, 37.45 ], [ 127.849999999999895, 37.45 ], [ 127.849999999999895, 37.35 ], [ 127.949999999999889, 37.35 ] ] ] } },
{ "type": "Feature", "properties": { "sigma_nT": 37.0, "sigma_obs": 1, "spacing_req": 66.3, "spacing_now": 44.8, "deficit": 0.68, "sp_tier": "sparse", "df_tier": "ok" }, "geometry": { "type": "Polygon", "coordinates": [ [ [ 128.649999999999864, 37.35 ], [ 128.649999999999864, 37.45 ], [ 128.549999999999841, 37.45 ], [ 128.549999999999841, 37.35 ], [ 128.649999999999864, 37.35 ] ] ] } },
{ "type": "Feature", "properties": { "sigma_nT": 37.0, "sigma_obs": 1, "spacing_req": 65.9, "spacing_now": 27.2, "deficit": 0.41, "sp_tier": "sparse", "df_tier": "ok" }, "geometry": { "type": "Polygon", "coordinates": [ [ [ 128.749999999999858, 37.35 ], [ 128.749999999999858, 37.45 ], [ 128.649999999999835, 37.45 ], [ 128.649999999999835, 37.35 ], [ 128.749999999999858, 37.35 ] ] ] } },
{ "type": "Feature", "properties": { "sigma_nT": 36.0, "sigma_obs": 1, "spacing_req": 66.5, "spacing_now": 70.0, "deficit": 1.05, "sp_tier": "sparse", "df_tier": "mild" }, "geometry": { "type": "Polygon", "coordinates": [ [ [ 127.25, 37.45 ], [ 127.25, 37.55 ], [ 127.15, 37.55 ], [ 127.15, 37.45 ], [ 127.25, 37.45 ] ] ] } },
{ "type": "Feature", "properties": { "sigma_nT": 36.0, "sigma_obs": 1, "spacing_req": 67.2, "spacing_now": 52.6, "deficit": 0.78, "sp_tier": "sparse", "df_tier": "ok" }, "geometry": { "type": "Polygon", "coordinates": [ [ [ 127.35, 37.45 ], [ 127.35, 37.55 ], [ 127.25, 37.55 ], [ 127.25, 37.45 ], [ 127.35, 37.45 ] ] ] } },
{ "type": "Feature", "properties": { "sigma_nT": 30.0, "sigma_obs": 1, "spacing_req": 73.3, "spacing_now": 35.7, "deficit": 0.49, "sp_tier": "sparse", "df_tier": "ok" }, "geometry": { "type": "Polygon", "coordinates": [ [ [ 127.45, 37.45 ], [ 127.45, 37.55 ], [ 127.35, 37.55 ], [ 127.35, 37.45 ], [ 127.45, 37.45 ] ] ] } },
{ "type": "Feature", "properties": { "sigma_nT": 31.0, "sigma_obs": 1, "spacing_req": 72.1, "spacing_now": 20.0, "deficit": 0.28, "sp_tier": "sparse", "df_tier": "ok" }, "geometry": { "type": "Polygon", "coordinates": [ [ [ 127.55, 37.45 ], [ 127.55, 37.55 ], [ 127.45, 37.55 ], [ 127.45, 37.45 ], [ 127.55, 37.45 ] ] ] } },
{ "type": "Feature", "properties": { "sigma_nT": 37.0, "sigma_obs": 1, "spacing_req": 66.2, "spacing_now": 12.2, "deficit": 0.18, "sp_tier": "sparse", "df_tier": "ok" }, "geometry": { "type": "Polygon", "coordinates": [ [ [ 127.65, 37.45 ], [ 127.65, 37.55 ], [ 127.55, 37.55 ], [ 127.55, 37.45 ], [ 127.65, 37.45 ] ] ] } },
{ "type": "Feature", "properties": { "sigma_nT": 34.0, "sigma_obs": 1, "spacing_req": 68.5, "spacing_now": 43.1, "deficit": 0.63, "sp_tier": "sparse", "df_tier": "ok" }, "geometry": { "type": "Polygon", "coordinates": [ [ [ 128.649999999999864, 37.45 ], [ 128.649999999999864, 37.55 ], [ 128.549999999999841, 37.55 ], [ 128.549999999999841, 37.45 ], [ 128.649999999999864, 37.45 ] ] ] } },
{ "type": "Feature", "properties": { "sigma_nT": 36.0, "sigma_obs": 1, "spacing_req": 66.8, "spacing_now": 33.5, "deficit": 0.5, "sp_tier": "sparse", "df_tier": "ok" }, "geometry": { "type": "Polygon", "coordinates": [ [ [ 128.749999999999858, 37.45 ], [ 128.749999999999858, 37.55 ], [ 128.649999999999835, 37.55 ], [ 128.649999999999835, 37.45 ], [ 128.749999999999858, 37.45 ] ] ] } },
{ "type": "Feature", "properties": { "sigma_nT": 37.0, "sigma_obs": 1, "spacing_req": 66.2, "spacing_now": 76.9, "deficit": 1.16, "sp_tier": "sparse", "df_tier": "mild" }, "geometry": { "type": "Polygon", "coordinates": [ [ [ 127.25, 37.55 ], [ 127.25, 37.65 ], [ 127.15, 37.65 ], [ 127.15, 37.55 ], [ 127.25, 37.55 ] ] ] } },
{ "type": "Feature", "properties": { "sigma_nT": 38.0, "sigma_obs": 1, "spacing_req": 65.3, "spacing_now": 47.9, "deficit": 0.73, "sp_tier": "sparse", "df_tier": "ok" }, "geometry": { "type": "Polygon", "coordinates": [ [ [ 127.45, 37.55 ], [ 127.45, 37.65 ], [ 127.35, 37.65 ], [ 127.35, 37.55 ], [ 127.45, 37.55 ] ] ] } },
{ "type": "Feature", "properties": { "sigma_nT": 38.0, "sigma_obs": 1, "spacing_req": 65.3, "spacing_now": 37.7, "deficit": 0.58, "sp_tier": "sparse", "df_tier": "ok" }, "geometry": { "type": "Polygon", "coordinates": [ [ [ 127.55, 37.55 ], [ 127.55, 37.65 ], [ 127.45, 37.65 ], [ 127.45, 37.55 ], [ 127.55, 37.55 ] ] ] } },
{ "type": "Feature", "properties": { "sigma_nT": 38.0, "sigma_obs": 1, "spacing_req": 65.4, "spacing_now": 35.0, "deficit": 0.54, "sp_tier": "sparse", "df_tier": "ok" }, "geometry": { "type": "Polygon", "coordinates": [ [ [ 128.249999999999886, 37.55 ], [ 128.249999999999886, 37.65 ], [ 128.149999999999864, 37.65 ], [ 128.149999999999864, 37.55 ], [ 128.249999999999886, 37.55 ] ] ] } },
{ "type": "Feature", "properties": { "sigma_nT": 37.0, "sigma_obs": 1, "spacing_req": 66.2, "spacing_now": 17.4, "deficit": 0.26, "sp_tier": "sparse", "df_tier": "ok" }, "geometry": { "type": "Polygon", "coordinates": [ [ [ 128.349999999999881, 37.55 ], [ 128.349999999999881, 37.65 ], [ 128.249999999999858, 37.65 ], [ 128.249999999999858, 37.55 ], [ 128.349999999999881, 37.55 ] ] ] } },
{ "type": "Feature", "properties": { "sigma_nT": 37.0, "sigma_obs": 1, "spacing_req": 66.4, "spacing_now": 2.1, "deficit": 0.03, "sp_tier": "sparse", "df_tier": "ok" }, "geometry": { "type": "Polygon", "coordinates": [ [ [ 128.449999999999875, 37.55 ], [ 128.449999999999875, 37.65 ], [ 128.349999999999852, 37.65 ], [ 128.349999999999852, 37.55 ], [ 128.449999999999875, 37.55 ] ] ] } },
{ "type": "Feature", "properties": { "sigma_nT": 36.0, "sigma_obs": 1, "spacing_req": 66.8, "spacing_now": 18.1, "deficit": 0.27, "sp_tier": "sparse", "df_tier": "ok" }, "geometry": { "type": "Polygon", "coordinates": [ [ [ 128.549999999999869, 37.55 ], [ 128.549999999999869, 37.65 ], [ 128.449999999999847, 37.65 ], [ 128.449999999999847, 37.55 ], [ 128.549999999999869, 37.55 ] ] ] } },
{ "type": "Feature", "properties": { "sigma_nT": 32.0, "sigma_obs": 1, "spacing_req": 70.8, "spacing_now": 35.7, "deficit": 0.5, "sp_tier": "sparse", "df_tier": "ok" }, "geometry": { "type": "Polygon", "coordinates": [ [ [ 128.649999999999864, 37.55 ], [ 128.649999999999864, 37.65 ], [ 128.549999999999841, 37.65 ], [ 128.549999999999841, 37.55 ], [ 128.649999999999864, 37.55 ] ] ] } },
{ "type": "Feature", "properties": { "sigma_nT": 34.0, "sigma_obs": 1, "spacing_req": 68.6, "spacing_now": 49.8, "deficit": 0.73, "sp_tier": "sparse", "df_tier": "ok" }, "geometry": { "type": "Polygon", "coordinates": [ [ [ 128.749999999999858, 37.55 ], [ 128.749999999999858, 37.65 ], [ 128.649999999999835, 37.65 ], [ 128.649999999999835, 37.55 ], [ 128.749999999999858, 37.55 ] ] ] } },
{ "type": "Feature", "properties": { "sigma_nT": 34.0, "sigma_obs": 1, "spacing_req": 69.4, "spacing_now": 8.4, "deficit": 0.12, "sp_tier": "sparse", "df_tier": "ok" }, "geometry": { "type": "Polygon", "coordinates": [ [ [ 126.55, 37.65 ], [ 126.55, 37.75 ], [ 126.45, 37.75 ], [ 126.45, 37.65 ], [ 126.55, 37.65 ] ] ] } },
{ "type": "Feature", "properties": { "sigma_nT": 37.0, "sigma_obs": 1, "spacing_req": 65.7, "spacing_now": 40.2, "deficit": 0.61, "sp_tier": "sparse", "df_tier": "ok" }, "geometry": { "type": "Polygon", "coordinates": [ [ [ 128.249999999999886, 37.65 ], [ 128.249999999999886, 37.75 ], [ 128.149999999999864, 37.75 ], [ 128.149999999999864, 37.65 ], [ 128.249999999999886, 37.65 ] ] ] } },
{ "type": "Feature", "properties": { "sigma_nT": 36.0, "sigma_obs": 1, "spacing_req": 66.6, "spacing_now": 26.5, "deficit": 0.4, "sp_tier": "sparse", "df_tier": "ok" }, "geometry": { "type": "Polygon", "coordinates": [ [ [ 128.349999999999881, 37.65 ], [ 128.349999999999881, 37.75 ], [ 128.249999999999858, 37.75 ], [ 128.249999999999858, 37.65 ], [ 128.349999999999881, 37.65 ] ] ] } },
{ "type": "Feature", "properties": { "sigma_nT": 36.0, "sigma_obs": 1, "spacing_req": 66.8, "spacing_now": 20.0, "deficit": 0.3, "sp_tier": "sparse", "df_tier": "ok" }, "geometry": { "type": "Polygon", "coordinates": [ [ [ 128.449999999999875, 37.65 ], [ 128.449999999999875, 37.75 ], [ 128.349999999999852, 37.75 ], [ 128.349999999999852, 37.65 ], [ 128.449999999999875, 37.65 ] ] ] } },
{ "type": "Feature", "properties": { "sigma_nT": 35.0, "sigma_obs": 1, "spacing_req": 67.6, "spacing_now": 26.9, "deficit": 0.4, "sp_tier": "sparse", "df_tier": "ok" }, "geometry": { "type": "Polygon", "coordinates": [ [ [ 128.549999999999869, 37.65 ], [ 128.549999999999869, 37.75 ], [ 128.449999999999847, 37.75 ], [ 128.449999999999847, 37.65 ], [ 128.549999999999869, 37.65 ] ] ] } },
{ "type": "Feature", "properties": { "sigma_nT": 32.0, "sigma_obs": 1, "spacing_req": 71.3, "spacing_now": 40.8, "deficit": 0.57, "sp_tier": "sparse", "df_tier": "ok" }, "geometry": { "type": "Polygon", "coordinates": [ [ [ 128.649999999999864, 37.65 ], [ 128.649999999999864, 37.75 ], [ 128.549999999999841, 37.75 ], [ 128.549999999999841, 37.65 ], [ 128.649999999999864, 37.65 ] ] ] } },
{ "type": "Feature", "properties": { "sigma_nT": 33.0, "sigma_obs": 1, "spacing_req": 70.1, "spacing_now": 56.9, "deficit": 0.81, "sp_tier": "sparse", "df_tier": "ok" }, "geometry": { "type": "Polygon", "coordinates": [ [ [ 128.749999999999858, 37.65 ], [ 128.749999999999858, 37.75 ], [ 128.649999999999835, 37.75 ], [ 128.649999999999835, 37.65 ], [ 128.749999999999858, 37.65 ] ] ] } },
{ "type": "Feature", "properties": { "sigma_nT": 32.0, "sigma_obs": 1, "spacing_req": 70.8, "spacing_now": 64.6, "deficit": 0.91, "sp_tier": "sparse", "df_tier": "ok" }, "geometry": { "type": "Polygon", "coordinates": [ [ [ 128.849999999999852, 37.65 ], [ 128.849999999999852, 37.75 ], [ 128.749999999999829, 37.75 ], [ 128.749999999999829, 37.65 ], [ 128.849999999999852, 37.65 ] ] ] } },
{ "type": "Feature", "properties": { "sigma_nT": 33.0, "sigma_obs": 1, "spacing_req": 69.9, "spacing_now": 64.5, "deficit": 0.92, "sp_tier": "sparse", "df_tier": "ok" }, "geometry": { "type": "Polygon", "coordinates": [ [ [ 128.949999999999847, 37.65 ], [ 128.949999999999847, 37.75 ], [ 128.849999999999824, 37.75 ], [ 128.849999999999824, 37.65 ], [ 128.949999999999847, 37.65 ] ] ] } },
{ "type": "Feature", "properties": { "sigma_nT": 33.0, "sigma_obs": 1, "spacing_req": 70.2, "spacing_now": 69.0, "deficit": 0.98, "sp_tier": "sparse", "df_tier": "ok" }, "geometry": { "type": "Polygon", "coordinates": [ [ [ 129.049999999999841, 37.65 ], [ 129.049999999999841, 37.75 ], [ 128.949999999999818, 37.75 ], [ 128.949999999999818, 37.65 ], [ 129.049999999999841, 37.65 ] ] ] } },
{ "type": "Feature", "properties": { "sigma_nT": 11.0, "sigma_obs": 1, "spacing_req": 119.6, "spacing_now": 48.4, "deficit": 0.4, "sp_tier": "sparse", "df_tier": "ok" }, "geometry": { "type": "Polygon", "coordinates": [ [ [ 127.05, 37.75 ], [ 127.05, 37.85 ], [ 126.95, 37.85 ], [ 126.95, 37.75 ], [ 127.05, 37.75 ] ] ] } },
{ "type": "Feature", "properties": { "sigma_nT": 9.0, "sigma_obs": 1, "spacing_req": 136.2, "spacing_now": 42.7, "deficit": 0.31, "sp_tier": "sparse", "df_tier": "ok" }, "geometry": { "type": "Polygon", "coordinates": [ [ [ 127.15, 37.75 ], [ 127.15, 37.85 ], [ 127.05, 37.85 ], [ 127.05, 37.75 ], [ 127.15, 37.75 ] ] ] } },
{ "type": "Feature", "properties": { "sigma_nT": 29.0, "sigma_obs": 1, "spacing_req": 75.1, "spacing_now": 43.8, "deficit": 0.58, "sp_tier": "sparse", "df_tier": "ok" }, "geometry": { "type": "Polygon", "coordinates": [ [ [ 127.25, 37.75 ], [ 127.25, 37.85 ], [ 127.15, 37.85 ], [ 127.15, 37.75 ], [ 127.25, 37.75 ] ] ] } },
{ "type": "Feature", "properties": { "sigma_nT": 38.0, "sigma_obs": 1, "spacing_req": 65.1, "spacing_now": 61.9, "deficit": 0.95, "sp_tier": "sparse", "df_tier": "ok" }, "geometry": { "type": "Polygon", "coordinates": [ [ [ 128.149999999999892, 37.75 ], [ 128.149999999999892, 37.85 ], [ 128.049999999999869, 37.85 ], [ 128.049999999999869, 37.75 ], [ 128.149999999999892, 37.75 ] ] ] } },
{ "type": "Feature", "properties": { "sigma_nT": 35.0, "sigma_obs": 1, "spacing_req": 67.9, "spacing_now": 51.9, "deficit": 0.77, "sp_tier": "sparse", "df_tier": "ok" }, "geometry": { "type": "Polygon", "coordinates": [ [ [ 128.249999999999886, 37.75 ], [ 128.249999999999886, 37.85 ], [ 128.149999999999864, 37.85 ], [ 128.149999999999864, 37.75 ], [ 128.249999999999886, 37.75 ] ] ] } },
{ "type": "Feature", "properties": { "sigma_nT": 34.0, "sigma_obs": 1, "spacing_req": 68.6, "spacing_now": 45.5, "deficit": 0.66, "sp_tier": "sparse", "df_tier": "ok" }, "geometry": { "type": "Polygon", "coordinates": [ [ [ 128.349999999999881, 37.75 ], [ 128.349999999999881, 37.85 ], [ 128.249999999999858, 37.85 ], [ 128.249999999999858, 37.75 ], [ 128.349999999999881, 37.75 ] ] ] } },
{ "type": "Feature", "properties": { "sigma_nT": 32.0, "sigma_obs": 1, "spacing_req": 71.4, "spacing_now": 42.1, "deficit": 0.59, "sp_tier": "sparse", "df_tier": "ok" }, "geometry": { "type": "Polygon", "coordinates": [ [ [ 128.449999999999875, 37.75 ], [ 128.449999999999875, 37.85 ], [ 128.349999999999852, 37.85 ], [ 128.349999999999852, 37.75 ], [ 128.449999999999875, 37.75 ] ] ] } },
{ "type": "Feature", "properties": { "sigma_nT": 29.0, "sigma_obs": 1, "spacing_req": 74.2, "spacing_now": 45.8, "deficit": 0.62, "sp_tier": "sparse", "df_tier": "ok" }, "geometry": { "type": "Polygon", "coordinates": [ [ [ 128.549999999999869, 37.75 ], [ 128.549999999999869, 37.85 ], [ 128.449999999999847, 37.85 ], [ 128.449999999999847, 37.75 ], [ 128.549999999999869, 37.75 ] ] ] } },
{ "type": "Feature", "properties": { "sigma_nT": 26.0, "sigma_obs": 1, "spacing_req": 78.3, "spacing_now": 55.1, "deficit": 0.7, "sp_tier": "sparse", "df_tier": "ok" }, "geometry": { "type": "Polygon", "coordinates": [ [ [ 128.649999999999864, 37.75 ], [ 128.649999999999864, 37.85 ], [ 128.549999999999841, 37.85 ], [ 128.549999999999841, 37.75 ], [ 128.649999999999864, 37.75 ] ] ] } },
{ "type": "Feature", "properties": { "sigma_nT": 30.0, "sigma_obs": 1, "spacing_req": 74.0, "spacing_now": 67.9, "deficit": 0.92, "sp_tier": "sparse", "df_tier": "ok" }, "geometry": { "type": "Polygon", "coordinates": [ [ [ 128.749999999999858, 37.75 ], [ 128.749999999999858, 37.85 ], [ 128.649999999999835, 37.85 ], [ 128.649999999999835, 37.75 ], [ 128.749999999999858, 37.75 ] ] ] } },
{ "type": "Feature", "properties": { "sigma_nT": 28.0, "sigma_obs": 1, "spacing_req": 75.5, "spacing_now": 82.4, "deficit": 1.09, "sp_tier": "sparse", "df_tier": "mild" }, "geometry": { "type": "Polygon", "coordinates": [ [ [ 128.849999999999852, 37.75 ], [ 128.849999999999852, 37.85 ], [ 128.749999999999829, 37.85 ], [ 128.749999999999829, 37.75 ], [ 128.849999999999852, 37.75 ] ] ] } },
{ "type": "Feature", "properties": { "sigma_nT": 29.0, "sigma_obs": 1, "spacing_req": 74.2, "spacing_now": 86.5, "deficit": 1.17, "sp_tier": "sparse", "df_tier": "mild" }, "geometry": { "type": "Polygon", "coordinates": [ [ [ 128.949999999999847, 37.75 ], [ 128.949999999999847, 37.85 ], [ 128.849999999999824, 37.85 ], [ 128.849999999999824, 37.75 ], [ 128.949999999999847, 37.75 ] ] ] } },
{ "type": "Feature", "properties": { "sigma_nT": 31.0, "sigma_obs": 1, "spacing_req": 72.6, "spacing_now": 89.9, "deficit": 1.24, "sp_tier": "sparse", "df_tier": "mild" }, "geometry": { "type": "Polygon", "coordinates": [ [ [ 129.049999999999841, 37.75 ], [ 129.049999999999841, 37.85 ], [ 128.949999999999818, 37.85 ], [ 128.949999999999818, 37.75 ], [ 129.049999999999841, 37.75 ] ] ] } },
{ "type": "Feature", "properties": { "sigma_nT": 12.0, "sigma_obs": 1, "spacing_req": 117.4, "spacing_now": 31.0, "deficit": 0.26, "sp_tier": "sparse", "df_tier": "ok" }, "geometry": { "type": "Polygon", "coordinates": [ [ [ 127.05, 37.85 ], [ 127.05, 37.95 ], [ 126.95, 37.95 ], [ 126.95, 37.85 ], [ 127.05, 37.85 ] ] ] } },
{ "type": "Feature", "properties": { "sigma_nT": 9.0, "sigma_obs": 1, "spacing_req": 133.9, "spacing_now": 21.0, "deficit": 0.16, "sp_tier": "sparse", "df_tier": "ok" }, "geometry": { "type": "Polygon", "coordinates": [ [ [ 127.15, 37.85 ], [ 127.15, 37.95 ], [ 127.05, 37.95 ], [ 127.05, 37.85 ], [ 127.15, 37.85 ] ] ] } },
{ "type": "Feature", "properties": { "sigma_nT": 37.0, "sigma_obs": 1, "spacing_req": 66.0, "spacing_now": 23.1, "deficit": 0.35, "sp_tier": "sparse", "df_tier": "ok" }, "geometry": { "type": "Polygon", "coordinates": [ [ [ 127.25, 37.85 ], [ 127.25, 37.95 ], [ 127.15, 37.95 ], [ 127.15, 37.85 ], [ 127.25, 37.85 ] ] ] } },
{ "type": "Feature", "properties": { "sigma_nT": 32.0, "sigma_obs": 1, "spacing_req": 70.5, "spacing_now": 63.3, "deficit": 0.9, "sp_tier": "sparse", "df_tier": "ok" }, "geometry": { "type": "Polygon", "coordinates": [ [ [ 128.049999999999898, 37.85 ], [ 128.049999999999898, 37.95 ], [ 127.949999999999889, 37.95 ], [ 127.949999999999889, 37.85 ], [ 128.049999999999898, 37.85 ] ] ] } },
{ "type": "Feature", "properties": { "sigma_nT": 32.0, "sigma_obs": 1, "spacing_req": 70.9, "spacing_now": 47.6, "deficit": 0.67, "sp_tier": "sparse", "df_tier": "ok" }, "geometry": { "type": "Polygon", "coordinates": [ [ [ 128.149999999999892, 37.85 ], [ 128.149999999999892, 37.95 ], [ 128.049999999999869, 37.95 ], [ 128.049999999999869, 37.85 ], [ 128.149999999999892, 37.85 ] ] ] } },
{ "type": "Feature", "properties": { "sigma_nT": 34.0, "sigma_obs": 1, "spacing_req": 69.1, "spacing_now": 33.7, "deficit": 0.49, "sp_tier": "sparse", "df_tier": "ok" }, "geometry": { "type": "Polygon", "coordinates": [ [ [ 128.249999999999886, 37.85 ], [ 128.249999999999886, 37.95 ], [ 128.149999999999864, 37.95 ], [ 128.149999999999864, 37.85 ], [ 128.249999999999886, 37.85 ] ] ] } },
{ "type": "Feature", "properties": { "sigma_nT": 34.0, "sigma_obs": 1, "spacing_req": 69.4, "spacing_now": 24.9, "deficit": 0.36, "sp_tier": "sparse", "df_tier": "ok" }, "geometry": { "type": "Polygon", "coordinates": [ [ [ 128.349999999999881, 37.85 ], [ 128.349999999999881, 37.95 ], [ 128.249999999999858, 37.95 ], [ 128.249999999999858, 37.85 ], [ 128.349999999999881, 37.85 ] ] ] } },
{ "type": "Feature", "properties": { "sigma_nT": 31.0, "sigma_obs": 1, "spacing_req": 72.4, "spacing_now": 27.0, "deficit": 0.37, "sp_tier": "sparse", "df_tier": "ok" }, "geometry": { "type": "Polygon", "coordinates": [ [ [ 128.449999999999875, 37.85 ], [ 128.449999999999875, 37.95 ], [ 128.349999999999852, 37.95 ], [ 128.349999999999852, 37.85 ], [ 128.449999999999875, 37.85 ] ] ] } },
{ "type": "Feature", "properties": { "sigma_nT": 29.0, "sigma_obs": 1, "spacing_req": 74.2, "spacing_now": 38.0, "deficit": 0.51, "sp_tier": "sparse", "df_tier": "ok" }, "geometry": { "type": "Polygon", "coordinates": [ [ [ 128.549999999999869, 37.85 ], [ 128.549999999999869, 37.95 ], [ 128.449999999999847, 37.95 ], [ 128.449999999999847, 37.85 ], [ 128.549999999999869, 37.85 ] ] ] } },
{ "type": "Feature", "properties": { "sigma_nT": 25.0, "sigma_obs": 1, "spacing_req": 81.1, "spacing_now": 52.8, "deficit": 0.65, "sp_tier": "sparse", "df_tier": "ok" }, "geometry": { "type": "Polygon", "coordinates": [ [ [ 128.649999999999864, 37.85 ], [ 128.649999999999864, 37.95 ], [ 128.549999999999841, 37.95 ], [ 128.549999999999841, 37.85 ], [ 128.649999999999864, 37.85 ] ] ] } },
{ "type": "Feature", "properties": { "sigma_nT": 24.0, "sigma_obs": 1, "spacing_req": 82.3, "spacing_now": 68.8, "deficit": 0.84, "sp_tier": "sparse", "df_tier": "ok" }, "geometry": { "type": "Polygon", "coordinates": [ [ [ 128.749999999999858, 37.85 ], [ 128.749999999999858, 37.95 ], [ 128.649999999999835, 37.95 ], [ 128.649999999999835, 37.85 ], [ 128.749999999999858, 37.85 ] ] ] } },
{ "type": "Feature", "properties": { "sigma_nT": 21.0, "sigma_obs": 1, "spacing_req": 88.1, "spacing_now": 85.5, "deficit": 0.97, "sp_tier": "sparse", "df_tier": "ok" }, "geometry": { "type": "Polygon", "coordinates": [ [ [ 128.849999999999852, 37.85 ], [ 128.849999999999852, 37.95 ], [ 128.749999999999829, 37.95 ], [ 128.749999999999829, 37.85 ], [ 128.849999999999852, 37.85 ] ] ] } },
{ "type": "Feature", "properties": { "sigma_nT": 21.0, "sigma_obs": 1, "spacing_req": 88.3, "spacing_now": 102.4, "deficit": 1.16, "sp_tier": "sparse", "df_tier": "mild" }, "geometry": { "type": "Polygon", "coordinates": [ [ [ 128.949999999999847, 37.85 ], [ 128.949999999999847, 37.95 ], [ 128.849999999999824, 37.95 ], [ 128.849999999999824, 37.85 ], [ 128.949999999999847, 37.85 ] ] ] } },
{ "type": "Feature", "properties": { "sigma_nT": 31.0, "sigma_obs": 1, "spacing_req": 72.5, "spacing_now": 58.5, "deficit": 0.81, "sp_tier": "sparse", "df_tier": "ok" }, "geometry": { "type": "Polygon", "coordinates": [ [ [ 128.049999999999898, 37.95 ], [ 128.049999999999898, 38.05 ], [ 127.949999999999889, 38.05 ], [ 127.949999999999889, 37.95 ], [ 128.049999999999898, 37.95 ] ] ] } },
{ "type": "Feature", "properties": { "sigma_nT": 30.0, "sigma_obs": 1, "spacing_req": 74.0, "spacing_now": 40.9, "deficit": 0.55, "sp_tier": "sparse", "df_tier": "ok" }, "geometry": { "type": "Polygon", "coordinates": [ [ [ 128.149999999999892, 37.95 ], [ 128.149999999999892, 38.05 ], [ 128.049999999999869, 38.05 ], [ 128.049999999999869, 37.95 ], [ 128.149999999999892, 37.95 ] ] ] } },
{ "type": "Feature", "properties": { "sigma_nT": 32.0, "sigma_obs": 1, "spacing_req": 71.4, "spacing_now": 23.4, "deficit": 0.33, "sp_tier": "sparse", "df_tier": "ok" }, "geometry": { "type": "Polygon", "coordinates": [ [ [ 128.249999999999886, 37.95 ], [ 128.249999999999886, 38.05 ], [ 128.149999999999864, 38.05 ], [ 128.149999999999864, 37.95 ], [ 128.249999999999886, 37.95 ] ] ] } },
{ "type": "Feature", "properties": { "sigma_nT": 32.0, "sigma_obs": 1, "spacing_req": 71.1, "spacing_now": 6.2, "deficit": 0.09, "sp_tier": "sparse", "df_tier": "ok" }, "geometry": { "type": "Polygon", "coordinates": [ [ [ 128.349999999999881, 37.95 ], [ 128.349999999999881, 38.05 ], [ 128.249999999999858, 38.05 ], [ 128.249999999999858, 37.95 ], [ 128.349999999999881, 37.95 ] ] ] } },
{ "type": "Feature", "properties": { "sigma_nT": 29.0, "sigma_obs": 1, "spacing_req": 74.2, "spacing_now": 11.9, "deficit": 0.16, "sp_tier": "sparse", "df_tier": "ok" }, "geometry": { "type": "Polygon", "coordinates": [ [ [ 128.449999999999875, 37.95 ], [ 128.449999999999875, 38.05 ], [ 128.349999999999852, 38.05 ], [ 128.349999999999852, 37.95 ], [ 128.449999999999875, 37.95 ] ] ] } },
{ "type": "Feature", "properties": { "sigma_nT": 27.0, "sigma_obs": 1, "spacing_req": 76.9, "spacing_now": 29.4, "deficit": 0.38, "sp_tier": "sparse", "df_tier": "ok" }, "geometry": { "type": "Polygon", "coordinates": [ [ [ 128.549999999999869, 37.95 ], [ 128.549999999999869, 38.05 ], [ 128.449999999999847, 38.05 ], [ 128.449999999999847, 37.95 ], [ 128.549999999999869, 37.95 ] ] ] } },
{ "type": "Feature", "properties": { "sigma_nT": 23.0, "sigma_obs": 1, "spacing_req": 83.1, "spacing_now": 46.9, "deficit": 0.56, "sp_tier": "sparse", "df_tier": "ok" }, "geometry": { "type": "Polygon", "coordinates": [ [ [ 128.649999999999864, 37.95 ], [ 128.649999999999864, 38.05 ], [ 128.549999999999841, 38.05 ], [ 128.549999999999841, 37.95 ], [ 128.649999999999864, 37.95 ] ] ] } },
{ "type": "Feature", "properties": { "sigma_nT": 22.0, "sigma_obs": 1, "spacing_req": 86.4, "spacing_now": 64.4, "deficit": 0.75, "sp_tier": "sparse", "df_tier": "ok" }, "geometry": { "type": "Polygon", "coordinates": [ [ [ 128.749999999999858, 37.95 ], [ 128.749999999999858, 38.05 ], [ 128.649999999999835, 38.05 ], [ 128.649999999999835, 37.95 ], [ 128.749999999999858, 37.95 ] ] ] } },
{ "type": "Feature", "properties": { "sigma_nT": 17.0, "sigma_obs": 1, "spacing_req": 97.9, "spacing_now": 81.9, "deficit": 0.84, "sp_tier": "sparse", "df_tier": "ok" }, "geometry": { "type": "Polygon", "coordinates": [ [ [ 128.849999999999852, 37.95 ], [ 128.849999999999852, 38.05 ], [ 128.749999999999829, 38.05 ], [ 128.749999999999829, 37.95 ], [ 128.849999999999852, 37.95 ] ] ] } },
{ "type": "Feature", "properties": { "sigma_nT": 31.0, "sigma_obs": 1, "spacing_req": 72.7, "spacing_now": 55.0, "deficit": 0.76, "sp_tier": "sparse", "df_tier": "ok" }, "geometry": { "type": "Polygon", "coordinates": [ [ [ 128.049999999999898, 38.05 ], [ 128.049999999999898, 38.15 ], [ 127.949999999999889, 38.15 ], [ 127.949999999999889, 38.05 ], [ 128.049999999999898, 38.05 ] ] ] } },
{ "type": "Feature", "properties": { "sigma_nT": 31.0, "sigma_obs": 1, "spacing_req": 72.5, "spacing_now": 45.5, "deficit": 0.63, "sp_tier": "sparse", "df_tier": "ok" }, "geometry": { "type": "Polygon", "coordinates": [ [ [ 128.149999999999892, 38.05 ], [ 128.149999999999892, 38.15 ], [ 128.049999999999869, 38.15 ], [ 128.049999999999869, 38.05 ], [ 128.149999999999892, 38.05 ] ] ] } },
{ "type": "Feature", "properties": { "sigma_nT": 31.0, "sigma_obs": 1, "spacing_req": 72.7, "spacing_now": 30.7, "deficit": 0.42, "sp_tier": "sparse", "df_tier": "ok" }, "geometry": { "type": "Polygon", "coordinates": [ [ [ 128.249999999999886, 38.05 ], [ 128.249999999999886, 38.15 ], [ 128.149999999999864, 38.15 ], [ 128.149999999999864, 38.05 ], [ 128.249999999999886, 38.05 ] ] ] } },
{ "type": "Feature", "properties": { "sigma_nT": 31.0, "sigma_obs": 1, "spacing_req": 72.4, "spacing_now": 20.8, "deficit": 0.29, "sp_tier": "sparse", "df_tier": "ok" }, "geometry": { "type": "Polygon", "coordinates": [ [ [ 128.349999999999881, 38.05 ], [ 128.349999999999881, 38.15 ], [ 128.249999999999858, 38.15 ], [ 128.249999999999858, 38.05 ], [ 128.349999999999881, 38.05 ] ] ] } },
{ "type": "Feature", "properties": { "sigma_nT": 27.0, "sigma_obs": 1, "spacing_req": 77.3, "spacing_now": 23.2, "deficit": 0.3, "sp_tier": "sparse", "df_tier": "ok" }, "geometry": { "type": "Polygon", "coordinates": [ [ [ 128.449999999999875, 38.05 ], [ 128.449999999999875, 38.15 ], [ 128.349999999999852, 38.15 ], [ 128.349999999999852, 38.05 ], [ 128.449999999999875, 38.05 ] ] ] } },
{ "type": "Feature", "properties": { "sigma_nT": 24.0, "sigma_obs": 1, "spacing_req": 81.8, "spacing_now": 35.4, "deficit": 0.43, "sp_tier": "sparse", "df_tier": "ok" }, "geometry": { "type": "Polygon", "coordinates": [ [ [ 128.549999999999869, 38.05 ], [ 128.549999999999869, 38.15 ], [ 128.449999999999847, 38.15 ], [ 128.449999999999847, 38.05 ], [ 128.549999999999869, 38.05 ] ] ] } },
{ "type": "Feature", "properties": { "sigma_nT": 21.0, "sigma_obs": 1, "spacing_req": 87.7, "spacing_now": 50.9, "deficit": 0.58, "sp_tier": "sparse", "df_tier": "ok" }, "geometry": { "type": "Polygon", "coordinates": [ [ [ 128.649999999999864, 38.05 ], [ 128.649999999999864, 38.15 ], [ 128.549999999999841, 38.15 ], [ 128.549999999999841, 38.05 ], [ 128.649999999999864, 38.05 ] ] ] } },
{ "type": "Feature", "properties": { "sigma_nT": 21.0, "sigma_obs": 1, "spacing_req": 86.7, "spacing_now": 67.4, "deficit": 0.78, "sp_tier": "sparse", "df_tier": "ok" }, "geometry": { "type": "Polygon", "coordinates": [ [ [ 128.749999999999858, 38.05 ], [ 128.749999999999858, 38.15 ], [ 128.649999999999835, 38.15 ], [ 128.649999999999835, 38.05 ], [ 128.749999999999858, 38.05 ] ] ] } },
{ "type": "Feature", "properties": { "sigma_nT": 4.0, "sigma_obs": 1, "spacing_req": 199.8, "spacing_now": 27.2, "deficit": 0.14, "sp_tier": "sparse", "df_tier": "ok" }, "geometry": { "type": "Polygon", "coordinates": [ [ [ 127.849999999999895, 38.15 ], [ 127.849999999999895, 38.25 ], [ 127.75, 38.25 ], [ 127.75, 38.15 ], [ 127.849999999999895, 38.15 ] ] ] } },
{ "type": "Feature", "properties": { "sigma_nT": 15.0, "sigma_obs": 1, "spacing_req": 104.8, "spacing_now": 41.8, "deficit": 0.4, "sp_tier": "sparse", "df_tier": "ok" }, "geometry": { "type": "Polygon", "coordinates": [ [ [ 127.949999999999889, 38.15 ], [ 127.949999999999889, 38.25 ], [ 127.849999999999895, 38.25 ], [ 127.849999999999895, 38.15 ], [ 127.949999999999889, 38.15 ] ] ] } },
{ "type": "Feature", "properties": { "sigma_nT": 18.0, "sigma_obs": 1, "spacing_req": 96.0, "spacing_now": 57.9, "deficit": 0.6, "sp_tier": "sparse", "df_tier": "ok" }, "geometry": { "type": "Polygon", "coordinates": [ [ [ 128.049999999999898, 38.15 ], [ 128.049999999999898, 38.25 ], [ 127.949999999999889, 38.25 ], [ 127.949999999999889, 38.15 ], [ 128.049999999999898, 38.15 ] ] ] } },
{ "type": "Feature", "properties": { "sigma_nT": 16.0, "sigma_obs": 1, "spacing_req": 101.2, "spacing_now": 58.6, "deficit": 0.58, "sp_tier": "sparse", "df_tier": "ok" }, "geometry": { "type": "Polygon", "coordinates": [ [ [ 128.149999999999892, 38.15 ], [ 128.149999999999892, 38.25 ], [ 128.049999999999869, 38.25 ], [ 128.049999999999869, 38.15 ], [ 128.149999999999892, 38.15 ] ] ] } },
{ "type": "Feature", "properties": { "sigma_nT": 17.0, "sigma_obs": 1, "spacing_req": 98.6, "spacing_now": 48.1, "deficit": 0.49, "sp_tier": "sparse", "df_tier": "ok" }, "geometry": { "type": "Polygon", "coordinates": [ [ [ 128.249999999999886, 38.15 ], [ 128.249999999999886, 38.25 ], [ 128.149999999999864, 38.25 ], [ 128.149999999999864, 38.15 ], [ 128.249999999999886, 38.15 ] ] ] } },
{ "type": "Feature", "properties": { "sigma_nT": 25.0, "sigma_obs": 1, "spacing_req": 79.7, "spacing_now": 42.5, "deficit": 0.53, "sp_tier": "sparse", "df_tier": "ok" }, "geometry": { "type": "Polygon", "coordinates": [ [ [ 128.349999999999881, 38.15 ], [ 128.349999999999881, 38.25 ], [ 128.249999999999858, 38.25 ], [ 128.249999999999858, 38.15 ], [ 128.349999999999881, 38.15 ] ] ] } },
{ "type": "Feature", "properties": { "sigma_nT": 21.0, "sigma_obs": 1, "spacing_req": 87.9, "spacing_now": 43.7, "deficit": 0.5, "sp_tier": "sparse", "df_tier": "ok" }, "geometry": { "type": "Polygon", "coordinates": [ [ [ 128.449999999999875, 38.15 ], [ 128.449999999999875, 38.25 ], [ 128.349999999999852, 38.25 ], [ 128.349999999999852, 38.15 ], [ 128.449999999999875, 38.15 ] ] ] } },
{ "type": "Feature", "properties": { "sigma_nT": 20.0, "sigma_obs": 1, "spacing_req": 90.6, "spacing_now": 51.2, "deficit": 0.57, "sp_tier": "sparse", "df_tier": "ok" }, "geometry": { "type": "Polygon", "coordinates": [ [ [ 128.549999999999869, 38.15 ], [ 128.549999999999869, 38.25 ], [ 128.449999999999847, 38.25 ], [ 128.449999999999847, 38.15 ], [ 128.549999999999869, 38.15 ] ] ] } },
{ "type": "Feature", "properties": { "sigma_nT": 21.0, "sigma_obs": 1, "spacing_req": 88.4, "spacing_now": 62.9, "deficit": 0.71, "sp_tier": "sparse", "df_tier": "ok" }, "geometry": { "type": "Polygon", "coordinates": [ [ [ 128.649999999999864, 38.15 ], [ 128.649999999999864, 38.25 ], [ 128.549999999999841, 38.25 ], [ 128.549999999999841, 38.15 ], [ 128.649999999999864, 38.15 ] ] ] } },
{ "type": "Feature", "properties": { "sigma_nT": 18.0, "sigma_obs": 1, "spacing_req": 94.6, "spacing_now": 65.3, "deficit": 0.69, "sp_tier": "sparse", "df_tier": "ok" }, "geometry": { "type": "Polygon", "coordinates": [ [ [ 128.449999999999875, 38.25 ], [ 128.449999999999875, 38.35 ], [ 128.349999999999852, 38.35 ], [ 128.349999999999852, 38.25 ], [ 128.449999999999875, 38.25 ] ] ] } },
{ "type": "Feature", "properties": { "sigma_nT": 18.0, "sigma_obs": 1, "spacing_req": 96.0, "spacing_now": 70.5, "deficit": 0.74, "sp_tier": "sparse", "df_tier": "ok" }, "geometry": { "type": "Polygon", "coordinates": [ [ [ 128.549999999999869, 38.25 ], [ 128.549999999999869, 38.35 ], [ 128.449999999999847, 38.35 ], [ 128.449999999999847, 38.25 ], [ 128.549999999999869, 38.25 ] ] ] } },
{ "type": "Feature", "properties": { "sigma_nT": 18.0, "sigma_obs": 1, "spacing_req": 96.0, "spacing_now": 79.4, "deficit": 0.83, "sp_tier": "sparse", "df_tier": "ok" }, "geometry": { "type": "Polygon", "coordinates": [ [ [ 128.649999999999864, 38.25 ], [ 128.649999999999864, 38.35 ], [ 128.549999999999841, 38.35 ], [ 128.549999999999841, 38.25 ], [ 128.649999999999864, 38.25 ] ] ] } }
]
}
