{
"type": "FeatureCollection",
"name": "density_gap_ok",
"crs": { "type": "name", "properties": { "name": "urn:ogc:def:crs:OGC:1.3:CRS84" } },
"features": [
{ "type": "Feature", "properties": { "sigma_nT": 28.0, "sigma_obs": 1, "spacing_req": 68.3, "spacing_now": 73.2, "cover_km": 31.6, "site_area": 5352.0, "deficit": 1.07, "deficit_rel": 0.65, "sp_tier": "sparse", "df_tier": "ok" }, "geometry": { "type": "Polygon", "coordinates": [ [ [ 126.75, 36.25 ], [ 126.75, 36.35 ], [ 126.65, 36.35 ], [ 126.65, 36.25 ], [ 126.75, 36.25 ] ] ] } },
{ "type": "Feature", "properties": { "sigma_nT": 30.0, "sigma_obs": 1, "spacing_req": 66.7, "spacing_now": 73.2, "cover_km": 24.1, "site_area": 5352.0, "deficit": 1.1, "deficit_rel": 0.66, "sp_tier": "sparse", "df_tier": "ok" }, "geometry": { "type": "Polygon", "coordinates": [ [ [ 126.85, 36.25 ], [ 126.85, 36.35 ], [ 126.75, 36.35 ], [ 126.75, 36.25 ], [ 126.85, 36.25 ] ] ] } },
{ "type": "Feature", "properties": { "sigma_nT": 33.0, "sigma_obs": 1, "spacing_req": 63.4, "spacing_now": 73.2, "cover_km": 27.9, "site_area": 5352.0, "deficit": 1.15, "deficit_rel": 0.7, "sp_tier": "coarse", "df_tier": "ok" }, "geometry": { "type": "Polygon", "coordinates": [ [ [ 126.75, 36.35 ], [ 126.75, 36.45 ], [ 126.65, 36.45 ], [ 126.65, 36.35 ], [ 126.75, 36.35 ] ] ] } },
{ "type": "Feature", "properties": { "sigma_nT": 32.0, "sigma_obs": 1, "spacing_req": 64.2, "spacing_now": 73.2, "cover_km": 19.1, "site_area": 5352.0, "deficit": 1.14, "deficit_rel": 0.69, "sp_tier": "coarse", "df_tier": "ok" }, "geometry": { "type": "Polygon", "coordinates": [ [ [ 126.85, 36.35 ], [ 126.85, 36.45 ], [ 126.75, 36.45 ], [ 126.75, 36.35 ], [ 126.85, 36.35 ] ] ] } },
{ "type": "Feature", "properties": { "sigma_nT": 37.0, "sigma_obs": 1, "spacing_req": 60.1, "spacing_now": 67.4, "cover_km": 29.1, "site_area": 4537.0, "deficit": 1.12, "deficit_rel": 0.68, "sp_tier": "coarse", "df_tier": "ok" }, "geometry": { "type": "Polygon", "coordinates": [ [ [ 127.35, 36.55 ], [ 127.35, 36.65 ], [ 127.25, 36.65 ], [ 127.25, 36.55 ], [ 127.35, 36.55 ] ] ] } },
{ "type": "Feature", "properties": { "sigma_nT": 33.0, "sigma_obs": 1, "spacing_req": 63.1, "spacing_now": 67.4, "cover_km": 25.7, "site_area": 4537.0, "deficit": 1.07, "deficit_rel": 0.65, "sp_tier": "coarse", "df_tier": "ok" }, "geometry": { "type": "Polygon", "coordinates": [ [ [ 127.35, 36.65 ], [ 127.35, 36.75 ], [ 127.25, 36.75 ], [ 127.25, 36.65 ], [ 127.35, 36.65 ] ] ] } },
{ "type": "Feature", "properties": { "sigma_nT": 35.0, "sigma_obs": 1, "spacing_req": 61.3, "spacing_now": 67.4, "cover_km": 16.8, "site_area": 4537.0, "deficit": 1.1, "deficit_rel": 0.67, "sp_tier": "coarse", "df_tier": "ok" }, "geometry": { "type": "Polygon", "coordinates": [ [ [ 127.45, 36.65 ], [ 127.45, 36.75 ], [ 127.35, 36.75 ], [ 127.35, 36.65 ], [ 127.45, 36.65 ] ] ] } },
{ "type": "Feature", "properties": { "sigma_nT": 37.0, "sigma_obs": 1, "spacing_req": 60.1, "spacing_now": 63.0, "cover_km": 38.9, "site_area": 3963.0, "deficit": 1.05, "deficit_rel": 0.63, "sp_tier": "coarse", "df_tier": "ok" }, "geometry": { "type": "Polygon", "coordinates": [ [ [ 128.249999999999886, 36.65 ], [ 128.249999999999886, 36.75 ], [ 128.149999999999864, 36.75 ], [ 128.149999999999864, 36.65 ], [ 128.249999999999886, 36.65 ] ] ] } },
{ "type": "Feature", "properties": { "sigma_nT": 42.0, "sigma_obs": 1, "spacing_req": 56.4, "spacing_now": 63.0, "cover_km": 41.7, "site_area": 3963.0, "deficit": 1.12, "deficit_rel": 0.68, "sp_tier": "coarse", "df_tier": "ok" }, "geometry": { "type": "Polygon", "coordinates": [ [ [ 128.349999999999881, 36.65 ], [ 128.349999999999881, 36.75 ], [ 128.249999999999858, 36.75 ], [ 128.249999999999858, 36.65 ], [ 128.349999999999881, 36.65 ] ] ] } },
{ "type": "Feature", "properties": { "sigma_nT": 40.0, "sigma_obs": 1, "spacing_req": 57.1, "spacing_now": 64.2, "cover_km": 44.7, "site_area": 4126.0, "deficit": 1.13, "deficit_rel": 0.68, "sp_tier": "coarse", "df_tier": "ok" }, "geometry": { "type": "Polygon", "coordinates": [ [ [ 128.449999999999875, 36.65 ], [ 128.449999999999875, 36.75 ], [ 128.349999999999852, 36.75 ], [ 128.349999999999852, 36.65 ], [ 128.449999999999875, 36.65 ] ] ] } },
{ "type": "Feature", "properties": { "sigma_nT": 29.0, "sigma_obs": 1, "spacing_req": 67.5, "spacing_now": 67.4, "cover_km": 35.4, "site_area": 4537.0, "deficit": 1.0, "deficit_rel": 0.6, "sp_tier": "sparse", "df_tier": "ok" }, "geometry": { "type": "Polygon", "coordinates": [ [ [ 127.25, 36.75 ], [ 127.25, 36.85 ], [ 127.15, 36.85 ], [ 127.15, 36.75 ], [ 127.25, 36.75 ] ] ] } },
{ "type": "Feature", "properties": { "sigma_nT": 29.0, "sigma_obs": 1, "spacing_req": 67.2, "spacing_now": 67.4, "cover_km": 26.8, "site_area": 4537.0, "deficit": 1.0, "deficit_rel": 0.61, "sp_tier": "sparse", "df_tier": "ok" }, "geometry": { "type": "Polygon", "coordinates": [ [ [ 127.35, 36.75 ], [ 127.35, 36.85 ], [ 127.25, 36.85 ], [ 127.25, 36.75 ], [ 127.35, 36.75 ] ] ] } },
{ "type": "Feature", "properties": { "sigma_nT": 32.0, "sigma_obs": 1, "spacing_req": 64.0, "spacing_now": 67.4, "cover_km": 18.6, "site_area": 4537.0, "deficit": 1.05, "deficit_rel": 0.64, "sp_tier": "coarse", "df_tier": "ok" }, "geometry": { "type": "Polygon", "coordinates": [ [ [ 127.45, 36.75 ], [ 127.45, 36.85 ], [ 127.35, 36.85 ], [ 127.35, 36.75 ], [ 127.45, 36.75 ] ] ] } },
{ "type": "Feature", "properties": { "sigma_nT": 34.0, "sigma_obs": 1, "spacing_req": 62.4, "spacing_now": 64.2, "cover_km": 31.4, "site_area": 4126.0, "deficit": 1.03, "deficit_rel": 0.62, "sp_tier": "coarse", "df_tier": "ok" }, "geometry": { "type": "Polygon", "coordinates": [ [ [ 128.349999999999881, 36.75 ], [ 128.349999999999881, 36.85 ], [ 128.249999999999858, 36.85 ], [ 128.249999999999858, 36.75 ], [ 128.349999999999881, 36.75 ] ] ] } },
{ "type": "Feature", "properties": { "sigma_nT": 32.0, "sigma_obs": 1, "spacing_req": 63.8, "spacing_now": 64.2, "cover_km": 34.7, "site_area": 4126.0, "deficit": 1.01, "deficit_rel": 0.61, "sp_tier": "coarse", "df_tier": "ok" }, "geometry": { "type": "Polygon", "coordinates": [ [ [ 128.449999999999875, 36.75 ], [ 128.449999999999875, 36.85 ], [ 128.349999999999852, 36.85 ], [ 128.349999999999852, 36.75 ], [ 128.449999999999875, 36.75 ] ] ] } },
{ "type": "Feature", "properties": { "sigma_nT": 36.0, "sigma_obs": 1, "spacing_req": 60.6, "spacing_now": 68.0, "cover_km": 35.8, "site_area": 4626.0, "deficit": 1.12, "deficit_rel": 0.68, "sp_tier": "coarse", "df_tier": "ok" }, "geometry": { "type": "Polygon", "coordinates": [ [ [ 128.549999999999869, 36.75 ], [ 128.549999999999869, 36.85 ], [ 128.449999999999847, 36.85 ], [ 128.449999999999847, 36.75 ], [ 128.549999999999869, 36.75 ] ] ] } },
{ "type": "Feature", "properties": { "sigma_nT": 36.0, "sigma_obs": 1, "spacing_req": 60.7, "spacing_now": 67.4, "cover_km": 32.0, "site_area": 4537.0, "deficit": 1.11, "deficit_rel": 0.67, "sp_tier": "coarse", "df_tier": "ok" }, "geometry": { "type": "Polygon", "coordinates": [ [ [ 127.35, 36.85 ], [ 127.35, 36.95 ], [ 127.25, 36.95 ], [ 127.25, 36.85 ], [ 127.35, 36.85 ] ] ] } },
{ "type": "Feature", "properties": { "sigma_nT": 29.0, "sigma_obs": 1, "spacing_req": 67.0, "spacing_now": 67.4, "cover_km": 25.5, "site_area": 4537.0, "deficit": 1.0, "deficit_rel": 0.61, "sp_tier": "sparse", "df_tier": "ok" }, "geometry": { "type": "Polygon", "coordinates": [ [ [ 127.45, 36.85 ], [ 127.45, 36.95 ], [ 127.35, 36.95 ], [ 127.35, 36.85 ], [ 127.45, 36.85 ] ] ] } },
{ "type": "Feature", "properties": { "sigma_nT": 35.0, "sigma_obs": 1, "spacing_req": 61.1, "spacing_now": 67.4, "cover_km": 20.8, "site_area": 4537.0, "deficit": 1.1, "deficit_rel": 0.67, "sp_tier": "coarse", "df_tier": "ok" }, "geometry": { "type": "Polygon", "coordinates": [ [ [ 127.55, 36.85 ], [ 127.55, 36.95 ], [ 127.45, 36.95 ], [ 127.45, 36.85 ], [ 127.55, 36.85 ] ] ] } },
{ "type": "Feature", "properties": { "sigma_nT": 34.0, "sigma_obs": 1, "spacing_req": 62.3, "spacing_now": 64.2, "cover_km": 25.6, "site_area": 4126.0, "deficit": 1.03, "deficit_rel": 0.63, "sp_tier": "coarse", "df_tier": "ok" }, "geometry": { "type": "Polygon", "coordinates": [ [ [ 128.449999999999875, 36.85 ], [ 128.449999999999875, 36.95 ], [ 128.349999999999852, 36.95 ], [ 128.349999999999852, 36.85 ], [ 128.449999999999875, 36.85 ] ] ] } },
{ "type": "Feature", "properties": { "sigma_nT": 31.0, "sigma_obs": 1, "spacing_req": 65.2, "spacing_now": 64.2, "cover_km": 32.1, "site_area": 4126.0, "deficit": 0.99, "deficit_rel": 0.6, "sp_tier": "sparse", "df_tier": "ok" }, "geometry": { "type": "Polygon", "coordinates": [ [ [ 128.549999999999869, 36.85 ], [ 128.549999999999869, 36.95 ], [ 128.449999999999847, 36.95 ], [ 128.449999999999847, 36.85 ], [ 128.549999999999869, 36.85 ] ] ] } },
{ "type": "Feature", "properties": { "sigma_nT": 36.0, "sigma_obs": 1, "spacing_req": 60.5, "spacing_now": 68.0, "cover_km": 24.1, "site_area": 4626.0, "deficit": 1.12, "deficit_rel": 0.68, "sp_tier": "coarse", "df_tier": "ok" }, "geometry": { "type": "Polygon", "coordinates": [ [ [ 128.649999999999864, 36.85 ], [ 128.649999999999864, 36.95 ], [ 128.549999999999841, 36.95 ], [ 128.549999999999841, 36.85 ], [ 128.649999999999864, 36.85 ] ] ] } },
{ "type": "Feature", "properties": { "sigma_nT": 39.0, "sigma_obs": 1, "spacing_req": 58.4, "spacing_now": 67.4, "cover_km": 39.7, "site_area": 4537.0, "deficit": 1.15, "deficit_rel": 0.7, "sp_tier": "coarse", "df_tier": "ok" }, "geometry": { "type": "Polygon", "coordinates": [ [ [ 127.35, 36.95 ], [ 127.35, 37.05 ], [ 127.25, 37.05 ], [ 127.25, 36.95 ], [ 127.35, 36.95 ] ] ] } },
{ "type": "Feature", "properties": { "sigma_nT": 30.0, "sigma_obs": 1, "spacing_req": 66.6, "spacing_now": 67.4, "cover_km": 34.6, "site_area": 4537.0, "deficit": 1.01, "deficit_rel": 0.61, "sp_tier": "sparse", "df_tier": "ok" }, "geometry": { "type": "Polygon", "coordinates": [ [ [ 127.45, 36.95 ], [ 127.45, 37.05 ], [ 127.35, 37.05 ], [ 127.35, 36.95 ], [ 127.45, 36.95 ] ] ] } },
{ "type": "Feature", "properties": { "sigma_nT": 30.0, "sigma_obs": 1, "spacing_req": 65.9, "spacing_now": 67.4, "cover_km": 31.4, "site_area": 4537.0, "deficit": 1.02, "deficit_rel": 0.62, "sp_tier": "sparse", "df_tier": "ok" }, "geometry": { "type": "Polygon", "coordinates": [ [ [ 127.55, 36.95 ], [ 127.55, 37.05 ], [ 127.45, 37.05 ], [ 127.45, 36.95 ], [ 127.55, 36.95 ] ] ] } },
{ "type": "Feature", "properties": { "sigma_nT": 34.0, "sigma_obs": 1, "spacing_req": 62.5, "spacing_now": 64.2, "cover_km": 18.7, "site_area": 4126.0, "deficit": 1.03, "deficit_rel": 0.62, "sp_tier": "coarse", "df_tier": "ok" }, "geometry": { "type": "Polygon", "coordinates": [ [ [ 128.449999999999875, 36.95 ], [ 128.449999999999875, 37.05 ], [ 128.349999999999852, 37.05 ], [ 128.349999999999852, 36.95 ], [ 128.449999999999875, 36.95 ] ] ] } },
{ "type": "Feature", "properties": { "sigma_nT": 33.0, "sigma_obs": 1, "spacing_req": 62.9, "spacing_now": 64.2, "cover_km": 26.9, "site_area": 4126.0, "deficit": 1.02, "deficit_rel": 0.62, "sp_tier": "coarse", "df_tier": "ok" }, "geometry": { "type": "Polygon", "coordinates": [ [ [ 128.549999999999869, 36.95 ], [ 128.549999999999869, 37.05 ], [ 128.449999999999847, 37.05 ], [ 128.449999999999847, 36.95 ], [ 128.549999999999869, 36.95 ] ] ] } },
{ "type": "Feature", "properties": { "sigma_nT": 29.0, "sigma_obs": 1, "spacing_req": 67.7, "spacing_now": 68.0, "cover_km": 25.1, "site_area": 4626.0, "deficit": 1.01, "deficit_rel": 0.61, "sp_tier": "sparse", "df_tier": "ok" }, "geometry": { "type": "Polygon", "coordinates": [ [ [ 128.649999999999864, 36.95 ], [ 128.649999999999864, 37.05 ], [ 128.549999999999841, 37.05 ], [ 128.549999999999841, 36.95 ], [ 128.649999999999864, 36.95 ] ] ] } },
{ "type": "Feature", "properties": { "sigma_nT": 27.0, "sigma_obs": 1, "spacing_req": 69.8, "spacing_now": 76.6, "cover_km": 38.7, "site_area": 5868.0, "deficit": 1.1, "deficit_rel": 0.66, "sp_tier": "sparse", "df_tier": "ok" }, "geometry": { "type": "Polygon", "coordinates": [ [ [ 127.55, 37.05 ], [ 127.55, 37.15 ], [ 127.45, 37.15 ], [ 127.45, 37.05 ], [ 127.55, 37.05 ] ] ] } },
{ "type": "Feature", "properties": { "sigma_nT": 38.0, "sigma_obs": 1, "spacing_req": 58.8, "spacing_now": 64.2, "cover_km": 17.0, "site_area": 4126.0, "deficit": 1.09, "deficit_rel": 0.66, "sp_tier": "coarse", "df_tier": "ok" }, "geometry": { "type": "Polygon", "coordinates": [ [ [ 128.449999999999875, 37.05 ], [ 128.449999999999875, 37.15 ], [ 128.349999999999852, 37.15 ], [ 128.349999999999852, 37.05 ], [ 128.449999999999875, 37.05 ] ] ] } },
{ "type": "Feature", "properties": { "sigma_nT": 35.0, "sigma_obs": 1, "spacing_req": 61.5, "spacing_now": 64.2, "cover_km": 25.8, "site_area": 4126.0, "deficit": 1.04, "deficit_rel": 0.63, "sp_tier": "coarse", "df_tier": "ok" }, "geometry": { "type": "Polygon", "coordinates": [ [ [ 128.549999999999869, 37.05 ], [ 128.549999999999869, 37.15 ], [ 128.449999999999847, 37.15 ], [ 128.449999999999847, 37.05 ], [ 128.549999999999869, 37.05 ] ] ] } },
{ "type": "Feature", "properties": { "sigma_nT": 30.0, "sigma_obs": 1, "spacing_req": 66.4, "spacing_now": 68.0, "cover_km": 30.3, "site_area": 4626.0, "deficit": 1.03, "deficit_rel": 0.62, "sp_tier": "sparse", "df_tier": "ok" }, "geometry": { "type": "Polygon", "coordinates": [ [ [ 128.649999999999864, 37.05 ], [ 128.649999999999864, 37.15 ], [ 128.549999999999841, 37.15 ], [ 128.549999999999841, 37.05 ], [ 128.649999999999864, 37.05 ] ] ] } },
{ "type": "Feature", "properties": { "sigma_nT": 37.0, "sigma_obs": 1, "spacing_req": 60.0, "spacing_now": 68.8, "cover_km": 49.0, "site_area": 4730.0, "deficit": 1.15, "deficit_rel": 0.69, "sp_tier": "coarse", "df_tier": "ok" }, "geometry": { "type": "Polygon", "coordinates": [ [ [ 126.75, 37.15 ], [ 126.75, 37.25 ], [ 126.65, 37.25 ], [ 126.65, 37.15 ], [ 126.75, 37.15 ] ] ] } },
{ "type": "Feature", "properties": { "sigma_nT": 27.0, "sigma_obs": 1, "spacing_req": 69.8, "spacing_now": 76.6, "cover_km": 27.9, "site_area": 5868.0, "deficit": 1.1, "deficit_rel": 0.66, "sp_tier": "sparse", "df_tier": "ok" }, "geometry": { "type": "Polygon", "coordinates": [ [ [ 127.55, 37.15 ], [ 127.55, 37.25 ], [ 127.45, 37.25 ], [ 127.45, 37.15 ], [ 127.55, 37.15 ] ] ] } },
{ "type": "Feature", "properties": { "sigma_nT": 20.0, "sigma_obs": 1, "spacing_req": 81.5, "spacing_now": 76.6, "cover_km": 27.2, "site_area": 5868.0, "deficit": 0.94, "deficit_rel": 0.57, "sp_tier": "sparse", "df_tier": "ok" }, "geometry": { "type": "Polygon", "coordinates": [ [ [ 127.65, 37.15 ], [ 127.65, 37.25 ], [ 127.55, 37.25 ], [ 127.55, 37.15 ], [ 127.65, 37.15 ] ] ] } },
{ "type": "Feature", "properties": { "sigma_nT": 39.0, "sigma_obs": 1, "spacing_req": 57.9, "spacing_now": 64.2, "cover_km": 21.7, "site_area": 4126.0, "deficit": 1.11, "deficit_rel": 0.67, "sp_tier": "coarse", "df_tier": "ok" }, "geometry": { "type": "Polygon", "coordinates": [ [ [ 128.449999999999875, 37.15 ], [ 128.449999999999875, 37.25 ], [ 128.349999999999852, 37.25 ], [ 128.349999999999852, 37.15 ], [ 128.449999999999875, 37.15 ] ] ] } },
{ "type": "Feature", "properties": { "sigma_nT": 37.0, "sigma_obs": 1, "spacing_req": 59.6, "spacing_now": 64.2, "cover_km": 29.1, "site_area": 4126.0, "deficit": 1.08, "deficit_rel": 0.65, "sp_tier": "coarse", "df_tier": "ok" }, "geometry": { "type": "Polygon", "coordinates": [ [ [ 128.549999999999869, 37.15 ], [ 128.549999999999869, 37.25 ], [ 128.449999999999847, 37.25 ], [ 128.449999999999847, 37.15 ], [ 128.549999999999869, 37.15 ] ] ] } },
{ "type": "Feature", "properties": { "sigma_nT": 32.0, "sigma_obs": 1, "spacing_req": 63.8, "spacing_now": 64.2, "cover_km": 37.2, "site_area": 4126.0, "deficit": 1.01, "deficit_rel": 0.61, "sp_tier": "coarse", "df_tier": "ok" }, "geometry": { "type": "Polygon", "coordinates": [ [ [ 128.649999999999864, 37.15 ], [ 128.649999999999864, 37.25 ], [ 128.549999999999841, 37.25 ], [ 128.549999999999841, 37.15 ], [ 128.649999999999864, 37.15 ] ] ] } },
{ "type": "Feature", "properties": { "sigma_nT": 51.0, "sigma_obs": 1, "spacing_req": 50.8, "spacing_now": 57.7, "cover_km": 22.2, "site_area": 3325.0, "deficit": 1.14, "deficit_rel": 0.69, "sp_tier": "coarse", "df_tier": "ok" }, "geometry": { "type": "Polygon", "coordinates": [ [ [ 129.349999999999824, 37.15 ], [ 129.349999999999824, 37.25 ], [ 129.249999999999801, 37.25 ], [ 129.249999999999801, 37.15 ], [ 129.349999999999824, 37.15 ] ] ] } },
{ "type": "Feature", "properties": { "sigma_nT": 49.0, "sigma_obs": 1, "spacing_req": 52.0, "spacing_now": 57.7, "cover_km": 26.8, "site_area": 3325.0, "deficit": 1.11, "deficit_rel": 0.67, "sp_tier": "coarse", "df_tier": "ok" }, "geometry": { "type": "Polygon", "coordinates": [ [ [ 129.449999999999818, 37.15 ], [ 129.449999999999818, 37.25 ], [ 129.349999999999795, 37.25 ], [ 129.349999999999795, 37.15 ], [ 129.449999999999818, 37.15 ] ] ] } },
{ "type": "Feature", "properties": { "sigma_nT": 48.0, "sigma_obs": 1, "spacing_req": 52.4, "spacing_now": 49.4, "cover_km": 49.4, "site_area": 2438.0, "deficit": 0.94, "deficit_rel": 0.57, "sp_tier": "coarse", "df_tier": "ok" }, "geometry": { "type": "Polygon", "coordinates": [ [ [ 126.85, 37.25 ], [ 126.85, 37.35 ], [ 126.75, 37.35 ], [ 126.75, 37.25 ], [ 126.85, 37.25 ] ] ] } },
{ "type": "Feature", "properties": { "sigma_nT": 54.0, "sigma_obs": 1, "spacing_req": 49.4, "spacing_now": 49.4, "cover_km": 55.0, "site_area": 2438.0, "deficit": 1.0, "deficit_rel": 0.61, "sp_tier": "mid", "df_tier": "ok" }, "geometry": { "type": "Polygon", "coordinates": [ [ [ 126.95, 37.25 ], [ 126.95, 37.35 ], [ 126.85, 37.35 ], [ 126.85, 37.25 ], [ 126.95, 37.25 ] ] ] } },
{ "type": "Feature", "properties": { "sigma_nT": 27.0, "sigma_obs": 1, "spacing_req": 70.0, "spacing_now": 76.6, "cover_km": 22.2, "site_area": 5868.0, "deficit": 1.09, "deficit_rel": 0.66, "sp_tier": "sparse", "df_tier": "ok" }, "geometry": { "type": "Polygon", "coordinates": [ [ [ 127.45, 37.25 ], [ 127.45, 37.35 ], [ 127.35, 37.35 ], [ 127.35, 37.25 ], [ 127.45, 37.25 ] ] ] } },
{ "type": "Feature", "properties": { "sigma_nT": 24.0, "sigma_obs": 1, "spacing_req": 73.5, "spacing_now": 76.6, "cover_km": 17.3, "site_area": 5868.0, "deficit": 1.04, "deficit_rel": 0.63, "sp_tier": "sparse", "df_tier": "ok" }, "geometry": { "type": "Polygon", "coordinates": [ [ [ 127.55, 37.25 ], [ 127.55, 37.35 ], [ 127.45, 37.35 ], [ 127.45, 37.25 ], [ 127.55, 37.25 ] ] ] } },
{ "type": "Feature", "properties": { "sigma_nT": 22.0, "sigma_obs": 1, "spacing_req": 77.9, "spacing_now": 76.6, "cover_km": 16.2, "site_area": 5868.0, "deficit": 0.98, "deficit_rel": 0.6, "sp_tier": "sparse", "df_tier": "ok" }, "geometry": { "type": "Polygon", "coordinates": [ [ [ 127.65, 37.25 ], [ 127.65, 37.35 ], [ 127.55, 37.35 ], [ 127.55, 37.25 ], [ 127.65, 37.25 ] ] ] } },
{ "type": "Feature", "properties": { "sigma_nT": 28.0, "sigma_obs": 1, "spacing_req": 68.8, "spacing_now": 76.6, "cover_km": 19.6, "site_area": 5868.0, "deficit": 1.11, "deficit_rel": 0.67, "sp_tier": "sparse", "df_tier": "ok" }, "geometry": { "type": "Polygon", "coordinates": [ [ [ 127.75, 37.25 ], [ 127.75, 37.35 ], [ 127.65, 37.35 ], [ 127.65, 37.25 ], [ 127.75, 37.25 ] ] ] } },
{ "type": "Feature", "properties": { "sigma_nT": 41.0, "sigma_obs": 1, "spacing_req": 56.7, "spacing_now": 64.2, "cover_km": 30.0, "site_area": 4126.0, "deficit": 1.13, "deficit_rel": 0.69, "sp_tier": "coarse", "df_tier": "ok" }, "geometry": { "type": "Polygon", "coordinates": [ [ [ 128.449999999999875, 37.25 ], [ 128.449999999999875, 37.35 ], [ 128.349999999999852, 37.35 ], [ 128.349999999999852, 37.25 ], [ 128.449999999999875, 37.25 ] ] ] } },
{ "type": "Feature", "properties": { "sigma_nT": 40.0, "sigma_obs": 1, "spacing_req": 57.5, "spacing_now": 64.2, "cover_km": 35.7, "site_area": 4126.0, "deficit": 1.12, "deficit_rel": 0.68, "sp_tier": "coarse", "df_tier": "ok" }, "geometry": { "type": "Polygon", "coordinates": [ [ [ 128.549999999999869, 37.25 ], [ 128.549999999999869, 37.35 ], [ 128.449999999999847, 37.35 ], [ 128.449999999999847, 37.25 ], [ 128.549999999999869, 37.25 ] ] ] } },
{ "type": "Feature", "properties": { "sigma_nT": 33.0, "sigma_obs": 1, "spacing_req": 63.1, "spacing_now": 64.0, "cover_km": 39.0, "site_area": 4096.0, "deficit": 1.01, "deficit_rel": 0.61, "sp_tier": "coarse", "df_tier": "ok" }, "geometry": { "type": "Polygon", "coordinates": [ [ [ 128.649999999999864, 37.25 ], [ 128.649999999999864, 37.35 ], [ 128.549999999999841, 37.35 ], [ 128.549999999999841, 37.25 ], [ 128.649999999999864, 37.25 ] ] ] } },
{ "type": "Feature", "properties": { "sigma_nT": 31.0, "sigma_obs": 1, "spacing_req": 64.8, "spacing_now": 68.0, "cover_km": 43.6, "site_area": 4626.0, "deficit": 1.05, "deficit_rel": 0.64, "sp_tier": "coarse", "df_tier": "ok" }, "geometry": { "type": "Polygon", "coordinates": [ [ [ 128.749999999999858, 37.25 ], [ 128.749999999999858, 37.35 ], [ 128.649999999999835, 37.35 ], [ 128.649999999999835, 37.25 ], [ 128.749999999999858, 37.25 ] ] ] } },
{ "type": "Feature", "properties": { "sigma_nT": 52.0, "sigma_obs": 1, "spacing_req": 50.2, "spacing_now": 57.7, "cover_km": 13.1, "site_area": 3325.0, "deficit": 1.15, "deficit_rel": 0.7, "sp_tier": "coarse", "df_tier": "ok" }, "geometry": { "type": "Polygon", "coordinates": [ [ [ 129.149999999999835, 37.25 ], [ 129.149999999999835, 37.35 ], [ 129.049999999999812, 37.35 ], [ 129.049999999999812, 37.25 ], [ 129.149999999999835, 37.25 ] ] ] } },
{ "type": "Feature", "properties": { "sigma_nT": 53.0, "sigma_obs": 1, "spacing_req": 50.0, "spacing_now": 57.7, "cover_km": 9.4, "site_area": 3325.0, "deficit": 1.15, "deficit_rel": 0.7, "sp_tier": "coarse", "df_tier": "ok" }, "geometry": { "type": "Polygon", "coordinates": [ [ [ 129.249999999999829, 37.25 ], [ 129.249999999999829, 37.35 ], [ 129.149999999999807, 37.35 ], [ 129.149999999999807, 37.25 ], [ 129.249999999999829, 37.25 ] ] ] } },
{ "type": "Feature", "properties": { "sigma_nT": 41.0, "sigma_obs": 1, "spacing_req": 57.1, "spacing_now": 57.7, "cover_km": 12.7, "site_area": 3325.0, "deficit": 1.01, "deficit_rel": 0.61, "sp_tier": "coarse", "df_tier": "ok" }, "geometry": { "type": "Polygon", "coordinates": [ [ [ 129.349999999999824, 37.25 ], [ 129.349999999999824, 37.35 ], [ 129.249999999999801, 37.35 ], [ 129.249999999999801, 37.25 ], [ 129.349999999999824, 37.25 ] ] ] } },
{ "type": "Feature", "properties": { "sigma_nT": 45.0, "sigma_obs": 1, "spacing_req": 54.4, "spacing_now": 49.4, "cover_km": 35.3, "site_area": 2438.0, "deficit": 0.91, "deficit_rel": 0.55, "sp_tier": "coarse", "df_tier": "ok" }, "geometry": { "type": "Polygon", "coordinates": [ [ [ 126.75, 37.35 ], [ 126.75, 37.45 ], [ 126.65, 37.45 ], [ 126.65, 37.35 ], [ 126.75, 37.35 ] ] ] } },
{ "type": "Feature", "properties": { "sigma_nT": 50.0, "sigma_obs": 1, "spacing_req": 51.4, "spacing_now": 49.4, "cover_km": 40.9, "site_area": 2438.0, "deficit": 0.96, "deficit_rel": 0.58, "sp_tier": "coarse", "df_tier": "ok" }, "geometry": { "type": "Polygon", "coordinates": [ [ [ 126.85, 37.35 ], [ 126.85, 37.45 ], [ 126.75, 37.45 ], [ 126.75, 37.35 ], [ 126.85, 37.35 ] ] ] } },
{ "type": "Feature", "properties": { "sigma_nT": 58.0, "sigma_obs": 1, "spacing_req": 47.9, "spacing_now": 49.4, "cover_km": 47.4, "site_area": 2438.0, "deficit": 1.03, "deficit_rel": 0.63, "sp_tier": "mid", "df_tier": "ok" }, "geometry": { "type": "Polygon", "coordinates": [ [ [ 126.95, 37.35 ], [ 126.95, 37.45 ], [ 126.85, 37.45 ], [ 126.85, 37.35 ], [ 126.95, 37.35 ] ] ] } },
{ "type": "Feature", "properties": { "sigma_nT": 28.0, "sigma_obs": 1, "spacing_req": 68.1, "spacing_now": 76.6, "cover_km": 24.7, "site_area": 5868.0, "deficit": 1.12, "deficit_rel": 0.68, "sp_tier": "sparse", "df_tier": "ok" }, "geometry": { "type": "Polygon", "coordinates": [ [ [ 127.35, 37.35 ], [ 127.35, 37.45 ], [ 127.25, 37.45 ], [ 127.25, 37.35 ], [ 127.35, 37.35 ] ] ] } },
{ "type": "Feature", "properties": { "sigma_nT": 25.0, "sigma_obs": 1, "spacing_req": 73.3, "spacing_now": 76.6, "cover_km": 16.1, "site_area": 5868.0, "deficit": 1.04, "deficit_rel": 0.63, "sp_tier": "sparse", "df_tier": "ok" }, "geometry": { "type": "Polygon", "coordinates": [ [ [ 127.45, 37.35 ], [ 127.45, 37.45 ], [ 127.35, 37.45 ], [ 127.35, 37.35 ], [ 127.45, 37.35 ] ] ] } },
{ "type": "Feature", "properties": { "sigma_nT": 21.0, "sigma_obs": 1, "spacing_req": 78.7, "spacing_now": 76.6, "cover_km": 8.2, "site_area": 5868.0, "deficit": 0.97, "deficit_rel": 0.59, "sp_tier": "sparse", "df_tier": "ok" }, "geometry": { "type": "Polygon", "coordinates": [ [ [ 127.55, 37.35 ], [ 127.55, 37.45 ], [ 127.45, 37.45 ], [ 127.45, 37.35 ], [ 127.55, 37.35 ] ] ] } },
{ "type": "Feature", "properties": { "sigma_nT": 24.0, "sigma_obs": 1, "spacing_req": 74.6, "spacing_now": 76.6, "cover_km": 5.5, "site_area": 5868.0, "deficit": 1.03, "deficit_rel": 0.62, "sp_tier": "sparse", "df_tier": "ok" }, "geometry": { "type": "Polygon", "coordinates": [ [ [ 127.65, 37.35 ], [ 127.65, 37.45 ], [ 127.55, 37.45 ], [ 127.55, 37.35 ], [ 127.65, 37.35 ] ] ] } },
{ "type": "Feature", "properties": { "sigma_nT": 41.0, "sigma_obs": 1, "spacing_req": 56.5, "spacing_now": 64.0, "cover_km": 25.0, "site_area": 4096.0, "deficit": 1.13, "deficit_rel": 0.69, "sp_tier": "coarse", "df_tier": "ok" }, "geometry": { "type": "Polygon", "coordinates": [ [ [ 128.349999999999881, 37.35 ], [ 128.349999999999881, 37.45 ], [ 128.249999999999858, 37.45 ], [ 128.249999999999858, 37.35 ], [ 128.349999999999881, 37.35 ] ] ] } },
{ "type": "Feature", "properties": { "sigma_nT": 40.0, "sigma_obs": 1, "spacing_req": 57.3, "spacing_now": 64.0, "cover_km": 23.5, "site_area": 4096.0, "deficit": 1.12, "deficit_rel": 0.68, "sp_tier": "coarse", "df_tier": "ok" }, "geometry": { "type": "Polygon", "coordinates": [ [ [ 128.449999999999875, 37.35 ], [ 128.449999999999875, 37.45 ], [ 128.349999999999852, 37.45 ], [ 128.349999999999852, 37.35 ], [ 128.449999999999875, 37.35 ] ] ] } },
{ "type": "Feature", "properties": { "sigma_nT": 39.0, "sigma_obs": 1, "spacing_req": 57.9, "spacing_now": 64.0, "cover_km": 25.2, "site_area": 4096.0, "deficit": 1.1, "deficit_rel": 0.67, "sp_tier": "coarse", "df_tier": "ok" }, "geometry": { "type": "Polygon", "coordinates": [ [ [ 128.549999999999869, 37.35 ], [ 128.549999999999869, 37.45 ], [ 128.449999999999847, 37.45 ], [ 128.449999999999847, 37.35 ], [ 128.549999999999869, 37.35 ] ] ] } },
{ "type": "Feature", "properties": { "sigma_nT": 36.0, "sigma_obs": 1, "spacing_req": 60.6, "spacing_now": 64.0, "cover_km": 29.6, "site_area": 4096.0, "deficit": 1.06, "deficit_rel": 0.64, "sp_tier": "coarse", "df_tier": "ok" }, "geometry": { "type": "Polygon", "coordinates": [ [ [ 128.649999999999864, 37.35 ], [ 128.649999999999864, 37.45 ], [ 128.549999999999841, 37.45 ], [ 128.549999999999841, 37.35 ], [ 128.649999999999864, 37.35 ] ] ] } },
{ "type": "Feature", "properties": { "sigma_nT": 34.0, "sigma_obs": 1, "spacing_req": 62.4, "spacing_now": 64.0, "cover_km": 35.7, "site_area": 4096.0, "deficit": 1.03, "deficit_rel": 0.62, "sp_tier": "coarse", "df_tier": "ok" }, "geometry": { "type": "Polygon", "coordinates": [ [ [ 128.749999999999858, 37.35 ], [ 128.749999999999858, 37.45 ], [ 128.649999999999835, 37.45 ], [ 128.649999999999835, 37.35 ], [ 128.749999999999858, 37.35 ] ] ] } },
{ "type": "Feature", "properties": { "sigma_nT": 47.0, "sigma_obs": 1, "spacing_req": 53.1, "spacing_now": 57.7, "cover_km": 35.7, "site_area": 3325.0, "deficit": 1.09, "deficit_rel": 0.66, "sp_tier": "coarse", "df_tier": "ok" }, "geometry": { "type": "Polygon", "coordinates": [ [ [ 128.849999999999852, 37.35 ], [ 128.849999999999852, 37.45 ], [ 128.749999999999829, 37.45 ], [ 128.749999999999829, 37.35 ], [ 128.849999999999852, 37.35 ] ] ] } },
{ "type": "Feature", "properties": { "sigma_nT": 49.0, "sigma_obs": 1, "spacing_req": 51.6, "spacing_now": 57.7, "cover_km": 26.9, "site_area": 3325.0, "deficit": 1.12, "deficit_rel": 0.68, "sp_tier": "coarse", "df_tier": "ok" }, "geometry": { "type": "Polygon", "coordinates": [ [ [ 128.949999999999847, 37.35 ], [ 128.949999999999847, 37.45 ], [ 128.849999999999824, 37.45 ], [ 128.849999999999824, 37.35 ], [ 128.949999999999847, 37.35 ] ] ] } },
{ "type": "Feature", "properties": { "sigma_nT": 49.0, "sigma_obs": 1, "spacing_req": 51.7, "spacing_now": 57.7, "cover_km": 18.1, "site_area": 3325.0, "deficit": 1.12, "deficit_rel": 0.68, "sp_tier": "coarse", "df_tier": "ok" }, "geometry": { "type": "Polygon", "coordinates": [ [ [ 129.049999999999841, 37.35 ], [ 129.049999999999841, 37.45 ], [ 128.949999999999818, 37.45 ], [ 128.949999999999818, 37.35 ], [ 129.049999999999841, 37.35 ] ] ] } },
{ "type": "Feature", "properties": { "sigma_nT": 52.0, "sigma_obs": 1, "spacing_req": 50.3, "spacing_now": 57.7, "cover_km": 9.3, "site_area": 3325.0, "deficit": 1.15, "deficit_rel": 0.69, "sp_tier": "coarse", "df_tier": "ok" }, "geometry": { "type": "Polygon", "coordinates": [ [ [ 129.149999999999835, 37.35 ], [ 129.149999999999835, 37.45 ], [ 129.049999999999812, 37.45 ], [ 129.049999999999812, 37.35 ], [ 129.149999999999835, 37.35 ] ] ] } },
{ "type": "Feature", "properties": { "sigma_nT": 48.0, "sigma_obs": 1, "spacing_req": 52.6, "spacing_now": 49.4, "cover_km": 26.8, "site_area": 2438.0, "deficit": 0.94, "deficit_rel": 0.57, "sp_tier": "coarse", "df_tier": "ok" }, "geometry": { "type": "Polygon", "coordinates": [ [ [ 126.75, 37.45 ], [ 126.75, 37.55 ], [ 126.65, 37.55 ], [ 126.65, 37.45 ], [ 126.75, 37.45 ] ] ] } },
{ "type": "Feature", "properties": { "sigma_nT": 52.0, "sigma_obs": 1, "spacing_req": 50.2, "spacing_now": 49.4, "cover_km": 33.8, "site_area": 2438.0, "deficit": 0.98, "deficit_rel": 0.6, "sp_tier": "coarse", "df_tier": "ok" }, "geometry": { "type": "Polygon", "coordinates": [ [ [ 126.85, 37.45 ], [ 126.85, 37.55 ], [ 126.75, 37.55 ], [ 126.75, 37.45 ], [ 126.85, 37.45 ] ] ] } },
{ "type": "Feature", "properties": { "sigma_nT": 54.0, "sigma_obs": 1, "spacing_req": 49.4, "spacing_now": 49.4, "cover_km": 41.5, "site_area": 2438.0, "deficit": 1.0, "deficit_rel": 0.61, "sp_tier": "mid", "df_tier": "ok" }, "geometry": { "type": "Polygon", "coordinates": [ [ [ 126.95, 37.45 ], [ 126.95, 37.55 ], [ 126.85, 37.55 ], [ 126.85, 37.45 ], [ 126.95, 37.45 ] ] ] } },
{ "type": "Feature", "properties": { "sigma_nT": 55.0, "sigma_obs": 1, "spacing_req": 48.9, "spacing_now": 49.4, "cover_km": 49.5, "site_area": 2438.0, "deficit": 1.01, "deficit_rel": 0.61, "sp_tier": "mid", "df_tier": "ok" }, "geometry": { "type": "Polygon", "coordinates": [ [ [ 127.05, 37.45 ], [ 127.05, 37.55 ], [ 126.95, 37.55 ], [ 126.95, 37.45 ], [ 127.05, 37.45 ] ] ] } },
{ "type": "Feature", "properties": { "sigma_nT": 26.0, "sigma_obs": 1, "spacing_req": 70.9, "spacing_now": 76.6, "cover_km": 16.5, "site_area": 5868.0, "deficit": 1.08, "deficit_rel": 0.65, "sp_tier": "sparse", "df_tier": "ok" }, "geometry": { "type": "Polygon", "coordinates": [ [ [ 127.45, 37.45 ], [ 127.45, 37.55 ], [ 127.35, 37.55 ], [ 127.35, 37.45 ], [ 127.45, 37.45 ] ] ] } },
{ "type": "Feature", "properties": { "sigma_nT": 28.0, "sigma_obs": 1, "spacing_req": 69.0, "spacing_now": 76.6, "cover_km": 8.9, "site_area": 5868.0, "deficit": 1.11, "deficit_rel": 0.67, "sp_tier": "sparse", "df_tier": "ok" }, "geometry": { "type": "Polygon", "coordinates": [ [ [ 127.55, 37.45 ], [ 127.55, 37.55 ], [ 127.45, 37.55 ], [ 127.45, 37.45 ], [ 127.55, 37.45 ] ] ] } },
{ "type": "Feature", "properties": { "sigma_nT": 35.0, "sigma_obs": 1, "spacing_req": 61.5, "spacing_now": 64.0, "cover_km": 37.1, "site_area": 4096.0, "deficit": 1.04, "deficit_rel": 0.63, "sp_tier": "coarse", "df_tier": "ok" }, "geometry": { "type": "Polygon", "coordinates": [ [ [ 128.049999999999898, 37.45 ], [ 128.049999999999898, 37.55 ], [ 127.949999999999889, 37.55 ], [ 127.949999999999889, 37.45 ], [ 128.049999999999898, 37.45 ] ] ] } },
{ "type": "Feature", "properties": { "sigma_nT": 38.0, "sigma_obs": 1, "spacing_req": 59.3, "spacing_now": 64.0, "cover_km": 28.9, "site_area": 4096.0, "deficit": 1.08, "deficit_rel": 0.65, "sp_tier": "coarse", "df_tier": "ok" }, "geometry": { "type": "Polygon", "coordinates": [ [ [ 128.149999999999892, 37.45 ], [ 128.149999999999892, 37.55 ], [ 128.049999999999869, 37.55 ], [ 128.049999999999869, 37.45 ], [ 128.149999999999892, 37.45 ] ] ] } },
{ "type": "Feature", "properties": { "sigma_nT": 42.0, "sigma_obs": 1, "spacing_req": 55.9, "spacing_now": 64.0, "cover_km": 21.3, "site_area": 4096.0, "deficit": 1.15, "deficit_rel": 0.69, "sp_tier": "coarse", "df_tier": "ok" }, "geometry": { "type": "Polygon", "coordinates": [ [ [ 128.249999999999886, 37.45 ], [ 128.249999999999886, 37.55 ], [ 128.149999999999864, 37.55 ], [ 128.149999999999864, 37.45 ], [ 128.249999999999886, 37.45 ] ] ] } },
{ "type": "Feature", "properties": { "sigma_nT": 40.0, "sigma_obs": 1, "spacing_req": 57.2, "spacing_now": 64.0, "cover_km": 12.4, "site_area": 4096.0, "deficit": 1.12, "deficit_rel": 0.68, "sp_tier": "coarse", "df_tier": "ok" }, "geometry": { "type": "Polygon", "coordinates": [ [ [ 128.449999999999875, 37.45 ], [ 128.449999999999875, 37.55 ], [ 128.349999999999852, 37.55 ], [ 128.349999999999852, 37.45 ], [ 128.449999999999875, 37.45 ] ] ] } },
{ "type": "Feature", "properties": { "sigma_nT": 35.0, "sigma_obs": 1, "spacing_req": 61.8, "spacing_now": 64.0, "cover_km": 15.5, "site_area": 4096.0, "deficit": 1.04, "deficit_rel": 0.63, "sp_tier": "coarse", "df_tier": "ok" }, "geometry": { "type": "Polygon", "coordinates": [ [ [ 128.549999999999869, 37.45 ], [ 128.549999999999869, 37.55 ], [ 128.449999999999847, 37.55 ], [ 128.449999999999847, 37.45 ], [ 128.549999999999869, 37.45 ] ] ] } },
{ "type": "Feature", "properties": { "sigma_nT": 30.0, "sigma_obs": 1, "spacing_req": 66.3, "spacing_now": 64.0, "cover_km": 21.9, "site_area": 4096.0, "deficit": 0.97, "deficit_rel": 0.59, "sp_tier": "sparse", "df_tier": "ok" }, "geometry": { "type": "Polygon", "coordinates": [ [ [ 128.649999999999864, 37.45 ], [ 128.649999999999864, 37.55 ], [ 128.549999999999841, 37.55 ], [ 128.549999999999841, 37.45 ], [ 128.649999999999864, 37.45 ] ] ] } },
{ "type": "Feature", "properties": { "sigma_nT": 34.0, "sigma_obs": 1, "spacing_req": 62.1, "spacing_now": 64.0, "cover_km": 29.6, "site_area": 4096.0, "deficit": 1.03, "deficit_rel": 0.62, "sp_tier": "coarse", "df_tier": "ok" }, "geometry": { "type": "Polygon", "coordinates": [ [ [ 128.749999999999858, 37.45 ], [ 128.749999999999858, 37.55 ], [ 128.649999999999835, 37.55 ], [ 128.649999999999835, 37.45 ], [ 128.749999999999858, 37.45 ] ] ] } },
{ "type": "Feature", "properties": { "sigma_nT": 50.0, "sigma_obs": 1, "spacing_req": 51.3, "spacing_now": 57.7, "cover_km": 29.7, "site_area": 3325.0, "deficit": 1.12, "deficit_rel": 0.68, "sp_tier": "coarse", "df_tier": "ok" }, "geometry": { "type": "Polygon", "coordinates": [ [ [ 128.949999999999847, 37.45 ], [ 128.949999999999847, 37.55 ], [ 128.849999999999824, 37.55 ], [ 128.849999999999824, 37.45 ], [ 128.949999999999847, 37.45 ] ] ] } },
{ "type": "Feature", "properties": { "sigma_nT": 51.0, "sigma_obs": 1, "spacing_req": 50.9, "spacing_now": 57.7, "cover_km": 22.0, "site_area": 3325.0, "deficit": 1.13, "deficit_rel": 0.69, "sp_tier": "coarse", "df_tier": "ok" }, "geometry": { "type": "Polygon", "coordinates": [ [ [ 129.049999999999841, 37.45 ], [ 129.049999999999841, 37.55 ], [ 128.949999999999818, 37.55 ], [ 128.949999999999818, 37.45 ], [ 129.049999999999841, 37.45 ] ] ] } },
{ "type": "Feature", "properties": { "sigma_nT": 52.0, "sigma_obs": 1, "spacing_req": 50.4, "spacing_now": 57.7, "cover_km": 15.7, "site_area": 3325.0, "deficit": 1.14, "deficit_rel": 0.69, "sp_tier": "coarse", "df_tier": "ok" }, "geometry": { "type": "Polygon", "coordinates": [ [ [ 129.149999999999835, 37.45 ], [ 129.149999999999835, 37.55 ], [ 129.049999999999812, 37.55 ], [ 129.049999999999812, 37.45 ], [ 129.149999999999835, 37.45 ] ] ] } },
{ "type": "Feature", "properties": { "sigma_nT": 51.0, "sigma_obs": 1, "spacing_req": 50.7, "spacing_now": 57.7, "cover_km": 12.8, "site_area": 3325.0, "deficit": 1.14, "deficit_rel": 0.69, "sp_tier": "coarse", "df_tier": "ok" }, "geometry": { "type": "Polygon", "coordinates": [ [ [ 129.249999999999829, 37.45 ], [ 129.249999999999829, 37.55 ], [ 129.149999999999807, 37.55 ], [ 129.149999999999807, 37.45 ], [ 129.249999999999829, 37.45 ] ] ] } },
{ "type": "Feature", "properties": { "sigma_nT": 55.0, "sigma_obs": 1, "spacing_req": 49.2, "spacing_now": 49.4, "cover_km": 10.1, "site_area": 2438.0, "deficit": 1.0, "deficit_rel": 0.61, "sp_tier": "mid", "df_tier": "ok" }, "geometry": { "type": "Polygon", "coordinates": [ [ [ 126.45, 37.55 ], [ 126.45, 37.65 ], [ 126.35, 37.65 ], [ 126.35, 37.55 ], [ 126.45, 37.55 ] ] ] } },
{ "type": "Feature", "properties": { "sigma_nT": 34.0, "sigma_obs": 1, "spacing_req": 62.3, "spacing_now": 49.4, "cover_km": 7.5, "site_area": 2438.0, "deficit": 0.79, "deficit_rel": 0.48, "sp_tier": "coarse", "df_tier": "ok" }, "geometry": { "type": "Polygon", "coordinates": [ [ [ 126.55, 37.55 ], [ 126.55, 37.65 ], [ 126.45, 37.65 ], [ 126.45, 37.55 ], [ 126.55, 37.55 ] ] ] } },
{ "type": "Feature", "properties": { "sigma_nT": 39.0, "sigma_obs": 1, "spacing_req": 58.5, "spacing_now": 49.4, "cover_km": 12.9, "site_area": 2438.0, "deficit": 0.84, "deficit_rel": 0.51, "sp_tier": "coarse", "df_tier": "ok" }, "geometry": { "type": "Polygon", "coordinates": [ [ [ 126.65, 37.55 ], [ 126.65, 37.65 ], [ 126.55, 37.65 ], [ 126.55, 37.55 ], [ 126.65, 37.55 ] ] ] } },
{ "type": "Feature", "properties": { "sigma_nT": 43.0, "sigma_obs": 1, "spacing_req": 55.5, "spacing_now": 49.4, "cover_km": 20.8, "site_area": 2438.0, "deficit": 0.89, "deficit_rel": 0.54, "sp_tier": "coarse", "df_tier": "ok" }, "geometry": { "type": "Polygon", "coordinates": [ [ [ 126.75, 37.55 ], [ 126.75, 37.65 ], [ 126.65, 37.65 ], [ 126.65, 37.55 ], [ 126.75, 37.55 ] ] ] } },
{ "type": "Feature", "properties": { "sigma_nT": 59.0, "sigma_obs": 1, "spacing_req": 47.4, "spacing_now": 49.4, "cover_km": 29.2, "site_area": 2438.0, "deficit": 1.04, "deficit_rel": 0.63, "sp_tier": "mid", "df_tier": "ok" }, "geometry": { "type": "Polygon", "coordinates": [ [ [ 126.85, 37.55 ], [ 126.85, 37.65 ], [ 126.75, 37.65 ], [ 126.75, 37.55 ], [ 126.85, 37.55 ] ] ] } },
{ "type": "Feature", "properties": { "sigma_nT": 57.0, "sigma_obs": 1, "spacing_req": 48.1, "spacing_now": 49.4, "cover_km": 37.8, "site_area": 2438.0, "deficit": 1.03, "deficit_rel": 0.62, "sp_tier": "mid", "df_tier": "ok" }, "geometry": { "type": "Polygon", "coordinates": [ [ [ 126.95, 37.55 ], [ 126.95, 37.65 ], [ 126.85, 37.65 ], [ 126.85, 37.55 ], [ 126.95, 37.55 ] ] ] } },
{ "type": "Feature", "properties": { "sigma_nT": 44.0, "sigma_obs": 1, "spacing_req": 54.5, "spacing_now": 59.9, "cover_km": 43.3, "site_area": 3592.0, "deficit": 1.1, "deficit_rel": 0.67, "sp_tier": "coarse", "df_tier": "ok" }, "geometry": { "type": "Polygon", "coordinates": [ [ [ 127.15, 37.55 ], [ 127.15, 37.65 ], [ 127.05, 37.65 ], [ 127.05, 37.55 ], [ 127.15, 37.55 ] ] ] } },
{ "type": "Feature", "properties": { "sigma_nT": 43.0, "sigma_obs": 1, "spacing_req": 55.6, "spacing_now": 64.0, "cover_km": 34.9, "site_area": 4096.0, "deficit": 1.15, "deficit_rel": 0.7, "sp_tier": "coarse", "df_tier": "ok" }, "geometry": { "type": "Polygon", "coordinates": [ [ [ 128.049999999999898, 37.55 ], [ 128.049999999999898, 37.65 ], [ 127.949999999999889, 37.65 ], [ 127.949999999999889, 37.55 ], [ 128.049999999999898, 37.55 ] ] ] } },
{ "type": "Feature", "properties": { "sigma_nT": 40.0, "sigma_obs": 1, "spacing_req": 57.1, "spacing_now": 64.0, "cover_km": 26.1, "site_area": 4096.0, "deficit": 1.12, "deficit_rel": 0.68, "sp_tier": "coarse", "df_tier": "ok" }, "geometry": { "type": "Polygon", "coordinates": [ [ [ 128.149999999999892, 37.55 ], [ 128.149999999999892, 37.65 ], [ 128.049999999999869, 37.65 ], [ 128.049999999999869, 37.55 ], [ 128.149999999999892, 37.55 ] ] ] } },
{ "type": "Feature", "properties": { "sigma_nT": 34.0, "sigma_obs": 1, "spacing_req": 62.2, "spacing_now": 64.0, "cover_km": 17.3, "site_area": 4096.0, "deficit": 1.03, "deficit_rel": 0.62, "sp_tier": "coarse", "df_tier": "ok" }, "geometry": { "type": "Polygon", "coordinates": [ [ [ 128.249999999999886, 37.55 ], [ 128.249999999999886, 37.65 ], [ 128.149999999999864, 37.65 ], [ 128.149999999999864, 37.55 ], [ 128.249999999999886, 37.55 ] ] ] } },
{ "type": "Feature", "properties": { "sigma_nT": 37.0, "sigma_obs": 1, "spacing_req": 60.0, "spacing_now": 64.0, "cover_km": 8.6, "site_area": 4096.0, "deficit": 1.07, "deficit_rel": 0.65, "sp_tier": "coarse", "df_tier": "ok" }, "geometry": { "type": "Polygon", "coordinates": [ [ [ 128.349999999999881, 37.55 ], [ 128.349999999999881, 37.65 ], [ 128.249999999999858, 37.65 ], [ 128.249999999999858, 37.55 ], [ 128.349999999999881, 37.55 ] ] ] } },
{ "type": "Feature", "properties": { "sigma_nT": 38.0, "sigma_obs": 1, "spacing_req": 59.0, "spacing_now": 64.0, "cover_km": 1.4, "site_area": 4096.0, "deficit": 1.08, "deficit_rel": 0.66, "sp_tier": "coarse", "df_tier": "ok" }, "geometry": { "type": "Polygon", "coordinates": [ [ [ 128.449999999999875, 37.55 ], [ 128.449999999999875, 37.65 ], [ 128.349999999999852, 37.65 ], [ 128.349999999999852, 37.55 ], [ 128.449999999999875, 37.55 ] ] ] } },
{ "type": "Feature", "properties": { "sigma_nT": 35.0, "sigma_obs": 1, "spacing_req": 61.0, "spacing_now": 64.0, "cover_km": 9.3, "site_area": 4096.0, "deficit": 1.05, "deficit_rel": 0.64, "sp_tier": "coarse", "df_tier": "ok" }, "geometry": { "type": "Polygon", "coordinates": [ [ [ 128.549999999999869, 37.55 ], [ 128.549999999999869, 37.65 ], [ 128.449999999999847, 37.65 ], [ 128.449999999999847, 37.55 ], [ 128.549999999999869, 37.55 ] ] ] } },
{ "type": "Feature", "properties": { "sigma_nT": 32.0, "sigma_obs": 1, "spacing_req": 64.5, "spacing_now": 64.0, "cover_km": 18.1, "site_area": 4096.0, "deficit": 0.99, "deficit_rel": 0.6, "sp_tier": "coarse", "df_tier": "ok" }, "geometry": { "type": "Polygon", "coordinates": [ [ [ 128.649999999999864, 37.55 ], [ 128.649999999999864, 37.65 ], [ 128.549999999999841, 37.65 ], [ 128.549999999999841, 37.55 ], [ 128.649999999999864, 37.55 ] ] ] } },
{ "type": "Feature", "properties": { "sigma_nT": 34.0, "sigma_obs": 1, "spacing_req": 62.2, "spacing_now": 64.0, "cover_km": 26.9, "site_area": 4096.0, "deficit": 1.03, "deficit_rel": 0.62, "sp_tier": "coarse", "df_tier": "ok" }, "geometry": { "type": "Polygon", "coordinates": [ [ [ 128.749999999999858, 37.55 ], [ 128.749999999999858, 37.65 ], [ 128.649999999999835, 37.65 ], [ 128.649999999999835, 37.55 ], [ 128.749999999999858, 37.55 ] ] ] } },
{ "type": "Feature", "properties": { "sigma_nT": 35.0, "sigma_obs": 1, "spacing_req": 61.4, "spacing_now": 64.0, "cover_km": 35.7, "site_area": 4096.0, "deficit": 1.04, "deficit_rel": 0.63, "sp_tier": "coarse", "df_tier": "ok" }, "geometry": { "type": "Polygon", "coordinates": [ [ [ 128.849999999999852, 37.55 ], [ 128.849999999999852, 37.65 ], [ 128.749999999999829, 37.65 ], [ 128.749999999999829, 37.55 ], [ 128.849999999999852, 37.55 ] ] ] } },
{ "type": "Feature", "properties": { "sigma_nT": 43.0, "sigma_obs": 1, "spacing_req": 55.4, "spacing_now": 57.7, "cover_km": 35.8, "site_area": 3325.0, "deficit": 1.04, "deficit_rel": 0.63, "sp_tier": "coarse", "df_tier": "ok" }, "geometry": { "type": "Polygon", "coordinates": [ [ [ 128.949999999999847, 37.55 ], [ 128.949999999999847, 37.65 ], [ 128.849999999999824, 37.65 ], [ 128.849999999999824, 37.55 ], [ 128.949999999999847, 37.55 ] ] ] } },
{ "type": "Feature", "properties": { "sigma_nT": 46.0, "sigma_obs": 1, "spacing_req": 53.6, "spacing_now": 57.7, "cover_km": 29.8, "site_area": 3325.0, "deficit": 1.08, "deficit_rel": 0.65, "sp_tier": "coarse", "df_tier": "ok" }, "geometry": { "type": "Polygon", "coordinates": [ [ [ 129.049999999999841, 37.55 ], [ 129.049999999999841, 37.65 ], [ 128.949999999999818, 37.65 ], [ 128.949999999999818, 37.55 ], [ 129.049999999999841, 37.55 ] ] ] } },
{ "type": "Feature", "properties": { "sigma_nT": 51.0, "sigma_obs": 1, "spacing_req": 50.9, "spacing_now": 57.7, "cover_km": 25.5, "site_area": 3325.0, "deficit": 1.13, "deficit_rel": 0.69, "sp_tier": "coarse", "df_tier": "ok" }, "geometry": { "type": "Polygon", "coordinates": [ [ [ 129.149999999999835, 37.55 ], [ 129.149999999999835, 37.65 ], [ 129.049999999999812, 37.65 ], [ 129.049999999999812, 37.55 ], [ 129.149999999999835, 37.55 ] ] ] } },
{ "type": "Feature", "properties": { "sigma_nT": 22.0, "sigma_obs": 1, "spacing_req": 77.5, "spacing_now": 49.4, "cover_km": 11.3, "site_area": 2438.0, "deficit": 0.64, "deficit_rel": 0.39, "sp_tier": "sparse", "df_tier": "ok" }, "geometry": { "type": "Polygon", "coordinates": [ [ [ 126.65, 37.65 ], [ 126.65, 37.75 ], [ 126.55, 37.75 ], [ 126.55, 37.65 ], [ 126.65, 37.65 ] ] ] } },
{ "type": "Feature", "properties": { "sigma_nT": 46.0, "sigma_obs": 1, "spacing_req": 53.8, "spacing_now": 49.4, "cover_km": 19.8, "site_area": 2438.0, "deficit": 0.92, "deficit_rel": 0.56, "sp_tier": "coarse", "df_tier": "ok" }, "geometry": { "type": "Polygon", "coordinates": [ [ [ 126.75, 37.65 ], [ 126.75, 37.75 ], [ 126.65, 37.75 ], [ 126.65, 37.65 ], [ 126.75, 37.65 ] ] ] } },
{ "type": "Feature", "properties": { "sigma_nT": 52.0, "sigma_obs": 1, "spacing_req": 50.4, "spacing_now": 49.4, "cover_km": 28.5, "site_area": 2438.0, "deficit": 0.98, "deficit_rel": 0.59, "sp_tier": "coarse", "df_tier": "ok" }, "geometry": { "type": "Polygon", "coordinates": [ [ [ 126.85, 37.65 ], [ 126.85, 37.75 ], [ 126.75, 37.75 ], [ 126.75, 37.65 ], [ 126.85, 37.65 ] ] ] } },
{ "type": "Feature", "properties": { "sigma_nT": 32.0, "sigma_obs": 1, "spacing_req": 64.0, "spacing_now": 59.9, "cover_km": 32.7, "site_area": 3592.0, "deficit": 0.94, "deficit_rel": 0.57, "sp_tier": "coarse", "df_tier": "ok" }, "geometry": { "type": "Polygon", "coordinates": [ [ [ 127.25, 37.65 ], [ 127.25, 37.75 ], [ 127.15, 37.75 ], [ 127.15, 37.65 ], [ 127.25, 37.65 ] ] ] } },
{ "type": "Feature", "properties": { "sigma_nT": 44.0, "sigma_obs": 1, "spacing_req": 55.0, "spacing_now": 59.9, "cover_km": 35.3, "site_area": 3592.0, "deficit": 1.09, "deficit_rel": 0.66, "sp_tier": "coarse", "df_tier": "ok" }, "geometry": { "type": "Polygon", "coordinates": [ [ [ 127.35, 37.65 ], [ 127.35, 37.75 ], [ 127.25, 37.75 ], [ 127.25, 37.65 ], [ 127.35, 37.65 ] ] ] } },
{ "type": "Feature", "properties": { "sigma_nT": 40.0, "sigma_obs": 1, "spacing_req": 57.4, "spacing_now": 64.0, "cover_km": 36.2, "site_area": 4096.0, "deficit": 1.12, "deficit_rel": 0.68, "sp_tier": "coarse", "df_tier": "ok" }, "geometry": { "type": "Polygon", "coordinates": [ [ [ 128.049999999999898, 37.65 ], [ 128.049999999999898, 37.75 ], [ 127.949999999999889, 37.75 ], [ 127.949999999999889, 37.65 ], [ 128.049999999999898, 37.65 ] ] ] } },
{ "type": "Feature", "properties": { "sigma_nT": 38.0, "sigma_obs": 1, "spacing_req": 59.1, "spacing_now": 64.0, "cover_km": 27.8, "site_area": 4096.0, "deficit": 1.08, "deficit_rel": 0.66, "sp_tier": "coarse", "df_tier": "ok" }, "geometry": { "type": "Polygon", "coordinates": [ [ [ 128.149999999999892, 37.65 ], [ 128.149999999999892, 37.75 ], [ 128.049999999999869, 37.75 ], [ 128.049999999999869, 37.65 ], [ 128.149999999999892, 37.65 ] ] ] } },
{ "type": "Feature", "properties": { "sigma_nT": 36.0, "sigma_obs": 1, "spacing_req": 60.2, "spacing_now": 64.0, "cover_km": 19.8, "site_area": 4096.0, "deficit": 1.06, "deficit_rel": 0.64, "sp_tier": "coarse", "df_tier": "ok" }, "geometry": { "type": "Polygon", "coordinates": [ [ [ 128.249999999999886, 37.65 ], [ 128.249999999999886, 37.75 ], [ 128.149999999999864, 37.75 ], [ 128.149999999999864, 37.65 ], [ 128.249999999999886, 37.65 ] ] ] } },
{ "type": "Feature", "properties": { "sigma_nT": 39.0, "sigma_obs": 1, "spacing_req": 58.5, "spacing_now": 64.0, "cover_km": 12.9, "site_area": 4096.0, "deficit": 1.09, "deficit_rel": 0.66, "sp_tier": "coarse", "df_tier": "ok" }, "geometry": { "type": "Polygon", "coordinates": [ [ [ 128.349999999999881, 37.65 ], [ 128.349999999999881, 37.75 ], [ 128.249999999999858, 37.75 ], [ 128.249999999999858, 37.65 ], [ 128.349999999999881, 37.65 ] ] ] } },
{ "type": "Feature", "properties": { "sigma_nT": 36.0, "sigma_obs": 1, "spacing_req": 60.8, "spacing_now": 64.0, "cover_km": 9.7, "site_area": 4096.0, "deficit": 1.05, "deficit_rel": 0.64, "sp_tier": "coarse", "df_tier": "ok" }, "geometry": { "type": "Polygon", "coordinates": [ [ [ 128.449999999999875, 37.65 ], [ 128.449999999999875, 37.75 ], [ 128.349999999999852, 37.75 ], [ 128.349999999999852, 37.65 ], [ 128.449999999999875, 37.65 ] ] ] } },
{ "type": "Feature", "properties": { "sigma_nT": 35.0, "sigma_obs": 1, "spacing_req": 61.1, "spacing_now": 64.0, "cover_km": 13.3, "site_area": 4096.0, "deficit": 1.05, "deficit_rel": 0.63, "sp_tier": "coarse", "df_tier": "ok" }, "geometry": { "type": "Polygon", "coordinates": [ [ [ 128.549999999999869, 37.65 ], [ 128.549999999999869, 37.75 ], [ 128.449999999999847, 37.75 ], [ 128.449999999999847, 37.65 ], [ 128.549999999999869, 37.65 ] ] ] } },
{ "type": "Feature", "properties": { "sigma_nT": 31.0, "sigma_obs": 1, "spacing_req": 65.0, "spacing_now": 64.0, "cover_km": 20.4, "site_area": 4096.0, "deficit": 0.98, "deficit_rel": 0.6, "sp_tier": "sparse", "df_tier": "ok" }, "geometry": { "type": "Polygon", "coordinates": [ [ [ 128.649999999999864, 37.65 ], [ 128.649999999999864, 37.75 ], [ 128.549999999999841, 37.75 ], [ 128.549999999999841, 37.65 ], [ 128.649999999999864, 37.65 ] ] ] } },
{ "type": "Feature", "properties": { "sigma_nT": 32.0, "sigma_obs": 1, "spacing_req": 64.2, "spacing_now": 64.0, "cover_km": 28.5, "site_area": 4096.0, "deficit": 1.0, "deficit_rel": 0.6, "sp_tier": "coarse", "df_tier": "ok" }, "geometry": { "type": "Polygon", "coordinates": [ [ [ 128.749999999999858, 37.65 ], [ 128.749999999999858, 37.75 ], [ 128.649999999999835, 37.75 ], [ 128.649999999999835, 37.65 ], [ 128.749999999999858, 37.65 ] ] ] } },
{ "type": "Feature", "properties": { "sigma_nT": 30.0, "sigma_obs": 1, "spacing_req": 66.1, "spacing_now": 64.0, "cover_km": 36.9, "site_area": 4096.0, "deficit": 0.97, "deficit_rel": 0.59, "sp_tier": "sparse", "df_tier": "ok" }, "geometry": { "type": "Polygon", "coordinates": [ [ [ 128.849999999999852, 37.65 ], [ 128.849999999999852, 37.75 ], [ 128.749999999999829, 37.75 ], [ 128.749999999999829, 37.65 ], [ 128.849999999999852, 37.65 ] ] ] } },
{ "type": "Feature", "properties": { "sigma_nT": 30.0, "sigma_obs": 1, "spacing_req": 66.5, "spacing_now": 57.7, "cover_km": 44.0, "site_area": 3325.0, "deficit": 0.87, "deficit_rel": 0.53, "sp_tier": "sparse", "df_tier": "ok" }, "geometry": { "type": "Polygon", "coordinates": [ [ [ 128.949999999999847, 37.65 ], [ 128.949999999999847, 37.75 ], [ 128.849999999999824, 37.75 ], [ 128.849999999999824, 37.65 ], [ 128.949999999999847, 37.65 ] ] ] } },
{ "type": "Feature", "properties": { "sigma_nT": 32.0, "sigma_obs": 1, "spacing_req": 64.2, "spacing_now": 57.7, "cover_km": 39.2, "site_area": 3325.0, "deficit": 0.9, "deficit_rel": 0.54, "sp_tier": "coarse", "df_tier": "ok" }, "geometry": { "type": "Polygon", "coordinates": [ [ [ 129.049999999999841, 37.65 ], [ 129.049999999999841, 37.75 ], [ 128.949999999999818, 37.75 ], [ 128.949999999999818, 37.65 ], [ 129.049999999999841, 37.65 ] ] ] } },
{ "type": "Feature", "properties": { "sigma_nT": 9.0, "sigma_obs": 1, "spacing_req": 122.9, "spacing_now": 59.9, "cover_km": 21.3, "site_area": 3592.0, "deficit": 0.49, "deficit_rel": 0.3, "sp_tier": "sparse", "df_tier": "ok" }, "geometry": { "type": "Polygon", "coordinates": [ [ [ 127.15, 37.75 ], [ 127.15, 37.85 ], [ 127.05, 37.85 ], [ 127.05, 37.75 ], [ 127.15, 37.75 ] ] ] } },
{ "type": "Feature", "properties": { "sigma_nT": 33.0, "sigma_obs": 1, "spacing_req": 63.2, "spacing_now": 59.9, "cover_km": 21.9, "site_area": 3592.0, "deficit": 0.95, "deficit_rel": 0.57, "sp_tier": "coarse", "df_tier": "ok" }, "geometry": { "type": "Polygon", "coordinates": [ [ [ 127.25, 37.75 ], [ 127.25, 37.85 ], [ 127.15, 37.85 ], [ 127.15, 37.75 ], [ 127.25, 37.75 ] ] ] } },
{ "type": "Feature", "properties": { "sigma_nT": 47.0, "sigma_obs": 1, "spacing_req": 52.9, "spacing_now": 59.9, "cover_km": 31.4, "site_area": 3592.0, "deficit": 1.13, "deficit_rel": 0.69, "sp_tier": "coarse", "df_tier": "ok" }, "geometry": { "type": "Polygon", "coordinates": [ [ [ 127.45, 37.75 ], [ 127.45, 37.85 ], [ 127.35, 37.85 ], [ 127.35, 37.75 ], [ 127.45, 37.75 ] ] ] } },
{ "type": "Feature", "properties": { "sigma_nT": 50.0, "sigma_obs": 1, "spacing_req": 51.4, "spacing_now": 58.2, "cover_km": 36.3, "site_area": 3391.0, "deficit": 1.13, "deficit_rel": 0.69, "sp_tier": "coarse", "df_tier": "ok" }, "geometry": { "type": "Polygon", "coordinates": [ [ [ 127.849999999999895, 37.75 ], [ 127.849999999999895, 37.85 ], [ 127.75, 37.85 ], [ 127.75, 37.75 ], [ 127.849999999999895, 37.75 ] ] ] } },
{ "type": "Feature", "properties": { "sigma_nT": 44.0, "sigma_obs": 1, "spacing_req": 54.7, "spacing_now": 58.2, "cover_km": 39.6, "site_area": 3391.0, "deficit": 1.06, "deficit_rel": 0.64, "sp_tier": "coarse", "df_tier": "ok" }, "geometry": { "type": "Polygon", "coordinates": [ [ [ 127.949999999999889, 37.75 ], [ 127.949999999999889, 37.85 ], [ 127.849999999999895, 37.85 ], [ 127.849999999999895, 37.75 ], [ 127.949999999999889, 37.75 ] ] ] } },
{ "type": "Feature", "properties": { "sigma_nT": 36.0, "sigma_obs": 1, "spacing_req": 60.5, "spacing_now": 66.8, "cover_km": 37.3, "site_area": 4456.0, "deficit": 1.1, "deficit_rel": 0.67, "sp_tier": "coarse", "df_tier": "ok" }, "geometry": { "type": "Polygon", "coordinates": [ [ [ 128.049999999999898, 37.75 ], [ 128.049999999999898, 37.85 ], [ 127.949999999999889, 37.85 ], [ 127.949999999999889, 37.75 ], [ 128.049999999999898, 37.75 ] ] ] } },
{ "type": "Feature", "properties": { "sigma_nT": 34.0, "sigma_obs": 1, "spacing_req": 62.1, "spacing_now": 66.8, "cover_km": 30.9, "site_area": 4456.0, "deficit": 1.07, "deficit_rel": 0.65, "sp_tier": "coarse", "df_tier": "ok" }, "geometry": { "type": "Polygon", "coordinates": [ [ [ 128.149999999999892, 37.75 ], [ 128.149999999999892, 37.85 ], [ 128.049999999999869, 37.85 ], [ 128.049999999999869, 37.75 ], [ 128.149999999999892, 37.75 ] ] ] } },
{ "type": "Feature", "properties": { "sigma_nT": 36.0, "sigma_obs": 1, "spacing_req": 60.5, "spacing_now": 66.8, "cover_km": 26.0, "site_area": 4456.0, "deficit": 1.1, "deficit_rel": 0.67, "sp_tier": "coarse", "df_tier": "ok" }, "geometry": { "type": "Polygon", "coordinates": [ [ [ 128.249999999999886, 37.75 ], [ 128.249999999999886, 37.85 ], [ 128.149999999999864, 37.85 ], [ 128.149999999999864, 37.75 ], [ 128.249999999999886, 37.75 ] ] ] } },
{ "type": "Feature", "properties": { "sigma_nT": 34.0, "sigma_obs": 1, "spacing_req": 62.3, "spacing_now": 64.0, "cover_km": 22.4, "site_area": 4096.0, "deficit": 1.03, "deficit_rel": 0.62, "sp_tier": "coarse", "df_tier": "ok" }, "geometry": { "type": "Polygon", "coordinates": [ [ [ 128.349999999999881, 37.75 ], [ 128.349999999999881, 37.85 ], [ 128.249999999999858, 37.85 ], [ 128.249999999999858, 37.75 ], [ 128.349999999999881, 37.75 ] ] ] } },
{ "type": "Feature", "properties": { "sigma_nT": 30.0, "sigma_obs": 1, "spacing_req": 65.9, "spacing_now": 64.0, "cover_km": 20.8, "site_area": 4096.0, "deficit": 0.97, "deficit_rel": 0.59, "sp_tier": "sparse", "df_tier": "ok" }, "geometry": { "type": "Polygon", "coordinates": [ [ [ 128.449999999999875, 37.75 ], [ 128.449999999999875, 37.85 ], [ 128.349999999999852, 37.85 ], [ 128.349999999999852, 37.75 ], [ 128.449999999999875, 37.75 ] ] ] } },
{ "type": "Feature", "properties": { "sigma_nT": 31.0, "sigma_obs": 1, "spacing_req": 65.4, "spacing_now": 64.0, "cover_km": 22.7, "site_area": 4096.0, "deficit": 0.98, "deficit_rel": 0.59, "sp_tier": "sparse", "df_tier": "ok" }, "geometry": { "type": "Polygon", "coordinates": [ [ [ 128.549999999999869, 37.75 ], [ 128.549999999999869, 37.85 ], [ 128.449999999999847, 37.85 ], [ 128.449999999999847, 37.75 ], [ 128.549999999999869, 37.75 ] ] ] } },
{ "type": "Feature", "properties": { "sigma_nT": 23.0, "sigma_obs": 1, "spacing_req": 75.3, "spacing_now": 64.0, "cover_km": 27.5, "site_area": 4096.0, "deficit": 0.85, "deficit_rel": 0.51, "sp_tier": "sparse", "df_tier": "ok" }, "geometry": { "type": "Polygon", "coordinates": [ [ [ 128.649999999999864, 37.75 ], [ 128.649999999999864, 37.85 ], [ 128.549999999999841, 37.85 ], [ 128.549999999999841, 37.75 ], [ 128.649999999999864, 37.75 ] ] ] } },
{ "type": "Feature", "properties": { "sigma_nT": 25.0, "sigma_obs": 1, "spacing_req": 72.0, "spacing_now": 64.0, "cover_km": 33.9, "site_area": 4096.0, "deficit": 0.89, "deficit_rel": 0.54, "sp_tier": "sparse", "df_tier": "ok" }, "geometry": { "type": "Polygon", "coordinates": [ [ [ 128.749999999999858, 37.75 ], [ 128.749999999999858, 37.85 ], [ 128.649999999999835, 37.85 ], [ 128.649999999999835, 37.75 ], [ 128.749999999999858, 37.75 ] ] ] } },
{ "type": "Feature", "properties": { "sigma_nT": 30.0, "sigma_obs": 1, "spacing_req": 66.6, "spacing_now": 64.0, "cover_km": 41.2, "site_area": 4096.0, "deficit": 0.96, "deficit_rel": 0.58, "sp_tier": "sparse", "df_tier": "ok" }, "geometry": { "type": "Polygon", "coordinates": [ [ [ 128.849999999999852, 37.75 ], [ 128.849999999999852, 37.85 ], [ 128.749999999999829, 37.85 ], [ 128.749999999999829, 37.75 ], [ 128.849999999999852, 37.75 ] ] ] } },
{ "type": "Feature", "properties": { "sigma_nT": 31.0, "sigma_obs": 1, "spacing_req": 65.3, "spacing_now": 64.0, "cover_km": 49.0, "site_area": 4096.0, "deficit": 0.98, "deficit_rel": 0.59, "sp_tier": "sparse", "df_tier": "ok" }, "geometry": { "type": "Polygon", "coordinates": [ [ [ 128.949999999999847, 37.75 ], [ 128.949999999999847, 37.85 ], [ 128.849999999999824, 37.85 ], [ 128.849999999999824, 37.75 ], [ 128.949999999999847, 37.75 ] ] ] } },
{ "type": "Feature", "properties": { "sigma_nT": 33.0, "sigma_obs": 1, "spacing_req": 63.1, "spacing_now": 57.7, "cover_km": 49.3, "site_area": 3325.0, "deficit": 0.91, "deficit_rel": 0.55, "sp_tier": "coarse", "df_tier": "ok" }, "geometry": { "type": "Polygon", "coordinates": [ [ [ 129.049999999999841, 37.75 ], [ 129.049999999999841, 37.85 ], [ 128.949999999999818, 37.85 ], [ 128.949999999999818, 37.75 ], [ 129.049999999999841, 37.75 ] ] ] } },
{ "type": "Feature", "properties": { "sigma_nT": 5.0, "sigma_obs": 1, "spacing_req": 170.3, "spacing_now": 59.9, "cover_km": 11.6, "site_area": 3592.0, "deficit": 0.35, "deficit_rel": 0.21, "sp_tier": "sparse", "df_tier": "ok" }, "geometry": { "type": "Polygon", "coordinates": [ [ [ 127.25, 37.85 ], [ 127.25, 37.95 ], [ 127.15, 37.95 ], [ 127.15, 37.85 ], [ 127.25, 37.85 ] ] ] } },
{ "type": "Feature", "properties": { "sigma_nT": 49.0, "sigma_obs": 1, "spacing_req": 52.0, "spacing_now": 59.9, "cover_km": 17.7, "site_area": 3592.0, "deficit": 1.15, "deficit_rel": 0.7, "sp_tier": "coarse", "df_tier": "ok" }, "geometry": { "type": "Polygon", "coordinates": [ [ [ 127.35, 37.85 ], [ 127.35, 37.95 ], [ 127.25, 37.95 ], [ 127.25, 37.85 ], [ 127.35, 37.85 ] ] ] } },
{ "type": "Feature", "properties": { "sigma_nT": 40.0, "sigma_obs": 1, "spacing_req": 57.6, "spacing_now": 58.2, "cover_km": 25.8, "site_area": 3391.0, "deficit": 1.01, "deficit_rel": 0.61, "sp_tier": "coarse", "df_tier": "ok" }, "geometry": { "type": "Polygon", "coordinates": [ [ [ 127.849999999999895, 37.85 ], [ 127.849999999999895, 37.95 ], [ 127.75, 37.95 ], [ 127.75, 37.85 ], [ 127.849999999999895, 37.85 ] ] ] } },
{ "type": "Feature", "properties": { "sigma_nT": 39.0, "sigma_obs": 1, "spacing_req": 58.4, "spacing_now": 58.2, "cover_km": 30.3, "site_area": 3391.0, "deficit": 1.0, "deficit_rel": 0.6, "sp_tier": "coarse", "df_tier": "ok" }, "geometry": { "type": "Polygon", "coordinates": [ [ [ 127.949999999999889, 37.85 ], [ 127.949999999999889, 37.95 ], [ 127.849999999999895, 37.95 ], [ 127.849999999999895, 37.85 ], [ 127.949999999999889, 37.85 ] ] ] } },
{ "type": "Feature", "properties": { "sigma_nT": 31.0, "sigma_obs": 1, "spacing_req": 65.0, "spacing_now": 66.8, "cover_km": 31.7, "site_area": 4456.0, "deficit": 1.03, "deficit_rel": 0.62, "sp_tier": "coarse", "df_tier": "ok" }, "geometry": { "type": "Polygon", "coordinates": [ [ [ 128.049999999999898, 37.85 ], [ 128.049999999999898, 37.95 ], [ 127.949999999999889, 37.95 ], [ 127.949999999999889, 37.85 ], [ 128.049999999999898, 37.85 ] ] ] } },
{ "type": "Feature", "properties": { "sigma_nT": 32.0, "sigma_obs": 1, "spacing_req": 64.2, "spacing_now": 66.8, "cover_km": 23.8, "site_area": 4456.0, "deficit": 1.04, "deficit_rel": 0.63, "sp_tier": "coarse", "df_tier": "ok" }, "geometry": { "type": "Polygon", "coordinates": [ [ [ 128.149999999999892, 37.85 ], [ 128.149999999999892, 37.95 ], [ 128.049999999999869, 37.95 ], [ 128.049999999999869, 37.85 ], [ 128.149999999999892, 37.85 ] ] ] } },
{ "type": "Feature", "properties": { "sigma_nT": 33.0, "sigma_obs": 1, "spacing_req": 63.1, "spacing_now": 66.8, "cover_km": 16.9, "site_area": 4456.0, "deficit": 1.06, "deficit_rel": 0.64, "sp_tier": "coarse", "df_tier": "ok" }, "geometry": { "type": "Polygon", "coordinates": [ [ [ 128.249999999999886, 37.85 ], [ 128.249999999999886, 37.95 ], [ 128.149999999999864, 37.95 ], [ 128.149999999999864, 37.85 ], [ 128.249999999999886, 37.85 ] ] ] } },
{ "type": "Feature", "properties": { "sigma_nT": 35.0, "sigma_obs": 1, "spacing_req": 61.6, "spacing_now": 66.8, "cover_km": 12.5, "site_area": 4456.0, "deficit": 1.08, "deficit_rel": 0.66, "sp_tier": "coarse", "df_tier": "ok" }, "geometry": { "type": "Polygon", "coordinates": [ [ [ 128.349999999999881, 37.85 ], [ 128.349999999999881, 37.95 ], [ 128.249999999999858, 37.95 ], [ 128.249999999999858, 37.85 ], [ 128.349999999999881, 37.85 ] ] ] } },
{ "type": "Feature", "properties": { "sigma_nT": 31.0, "sigma_obs": 1, "spacing_req": 65.2, "spacing_now": 66.8, "cover_km": 13.5, "site_area": 4456.0, "deficit": 1.02, "deficit_rel": 0.62, "sp_tier": "sparse", "df_tier": "ok" }, "geometry": { "type": "Polygon", "coordinates": [ [ [ 128.449999999999875, 37.85 ], [ 128.449999999999875, 37.95 ], [ 128.349999999999852, 37.95 ], [ 128.349999999999852, 37.85 ], [ 128.449999999999875, 37.85 ] ] ] } },
{ "type": "Feature", "properties": { "sigma_nT": 28.0, "sigma_obs": 1, "spacing_req": 69.2, "spacing_now": 66.8, "cover_km": 19.0, "site_area": 4456.0, "deficit": 0.96, "deficit_rel": 0.58, "sp_tier": "sparse", "df_tier": "ok" }, "geometry": { "type": "Polygon", "coordinates": [ [ [ 128.549999999999869, 37.85 ], [ 128.549999999999869, 37.95 ], [ 128.449999999999847, 37.95 ], [ 128.449999999999847, 37.85 ], [ 128.549999999999869, 37.85 ] ] ] } },
{ "type": "Feature", "properties": { "sigma_nT": 24.0, "sigma_obs": 1, "spacing_req": 74.9, "spacing_now": 66.8, "cover_km": 26.4, "site_area": 4456.0, "deficit": 0.89, "deficit_rel": 0.54, "sp_tier": "sparse", "df_tier": "ok" }, "geometry": { "type": "Polygon", "coordinates": [ [ [ 128.649999999999864, 37.85 ], [ 128.649999999999864, 37.95 ], [ 128.549999999999841, 37.95 ], [ 128.549999999999841, 37.85 ], [ 128.649999999999864, 37.85 ] ] ] } },
{ "type": "Feature", "properties": { "sigma_nT": 22.0, "sigma_obs": 1, "spacing_req": 77.9, "spacing_now": 66.8, "cover_km": 34.4, "site_area": 4456.0, "deficit": 0.86, "deficit_rel": 0.52, "sp_tier": "sparse", "df_tier": "ok" }, "geometry": { "type": "Polygon", "coordinates": [ [ [ 128.749999999999858, 37.85 ], [ 128.749999999999858, 37.95 ], [ 128.649999999999835, 37.95 ], [ 128.649999999999835, 37.85 ], [ 128.749999999999858, 37.85 ] ] ] } },
{ "type": "Feature", "properties": { "sigma_nT": 19.0, "sigma_obs": 1, "spacing_req": 82.5, "spacing_now": 66.8, "cover_km": 42.7, "site_area": 4456.0, "deficit": 0.81, "deficit_rel": 0.49, "sp_tier": "sparse", "df_tier": "ok" }, "geometry": { "type": "Polygon", "coordinates": [ [ [ 128.849999999999852, 37.85 ], [ 128.849999999999852, 37.95 ], [ 128.749999999999829, 37.95 ], [ 128.749999999999829, 37.85 ], [ 128.849999999999852, 37.85 ] ] ] } },
{ "type": "Feature", "properties": { "sigma_nT": 21.0, "sigma_obs": 1, "spacing_req": 79.1, "spacing_now": 66.8, "cover_km": 51.2, "site_area": 4456.0, "deficit": 0.84, "deficit_rel": 0.51, "sp_tier": "sparse", "df_tier": "ok" }, "geometry": { "type": "Polygon", "coordinates": [ [ [ 128.949999999999847, 37.85 ], [ 128.949999999999847, 37.95 ], [ 128.849999999999824, 37.95 ], [ 128.849999999999824, 37.85 ], [ 128.949999999999847, 37.85 ] ] ] } },
{ "type": "Feature", "properties": { "sigma_nT": 26.0, "sigma_obs": 1, "spacing_req": 71.6, "spacing_now": 59.9, "cover_km": 23.3, "site_area": 3592.0, "deficit": 0.84, "deficit_rel": 0.51, "sp_tier": "sparse", "df_tier": "ok" }, "geometry": { "type": "Polygon", "coordinates": [ [ [ 127.45, 37.95 ], [ 127.45, 38.05 ], [ 127.35, 38.05 ], [ 127.35, 37.95 ], [ 127.45, 37.95 ] ] ] } },
{ "type": "Feature", "properties": { "sigma_nT": 50.0, "sigma_obs": 1, "spacing_req": 51.5, "spacing_now": 58.2, "cover_km": 16.2, "site_area": 3391.0, "deficit": 1.13, "deficit_rel": 0.69, "sp_tier": "coarse", "df_tier": "ok" }, "geometry": { "type": "Polygon", "coordinates": [ [ [ 127.849999999999895, 37.95 ], [ 127.849999999999895, 38.05 ], [ 127.75, 38.05 ], [ 127.75, 37.95 ], [ 127.849999999999895, 37.95 ] ] ] } },
{ "type": "Feature", "properties": { "sigma_nT": 43.0, "sigma_obs": 1, "spacing_req": 55.6, "spacing_now": 58.2, "cover_km": 22.7, "site_area": 3391.0, "deficit": 1.05, "deficit_rel": 0.63, "sp_tier": "coarse", "df_tier": "ok" }, "geometry": { "type": "Polygon", "coordinates": [ [ [ 127.949999999999889, 37.95 ], [ 127.949999999999889, 38.05 ], [ 127.849999999999895, 38.05 ], [ 127.849999999999895, 37.95 ], [ 127.949999999999889, 37.95 ] ] ] } },
{ "type": "Feature", "properties": { "sigma_nT": 25.0, "sigma_obs": 1, "spacing_req": 72.2, "spacing_now": 66.8, "cover_km": 29.2, "site_area": 4456.0, "deficit": 0.92, "deficit_rel": 0.56, "sp_tier": "sparse", "df_tier": "ok" }, "geometry": { "type": "Polygon", "coordinates": [ [ [ 128.049999999999898, 37.95 ], [ 128.049999999999898, 38.05 ], [ 127.949999999999889, 38.05 ], [ 127.949999999999889, 37.95 ], [ 128.049999999999898, 37.95 ] ] ] } },
{ "type": "Feature", "properties": { "sigma_nT": 29.0, "sigma_obs": 1, "spacing_req": 68.0, "spacing_now": 66.8, "cover_km": 20.5, "site_area": 4456.0, "deficit": 0.98, "deficit_rel": 0.59, "sp_tier": "sparse", "df_tier": "ok" }, "geometry": { "type": "Polygon", "coordinates": [ [ [ 128.149999999999892, 37.95 ], [ 128.149999999999892, 38.05 ], [ 128.049999999999869, 38.05 ], [ 128.049999999999869, 37.95 ], [ 128.149999999999892, 37.95 ] ] ] } },
{ "type": "Feature", "properties": { "sigma_nT": 32.0, "sigma_obs": 1, "spacing_req": 64.5, "spacing_now": 66.8, "cover_km": 11.7, "site_area": 4456.0, "deficit": 1.03, "deficit_rel": 0.63, "sp_tier": "coarse", "df_tier": "ok" }, "geometry": { "type": "Polygon", "coordinates": [ [ [ 128.249999999999886, 37.95 ], [ 128.249999999999886, 38.05 ], [ 128.149999999999864, 38.05 ], [ 128.149999999999864, 37.95 ], [ 128.249999999999886, 37.95 ] ] ] } },
{ "type": "Feature", "properties": { "sigma_nT": 34.0, "sigma_obs": 1, "spacing_req": 62.4, "spacing_now": 66.8, "cover_km": 3.1, "site_area": 4456.0, "deficit": 1.07, "deficit_rel": 0.65, "sp_tier": "coarse", "df_tier": "ok" }, "geometry": { "type": "Polygon", "coordinates": [ [ [ 128.349999999999881, 37.95 ], [ 128.349999999999881, 38.05 ], [ 128.249999999999858, 38.05 ], [ 128.249999999999858, 37.95 ], [ 128.349999999999881, 37.95 ] ] ] } },
{ "type": "Feature", "properties": { "sigma_nT": 31.0, "sigma_obs": 1, "spacing_req": 65.5, "spacing_now": 66.8, "cover_km": 6.0, "site_area": 4456.0, "deficit": 1.02, "deficit_rel": 0.62, "sp_tier": "sparse", "df_tier": "ok" }, "geometry": { "type": "Polygon", "coordinates": [ [ [ 128.449999999999875, 37.95 ], [ 128.449999999999875, 38.05 ], [ 128.349999999999852, 38.05 ], [ 128.349999999999852, 37.95 ], [ 128.449999999999875, 37.95 ] ] ] } },
{ "type": "Feature", "properties": { "sigma_nT": 26.0, "sigma_obs": 1, "spacing_req": 71.5, "spacing_now": 66.8, "cover_km": 14.7, "site_area": 4456.0, "deficit": 0.93, "deficit_rel": 0.57, "sp_tier": "sparse", "df_tier": "ok" }, "geometry": { "type": "Polygon", "coordinates": [ [ [ 128.549999999999869, 37.95 ], [ 128.549999999999869, 38.05 ], [ 128.449999999999847, 38.05 ], [ 128.449999999999847, 37.95 ], [ 128.549999999999869, 37.95 ] ] ] } },
{ "type": "Feature", "properties": { "sigma_nT": 21.0, "sigma_obs": 1, "spacing_req": 79.5, "spacing_now": 66.8, "cover_km": 23.4, "site_area": 4456.0, "deficit": 0.84, "deficit_rel": 0.51, "sp_tier": "sparse", "df_tier": "ok" }, "geometry": { "type": "Polygon", "coordinates": [ [ [ 128.649999999999864, 37.95 ], [ 128.649999999999864, 38.05 ], [ 128.549999999999841, 38.05 ], [ 128.549999999999841, 37.95 ], [ 128.649999999999864, 37.95 ] ] ] } },
{ "type": "Feature", "properties": { "sigma_nT": 19.0, "sigma_obs": 1, "spacing_req": 82.5, "spacing_now": 66.8, "cover_km": 32.2, "site_area": 4456.0, "deficit": 0.81, "deficit_rel": 0.49, "sp_tier": "sparse", "df_tier": "ok" }, "geometry": { "type": "Polygon", "coordinates": [ [ [ 128.749999999999858, 37.95 ], [ 128.749999999999858, 38.05 ], [ 128.649999999999835, 38.05 ], [ 128.649999999999835, 37.95 ], [ 128.749999999999858, 37.95 ] ] ] } },
{ "type": "Feature", "properties": { "sigma_nT": 16.0, "sigma_obs": 1, "spacing_req": 92.0, "spacing_now": 66.8, "cover_km": 41.0, "site_area": 4456.0, "deficit": 0.73, "deficit_rel": 0.44, "sp_tier": "sparse", "df_tier": "ok" }, "geometry": { "type": "Polygon", "coordinates": [ [ [ 128.849999999999852, 37.95 ], [ 128.849999999999852, 38.05 ], [ 128.749999999999829, 38.05 ], [ 128.749999999999829, 37.95 ], [ 128.849999999999852, 37.95 ] ] ] } },
{ "type": "Feature", "properties": { "sigma_nT": 7.0, "sigma_obs": 1, "spacing_req": 136.8, "spacing_now": 58.2, "cover_km": 10.1, "site_area": 3391.0, "deficit": 0.43, "deficit_rel": 0.26, "sp_tier": "sparse", "df_tier": "ok" }, "geometry": { "type": "Polygon", "coordinates": [ [ [ 127.849999999999895, 38.05 ], [ 127.849999999999895, 38.15 ], [ 127.75, 38.15 ], [ 127.75, 38.05 ], [ 127.849999999999895, 38.05 ] ] ] } },
{ "type": "Feature", "properties": { "sigma_nT": 13.0, "sigma_obs": 1, "spacing_req": 100.7, "spacing_now": 58.2, "cover_km": 18.8, "site_area": 3391.0, "deficit": 0.58, "deficit_rel": 0.35, "sp_tier": "sparse", "df_tier": "ok" }, "geometry": { "type": "Polygon", "coordinates": [ [ [ 127.949999999999889, 38.05 ], [ 127.949999999999889, 38.15 ], [ 127.849999999999895, 38.15 ], [ 127.849999999999895, 38.05 ], [ 127.949999999999889, 38.05 ] ] ] } },
{ "type": "Feature", "properties": { "sigma_nT": 22.0, "sigma_obs": 1, "spacing_req": 77.0, "spacing_now": 58.2, "cover_km": 27.5, "site_area": 3391.0, "deficit": 0.76, "deficit_rel": 0.46, "sp_tier": "sparse", "df_tier": "ok" }, "geometry": { "type": "Polygon", "coordinates": [ [ [ 128.049999999999898, 38.05 ], [ 128.049999999999898, 38.15 ], [ 127.949999999999889, 38.15 ], [ 127.949999999999889, 38.05 ], [ 128.049999999999898, 38.05 ] ] ] } },
{ "type": "Feature", "properties": { "sigma_nT": 25.0, "sigma_obs": 1, "spacing_req": 73.1, "spacing_now": 66.8, "cover_km": 22.7, "site_area": 4456.0, "deficit": 0.91, "deficit_rel": 0.55, "sp_tier": "sparse", "df_tier": "ok" }, "geometry": { "type": "Polygon", "coordinates": [ [ [ 128.149999999999892, 38.05 ], [ 128.149999999999892, 38.15 ], [ 128.049999999999869, 38.15 ], [ 128.049999999999869, 38.05 ], [ 128.149999999999892, 38.05 ] ] ] } },
{ "type": "Feature", "properties": { "sigma_nT": 28.0, "sigma_obs": 1, "spacing_req": 68.2, "spacing_now": 66.8, "cover_km": 15.3, "site_area": 4456.0, "deficit": 0.98, "deficit_rel": 0.59, "sp_tier": "sparse", "df_tier": "ok" }, "geometry": { "type": "Polygon", "coordinates": [ [ [ 128.249999999999886, 38.05 ], [ 128.249999999999886, 38.15 ], [ 128.149999999999864, 38.15 ], [ 128.149999999999864, 38.05 ], [ 128.249999999999886, 38.05 ] ] ] } },
{ "type": "Feature", "properties": { "sigma_nT": 29.0, "sigma_obs": 1, "spacing_req": 67.1, "spacing_now": 66.8, "cover_km": 10.4, "site_area": 4456.0, "deficit": 0.99, "deficit_rel": 0.6, "sp_tier": "sparse", "df_tier": "ok" }, "geometry": { "type": "Polygon", "coordinates": [ [ [ 128.349999999999881, 38.05 ], [ 128.349999999999881, 38.15 ], [ 128.249999999999858, 38.15 ], [ 128.249999999999858, 38.05 ], [ 128.349999999999881, 38.05 ] ] ] } },
{ "type": "Feature", "properties": { "sigma_nT": 26.0, "sigma_obs": 1, "spacing_req": 71.0, "spacing_now": 66.8, "cover_km": 11.6, "site_area": 4456.0, "deficit": 0.94, "deficit_rel": 0.57, "sp_tier": "sparse", "df_tier": "ok" }, "geometry": { "type": "Polygon", "coordinates": [ [ [ 128.449999999999875, 38.05 ], [ 128.449999999999875, 38.15 ], [ 128.349999999999852, 38.15 ], [ 128.349999999999852, 38.05 ], [ 128.449999999999875, 38.05 ] ] ] } },
{ "type": "Feature", "properties": { "sigma_nT": 20.0, "sigma_obs": 1, "spacing_req": 82.1, "spacing_now": 66.8, "cover_km": 17.7, "site_area": 4456.0, "deficit": 0.81, "deficit_rel": 0.49, "sp_tier": "sparse", "df_tier": "ok" }, "geometry": { "type": "Polygon", "coordinates": [ [ [ 128.549999999999869, 38.05 ], [ 128.549999999999869, 38.15 ], [ 128.449999999999847, 38.15 ], [ 128.449999999999847, 38.05 ], [ 128.549999999999869, 38.05 ] ] ] } },
{ "type": "Feature", "properties": { "sigma_nT": 19.0, "sigma_obs": 1, "spacing_req": 83.4, "spacing_now": 66.8, "cover_km": 25.4, "site_area": 4456.0, "deficit": 0.8, "deficit_rel": 0.49, "sp_tier": "sparse", "df_tier": "ok" }, "geometry": { "type": "Polygon", "coordinates": [ [ [ 128.649999999999864, 38.05 ], [ 128.649999999999864, 38.15 ], [ 128.549999999999841, 38.15 ], [ 128.549999999999841, 38.05 ], [ 128.649999999999864, 38.05 ] ] ] } },
{ "type": "Feature", "properties": { "sigma_nT": 19.0, "sigma_obs": 1, "spacing_req": 83.2, "spacing_now": 66.8, "cover_km": 33.7, "site_area": 4456.0, "deficit": 0.8, "deficit_rel": 0.49, "sp_tier": "sparse", "df_tier": "ok" }, "geometry": { "type": "Polygon", "coordinates": [ [ [ 128.749999999999858, 38.05 ], [ 128.749999999999858, 38.15 ], [ 128.649999999999835, 38.15 ], [ 128.649999999999835, 38.05 ], [ 128.749999999999858, 38.05 ] ] ] } },
{ "type": "Feature", "properties": { "sigma_nT": 12.0, "sigma_obs": 1, "spacing_req": 106.1, "spacing_now": 58.2, "cover_km": 29.0, "site_area": 3391.0, "deficit": 0.55, "deficit_rel": 0.33, "sp_tier": "sparse", "df_tier": "ok" }, "geometry": { "type": "Polygon", "coordinates": [ [ [ 128.049999999999898, 38.15 ], [ 128.049999999999898, 38.25 ], [ 127.949999999999889, 38.25 ], [ 127.949999999999889, 38.15 ], [ 128.049999999999898, 38.15 ] ] ] } },
{ "type": "Feature", "properties": { "sigma_nT": 14.0, "sigma_obs": 1, "spacing_req": 96.7, "spacing_now": 66.8, "cover_km": 29.3, "site_area": 4456.0, "deficit": 0.69, "deficit_rel": 0.42, "sp_tier": "sparse", "df_tier": "ok" }, "geometry": { "type": "Polygon", "coordinates": [ [ [ 128.149999999999892, 38.15 ], [ 128.149999999999892, 38.25 ], [ 128.049999999999869, 38.25 ], [ 128.049999999999869, 38.15 ], [ 128.149999999999892, 38.15 ] ] ] } },
{ "type": "Feature", "properties": { "sigma_nT": 17.0, "sigma_obs": 1, "spacing_req": 88.1, "spacing_now": 66.8, "cover_km": 24.0, "site_area": 4456.0, "deficit": 0.76, "deficit_rel": 0.46, "sp_tier": "sparse", "df_tier": "ok" }, "geometry": { "type": "Polygon", "coordinates": [ [ [ 128.249999999999886, 38.15 ], [ 128.249999999999886, 38.25 ], [ 128.149999999999864, 38.25 ], [ 128.149999999999864, 38.15 ], [ 128.249999999999886, 38.15 ] ] ] } },
{ "type": "Feature", "properties": { "sigma_nT": 31.0, "sigma_obs": 1, "spacing_req": 64.9, "spacing_now": 66.8, "cover_km": 21.2, "site_area": 4456.0, "deficit": 1.03, "deficit_rel": 0.62, "sp_tier": "coarse", "df_tier": "ok" }, "geometry": { "type": "Polygon", "coordinates": [ [ [ 128.349999999999881, 38.15 ], [ 128.349999999999881, 38.25 ], [ 128.249999999999858, 38.25 ], [ 128.249999999999858, 38.15 ], [ 128.349999999999881, 38.15 ] ] ] } },
{ "type": "Feature", "properties": { "sigma_nT": 25.0, "sigma_obs": 1, "spacing_req": 72.9, "spacing_now": 66.8, "cover_km": 21.8, "site_area": 4456.0, "deficit": 0.92, "deficit_rel": 0.55, "sp_tier": "sparse", "df_tier": "ok" }, "geometry": { "type": "Polygon", "coordinates": [ [ [ 128.449999999999875, 38.15 ], [ 128.449999999999875, 38.25 ], [ 128.349999999999852, 38.25 ], [ 128.349999999999852, 38.15 ], [ 128.449999999999875, 38.15 ] ] ] } },
{ "type": "Feature", "properties": { "sigma_nT": 23.0, "sigma_obs": 1, "spacing_req": 76.2, "spacing_now": 66.8, "cover_km": 25.6, "site_area": 4456.0, "deficit": 0.88, "deficit_rel": 0.53, "sp_tier": "sparse", "df_tier": "ok" }, "geometry": { "type": "Polygon", "coordinates": [ [ [ 128.549999999999869, 38.15 ], [ 128.549999999999869, 38.25 ], [ 128.449999999999847, 38.25 ], [ 128.449999999999847, 38.15 ], [ 128.549999999999869, 38.15 ] ] ] } },
{ "type": "Feature", "properties": { "sigma_nT": 22.0, "sigma_obs": 1, "spacing_req": 77.6, "spacing_now": 66.8, "cover_km": 31.4, "site_area": 4456.0, "deficit": 0.86, "deficit_rel": 0.52, "sp_tier": "sparse", "df_tier": "ok" }, "geometry": { "type": "Polygon", "coordinates": [ [ [ 128.649999999999864, 38.15 ], [ 128.649999999999864, 38.25 ], [ 128.549999999999841, 38.25 ], [ 128.549999999999841, 38.15 ], [ 128.649999999999864, 38.15 ] ] ] } },
{ "type": "Feature", "properties": { "sigma_nT": 13.0, "sigma_obs": 1, "spacing_req": 101.6, "spacing_now": 66.8, "cover_km": 35.3, "site_area": 4456.0, "deficit": 0.66, "deficit_rel": 0.4, "sp_tier": "sparse", "df_tier": "ok" }, "geometry": { "type": "Polygon", "coordinates": [ [ [ 128.549999999999869, 38.25 ], [ 128.549999999999869, 38.35 ], [ 128.449999999999847, 38.35 ], [ 128.449999999999847, 38.25 ], [ 128.549999999999869, 38.25 ] ] ] } },
{ "type": "Feature", "properties": { "sigma_nT": 13.0, "sigma_obs": 1, "spacing_req": 101.2, "spacing_now": 66.8, "cover_km": 39.7, "site_area": 4456.0, "deficit": 0.66, "deficit_rel": 0.4, "sp_tier": "sparse", "df_tier": "ok" }, "geometry": { "type": "Polygon", "coordinates": [ [ [ 128.649999999999864, 38.25 ], [ 128.649999999999864, 38.35 ], [ 128.549999999999841, 38.35 ], [ 128.549999999999841, 38.25 ], [ 128.649999999999864, 38.25 ] ] ] } }
]
}
