{
"type": "FeatureCollection",
"name": "density_gap_critical",
"crs": { "type": "name", "properties": { "name": "urn:ogc:def:crs:OGC:1.3:CRS84" } },
"features": [
{ "type": "Feature", "properties": { "sigma_nT": 171.0, "sigma_obs": 1, "spacing_req": 30.8, "spacing_now": 147.7, "deficit": 4.8, "sp_tier": "dense", "df_tier": "critical" }, "geometry": { "type": "Polygon", "coordinates": [ [ [ 126.25, 33.15 ], [ 126.25, 33.25 ], [ 126.15, 33.25 ], [ 126.15, 33.15 ], [ 126.25, 33.15 ] ] ] } },
{ "type": "Feature", "properties": { "sigma_nT": 223.0, "sigma_obs": 1, "spacing_req": 26.9, "spacing_now": 131.7, "deficit": 4.9, "sp_tier": "dense", "df_tier": "critical" }, "geometry": { "type": "Polygon", "coordinates": [ [ [ 126.35, 33.15 ], [ 126.35, 33.25 ], [ 126.25, 33.25 ], [ 126.25, 33.15 ], [ 126.35, 33.15 ] ] ] } },
{ "type": "Feature", "properties": { "sigma_nT": 228.0, "sigma_obs": 1, "spacing_req": 26.6, "spacing_now": 116.6, "deficit": 4.38, "sp_tier": "dense", "df_tier": "critical" }, "geometry": { "type": "Polygon", "coordinates": [ [ [ 126.45, 33.15 ], [ 126.45, 33.25 ], [ 126.35, 33.25 ], [ 126.35, 33.15 ], [ 126.45, 33.15 ] ] ] } },
{ "type": "Feature", "properties": { "sigma_nT": 228.0, "sigma_obs": 1, "spacing_req": 26.6, "spacing_now": 102.6, "deficit": 3.85, "sp_tier": "dense", "df_tier": "critical" }, "geometry": { "type": "Polygon", "coordinates": [ [ [ 126.55, 33.15 ], [ 126.55, 33.25 ], [ 126.45, 33.25 ], [ 126.45, 33.15 ], [ 126.55, 33.15 ] ] ] } },
{ "type": "Feature", "properties": { "sigma_nT": 235.0, "sigma_obs": 1, "spacing_req": 26.2, "spacing_now": 90.2, "deficit": 3.44, "sp_tier": "dense", "df_tier": "critical" }, "geometry": { "type": "Polygon", "coordinates": [ [ [ 126.65, 33.15 ], [ 126.65, 33.25 ], [ 126.55, 33.25 ], [ 126.55, 33.15 ], [ 126.65, 33.15 ] ] ] } },
{ "type": "Feature", "properties": { "sigma_nT": 172.0, "sigma_obs": 1, "spacing_req": 30.7, "spacing_now": 138.2, "deficit": 4.51, "sp_tier": "dense", "df_tier": "critical" }, "geometry": { "type": "Polygon", "coordinates": [ [ [ 126.25, 33.25 ], [ 126.25, 33.35 ], [ 126.15, 33.35 ], [ 126.15, 33.25 ], [ 126.25, 33.25 ] ] ] } },
{ "type": "Feature", "properties": { "sigma_nT": 218.0, "sigma_obs": 1, "spacing_req": 27.2, "spacing_now": 121.1, "deficit": 4.45, "sp_tier": "dense", "df_tier": "critical" }, "geometry": { "type": "Polygon", "coordinates": [ [ [ 126.35, 33.25 ], [ 126.35, 33.35 ], [ 126.25, 33.35 ], [ 126.25, 33.25 ], [ 126.35, 33.25 ] ] ] } },
{ "type": "Feature", "properties": { "sigma_nT": 218.0, "sigma_obs": 1, "spacing_req": 27.2, "spacing_now": 104.4, "deficit": 3.83, "sp_tier": "dense", "df_tier": "critical" }, "geometry": { "type": "Polygon", "coordinates": [ [ [ 126.45, 33.25 ], [ 126.45, 33.35 ], [ 126.35, 33.35 ], [ 126.35, 33.25 ], [ 126.45, 33.25 ] ] ] } },
{ "type": "Feature", "properties": { "sigma_nT": 213.0, "sigma_obs": 1, "spacing_req": 27.5, "spacing_now": 88.5, "deficit": 3.22, "sp_tier": "dense", "df_tier": "critical" }, "geometry": { "type": "Polygon", "coordinates": [ [ [ 126.55, 33.25 ], [ 126.55, 33.35 ], [ 126.45, 33.35 ], [ 126.45, 33.25 ], [ 126.55, 33.25 ] ] ] } },
{ "type": "Feature", "properties": { "sigma_nT": 217.0, "sigma_obs": 1, "spacing_req": 27.3, "spacing_now": 73.8, "deficit": 2.71, "sp_tier": "dense", "df_tier": "critical" }, "geometry": { "type": "Polygon", "coordinates": [ [ [ 126.65, 33.25 ], [ 126.65, 33.35 ], [ 126.55, 33.35 ], [ 126.55, 33.25 ], [ 126.65, 33.25 ] ] ] } },
{ "type": "Feature", "properties": { "sigma_nT": 214.0, "sigma_obs": 1, "spacing_req": 27.5, "spacing_now": 61.4, "deficit": 2.23, "sp_tier": "dense", "df_tier": "critical" }, "geometry": { "type": "Polygon", "coordinates": [ [ [ 126.75, 33.25 ], [ 126.75, 33.35 ], [ 126.65, 33.35 ], [ 126.65, 33.25 ], [ 126.75, 33.25 ] ] ] } },
{ "type": "Feature", "properties": { "sigma_nT": 172.0, "sigma_obs": 1, "spacing_req": 30.7, "spacing_now": 131.8, "deficit": 4.3, "sp_tier": "dense", "df_tier": "critical" }, "geometry": { "type": "Polygon", "coordinates": [ [ [ 126.25, 33.35 ], [ 126.25, 33.45 ], [ 126.15, 33.45 ], [ 126.15, 33.35 ], [ 126.25, 33.35 ] ] ] } },
{ "type": "Feature", "properties": { "sigma_nT": 218.0, "sigma_obs": 1, "spacing_req": 27.2, "spacing_now": 113.7, "deficit": 4.18, "sp_tier": "dense", "df_tier": "critical" }, "geometry": { "type": "Polygon", "coordinates": [ [ [ 126.35, 33.35 ], [ 126.35, 33.45 ], [ 126.25, 33.45 ], [ 126.25, 33.35 ], [ 126.35, 33.35 ] ] ] } },
{ "type": "Feature", "properties": { "sigma_nT": 218.0, "sigma_obs": 1, "spacing_req": 27.2, "spacing_now": 95.8, "deficit": 3.52, "sp_tier": "dense", "df_tier": "critical" }, "geometry": { "type": "Polygon", "coordinates": [ [ [ 126.45, 33.35 ], [ 126.45, 33.45 ], [ 126.35, 33.45 ], [ 126.35, 33.35 ], [ 126.45, 33.35 ] ] ] } },
{ "type": "Feature", "properties": { "sigma_nT": 212.0, "sigma_obs": 1, "spacing_req": 27.6, "spacing_now": 78.2, "deficit": 2.83, "sp_tier": "dense", "df_tier": "critical" }, "geometry": { "type": "Polygon", "coordinates": [ [ [ 126.55, 33.35 ], [ 126.55, 33.45 ], [ 126.45, 33.45 ], [ 126.45, 33.35 ], [ 126.55, 33.35 ] ] ] } },
{ "type": "Feature", "properties": { "sigma_nT": 215.0, "sigma_obs": 1, "spacing_req": 27.4, "spacing_now": 61.2, "deficit": 2.23, "sp_tier": "dense", "df_tier": "critical" }, "geometry": { "type": "Polygon", "coordinates": [ [ [ 126.65, 33.35 ], [ 126.65, 33.45 ], [ 126.55, 33.45 ], [ 126.55, 33.35 ], [ 126.65, 33.35 ] ] ] } },
{ "type": "Feature", "properties": { "sigma_nT": 211.0, "sigma_obs": 1, "spacing_req": 27.7, "spacing_now": 91.9, "deficit": 3.32, "sp_tier": "dense", "df_tier": "critical" }, "geometry": { "type": "Polygon", "coordinates": [ [ [ 126.45, 33.45 ], [ 126.45, 33.55 ], [ 126.35, 33.55 ], [ 126.35, 33.45 ], [ 126.45, 33.45 ] ] ] } },
{ "type": "Feature", "properties": { "sigma_nT": 206.0, "sigma_obs": 1, "spacing_req": 28.0, "spacing_now": 73.4, "deficit": 2.62, "sp_tier": "dense", "df_tier": "critical" }, "geometry": { "type": "Polygon", "coordinates": [ [ [ 126.55, 33.45 ], [ 126.55, 33.55 ], [ 126.45, 33.55 ], [ 126.45, 33.45 ], [ 126.55, 33.45 ] ] ] } },
{ "type": "Feature", "properties": { "sigma_nT": 142.0, "sigma_obs": 1, "spacing_req": 33.7, "spacing_now": 75.1, "deficit": 2.22, "sp_tier": "dense", "df_tier": "critical" }, "geometry": { "type": "Polygon", "coordinates": [ [ [ 126.65, 34.25 ], [ 126.65, 34.35 ], [ 126.55, 34.35 ], [ 126.55, 34.25 ], [ 126.65, 34.25 ] ] ] } },
{ "type": "Feature", "properties": { "sigma_nT": 140.0, "sigma_obs": 1, "spacing_req": 34.0, "spacing_now": 88.5, "deficit": 2.61, "sp_tier": "dense", "df_tier": "critical" }, "geometry": { "type": "Polygon", "coordinates": [ [ [ 126.75, 34.25 ], [ 126.75, 34.35 ], [ 126.65, 34.35 ], [ 126.65, 34.25 ], [ 126.75, 34.25 ] ] ] } },
{ "type": "Feature", "properties": { "sigma_nT": 149.0, "sigma_obs": 1, "spacing_req": 32.9, "spacing_now": 79.4, "deficit": 2.41, "sp_tier": "dense", "df_tier": "critical" }, "geometry": { "type": "Polygon", "coordinates": [ [ [ 126.85, 34.25 ], [ 126.85, 34.35 ], [ 126.75, 34.35 ], [ 126.75, 34.25 ], [ 126.85, 34.25 ] ] ] } },
{ "type": "Feature", "properties": { "sigma_nT": 139.0, "sigma_obs": 1, "spacing_req": 34.0, "spacing_now": 69.5, "deficit": 2.04, "sp_tier": "dense", "df_tier": "critical" }, "geometry": { "type": "Polygon", "coordinates": [ [ [ 126.65, 34.35 ], [ 126.65, 34.45 ], [ 126.55, 34.45 ], [ 126.55, 34.35 ], [ 126.65, 34.35 ] ] ] } },
{ "type": "Feature", "properties": { "sigma_nT": 139.0, "sigma_obs": 1, "spacing_req": 34.1, "spacing_now": 71.6, "deficit": 2.1, "sp_tier": "dense", "df_tier": "critical" }, "geometry": { "type": "Polygon", "coordinates": [ [ [ 126.75, 34.35 ], [ 126.75, 34.45 ], [ 126.65, 34.45 ], [ 126.65, 34.35 ], [ 126.75, 34.35 ] ] ] } },
{ "type": "Feature", "properties": { "sigma_nT": 138.0, "sigma_obs": 1, "spacing_req": 34.2, "spacing_now": 70.7, "deficit": 2.07, "sp_tier": "dense", "df_tier": "critical" }, "geometry": { "type": "Polygon", "coordinates": [ [ [ 126.65, 34.45 ], [ 126.65, 34.55 ], [ 126.55, 34.55 ], [ 126.55, 34.45 ], [ 126.65, 34.45 ] ] ] } },
{ "type": "Feature", "properties": { "sigma_nT": 142.0, "sigma_obs": 1, "spacing_req": 33.8, "spacing_now": 69.5, "deficit": 2.06, "sp_tier": "dense", "df_tier": "critical" }, "geometry": { "type": "Polygon", "coordinates": [ [ [ 126.65, 34.55 ], [ 126.65, 34.65 ], [ 126.55, 34.65 ], [ 126.55, 34.55 ], [ 126.65, 34.55 ] ] ] } },
{ "type": "Feature", "properties": { "sigma_nT": 158.0, "sigma_obs": 1, "spacing_req": 31.9, "spacing_now": 79.2, "deficit": 2.48, "sp_tier": "dense", "df_tier": "critical" }, "geometry": { "type": "Polygon", "coordinates": [ [ [ 127.75, 34.55 ], [ 127.75, 34.65 ], [ 127.65, 34.65 ], [ 127.65, 34.55 ], [ 127.75, 34.55 ] ] ] } },
{ "type": "Feature", "properties": { "sigma_nT": 173.0, "sigma_obs": 1, "spacing_req": 30.5, "spacing_now": 68.1, "deficit": 2.23, "sp_tier": "dense", "df_tier": "critical" }, "geometry": { "type": "Polygon", "coordinates": [ [ [ 127.849999999999895, 34.55 ], [ 127.849999999999895, 34.65 ], [ 127.75, 34.65 ], [ 127.75, 34.55 ], [ 127.849999999999895, 34.55 ] ] ] } },
{ "type": "Feature", "properties": { "sigma_nT": 147.0, "sigma_obs": 1, "spacing_req": 33.2, "spacing_now": 67.6, "deficit": 2.04, "sp_tier": "dense", "df_tier": "critical" }, "geometry": { "type": "Polygon", "coordinates": [ [ [ 126.45, 34.65 ], [ 126.45, 34.75 ], [ 126.35, 34.75 ], [ 126.35, 34.65 ], [ 126.45, 34.65 ] ] ] } },
{ "type": "Feature", "properties": { "sigma_nT": 127.0, "sigma_obs": 1, "spacing_req": 35.7, "spacing_now": 78.0, "deficit": 2.19, "sp_tier": "mid", "df_tier": "critical" }, "geometry": { "type": "Polygon", "coordinates": [ [ [ 126.55, 34.65 ], [ 126.55, 34.75 ], [ 126.45, 34.75 ], [ 126.45, 34.65 ], [ 126.55, 34.65 ] ] ] } },
{ "type": "Feature", "properties": { "sigma_nT": 160.0, "sigma_obs": 1, "spacing_req": 31.8, "spacing_now": 64.8, "deficit": 2.04, "sp_tier": "dense", "df_tier": "critical" }, "geometry": { "type": "Polygon", "coordinates": [ [ [ 127.75, 34.65 ], [ 127.75, 34.75 ], [ 127.65, 34.75 ], [ 127.65, 34.65 ], [ 127.75, 34.65 ] ] ] } },
{ "type": "Feature", "properties": { "sigma_nT": 134.0, "sigma_obs": 1, "spacing_req": 34.8, "spacing_now": 84.5, "deficit": 2.43, "sp_tier": "dense", "df_tier": "critical" }, "geometry": { "type": "Polygon", "coordinates": [ [ [ 126.15, 34.75 ], [ 126.15, 34.85 ], [ 126.05, 34.85 ], [ 126.05, 34.75 ], [ 126.15, 34.75 ] ] ] } },
{ "type": "Feature", "properties": { "sigma_nT": 123.0, "sigma_obs": 1, "spacing_req": 36.2, "spacing_now": 81.6, "deficit": 2.25, "sp_tier": "mid", "df_tier": "critical" }, "geometry": { "type": "Polygon", "coordinates": [ [ [ 126.25, 34.75 ], [ 126.25, 34.85 ], [ 126.15, 34.85 ], [ 126.15, 34.75 ], [ 126.25, 34.75 ] ] ] } },
{ "type": "Feature", "properties": { "sigma_nT": 123.0, "sigma_obs": 1, "spacing_req": 36.2, "spacing_now": 82.1, "deficit": 2.27, "sp_tier": "mid", "df_tier": "critical" }, "geometry": { "type": "Polygon", "coordinates": [ [ [ 126.45, 34.75 ], [ 126.45, 34.85 ], [ 126.35, 34.85 ], [ 126.35, 34.75 ], [ 126.45, 34.75 ] ] ] } },
{ "type": "Feature", "properties": { "sigma_nT": 115.0, "sigma_obs": 1, "spacing_req": 37.5, "spacing_now": 85.6, "deficit": 2.28, "sp_tier": "mid", "df_tier": "critical" }, "geometry": { "type": "Polygon", "coordinates": [ [ [ 126.55, 34.75 ], [ 126.55, 34.85 ], [ 126.45, 34.85 ], [ 126.45, 34.75 ], [ 126.55, 34.75 ] ] ] } },
{ "type": "Feature", "properties": { "sigma_nT": 107.0, "sigma_obs": 1, "spacing_req": 38.8, "spacing_now": 79.0, "deficit": 2.03, "sp_tier": "mid", "df_tier": "critical" }, "geometry": { "type": "Polygon", "coordinates": [ [ [ 126.65, 34.75 ], [ 126.65, 34.85 ], [ 126.55, 34.85 ], [ 126.55, 34.75 ], [ 126.65, 34.75 ] ] ] } },
{ "type": "Feature", "properties": { "sigma_nT": 118.0, "sigma_obs": 1, "spacing_req": 37.1, "spacing_now": 88.9, "deficit": 2.4, "sp_tier": "mid", "df_tier": "critical" }, "geometry": { "type": "Polygon", "coordinates": [ [ [ 126.05, 34.85 ], [ 126.05, 34.95 ], [ 125.95, 34.95 ], [ 125.95, 34.85 ], [ 126.05, 34.85 ] ] ] } },
{ "type": "Feature", "properties": { "sigma_nT": 119.0, "sigma_obs": 1, "spacing_req": 36.8, "spacing_now": 76.4, "deficit": 2.08, "sp_tier": "mid", "df_tier": "critical" }, "geometry": { "type": "Polygon", "coordinates": [ [ [ 126.15, 34.85 ], [ 126.15, 34.95 ], [ 126.05, 34.95 ], [ 126.05, 34.85 ], [ 126.15, 34.85 ] ] ] } },
{ "type": "Feature", "properties": { "sigma_nT": 105.0, "sigma_obs": 1, "spacing_req": 39.2, "spacing_now": 88.2, "deficit": 2.25, "sp_tier": "mid", "df_tier": "critical" }, "geometry": { "type": "Polygon", "coordinates": [ [ [ 126.85, 34.95 ], [ 126.85, 35.05 ], [ 126.75, 35.05 ], [ 126.75, 34.95 ], [ 126.85, 34.95 ] ] ] } },
{ "type": "Feature", "properties": { "sigma_nT": 104.0, "sigma_obs": 1, "spacing_req": 39.3, "spacing_now": 78.8, "deficit": 2.0, "sp_tier": "mid", "df_tier": "critical" }, "geometry": { "type": "Polygon", "coordinates": [ [ [ 126.95, 34.95 ], [ 126.95, 35.05 ], [ 126.85, 35.05 ], [ 126.85, 34.95 ], [ 126.95, 34.95 ] ] ] } },
{ "type": "Feature", "properties": { "sigma_nT": 177.0, "sigma_obs": 1, "spacing_req": 30.2, "spacing_now": 60.7, "deficit": 2.01, "sp_tier": "dense", "df_tier": "critical" }, "geometry": { "type": "Polygon", "coordinates": [ [ [ 128.349999999999881, 34.95 ], [ 128.349999999999881, 35.05 ], [ 128.249999999999858, 35.05 ], [ 128.249999999999858, 34.95 ], [ 128.349999999999881, 34.95 ] ] ] } },
{ "type": "Feature", "properties": { "sigma_nT": 160.0, "sigma_obs": 1, "spacing_req": 31.8, "spacing_now": 75.5, "deficit": 2.38, "sp_tier": "dense", "df_tier": "critical" }, "geometry": { "type": "Polygon", "coordinates": [ [ [ 126.85, 35.05 ], [ 126.85, 35.15 ], [ 126.75, 35.15 ], [ 126.75, 35.05 ], [ 126.85, 35.05 ] ] ] } },
{ "type": "Feature", "properties": { "sigma_nT": 91.0, "sigma_obs": 1, "spacing_req": 42.2, "spacing_now": 87.7, "deficit": 2.08, "sp_tier": "mid", "df_tier": "critical" }, "geometry": { "type": "Polygon", "coordinates": [ [ [ 127.65, 35.05 ], [ 127.65, 35.15 ], [ 127.55, 35.15 ], [ 127.55, 35.05 ], [ 127.65, 35.05 ] ] ] } },
{ "type": "Feature", "properties": { "sigma_nT": 157.0, "sigma_obs": 1, "spacing_req": 32.1, "spacing_now": 64.5, "deficit": 2.01, "sp_tier": "dense", "df_tier": "critical" }, "geometry": { "type": "Polygon", "coordinates": [ [ [ 128.249999999999886, 35.05 ], [ 128.249999999999886, 35.15 ], [ 128.149999999999864, 35.15 ], [ 128.149999999999864, 35.05 ], [ 128.249999999999886, 35.05 ] ] ] } },
{ "type": "Feature", "properties": { "sigma_nT": 174.0, "sigma_obs": 1, "spacing_req": 30.5, "spacing_now": 73.7, "deficit": 2.42, "sp_tier": "dense", "df_tier": "critical" }, "geometry": { "type": "Polygon", "coordinates": [ [ [ 128.349999999999881, 35.05 ], [ 128.349999999999881, 35.15 ], [ 128.249999999999858, 35.15 ], [ 128.249999999999858, 35.05 ], [ 128.349999999999881, 35.05 ] ] ] } },
{ "type": "Feature", "properties": { "sigma_nT": 186.0, "sigma_obs": 1, "spacing_req": 29.4, "spacing_now": 61.8, "deficit": 2.1, "sp_tier": "dense", "df_tier": "critical" }, "geometry": { "type": "Polygon", "coordinates": [ [ [ 128.449999999999875, 35.05 ], [ 128.449999999999875, 35.15 ], [ 128.349999999999852, 35.15 ], [ 128.349999999999852, 35.05 ], [ 128.449999999999875, 35.05 ] ] ] } },
{ "type": "Feature", "properties": { "sigma_nT": 205.0, "sigma_obs": 1, "spacing_req": 28.1, "spacing_now": 63.3, "deficit": 2.26, "sp_tier": "dense", "df_tier": "critical" }, "geometry": { "type": "Polygon", "coordinates": [ [ [ 128.849999999999852, 35.05 ], [ 128.849999999999852, 35.15 ], [ 128.749999999999829, 35.15 ], [ 128.749999999999829, 35.05 ], [ 128.849999999999852, 35.05 ] ] ] } },
{ "type": "Feature", "properties": { "sigma_nT": 190.0, "sigma_obs": 1, "spacing_req": 29.2, "spacing_now": 75.6, "deficit": 2.59, "sp_tier": "dense", "df_tier": "critical" }, "geometry": { "type": "Polygon", "coordinates": [ [ [ 128.949999999999847, 35.05 ], [ 128.949999999999847, 35.15 ], [ 128.849999999999824, 35.15 ], [ 128.849999999999824, 35.05 ], [ 128.949999999999847, 35.05 ] ] ] } },
{ "type": "Feature", "properties": { "sigma_nT": 176.0, "sigma_obs": 1, "spacing_req": 30.3, "spacing_now": 90.0, "deficit": 2.97, "sp_tier": "dense", "df_tier": "critical" }, "geometry": { "type": "Polygon", "coordinates": [ [ [ 129.049999999999841, 35.05 ], [ 129.049999999999841, 35.15 ], [ 128.949999999999818, 35.15 ], [ 128.949999999999818, 35.05 ], [ 129.049999999999841, 35.05 ] ] ] } },
{ "type": "Feature", "properties": { "sigma_nT": 157.0, "sigma_obs": 1, "spacing_req": 32.1, "spacing_now": 105.5, "deficit": 3.29, "sp_tier": "dense", "df_tier": "critical" }, "geometry": { "type": "Polygon", "coordinates": [ [ [ 129.149999999999835, 35.05 ], [ 129.149999999999835, 35.15 ], [ 129.049999999999812, 35.15 ], [ 129.049999999999812, 35.05 ], [ 129.149999999999835, 35.05 ] ] ] } },
{ "type": "Feature", "properties": { "sigma_nT": 174.0, "sigma_obs": 1, "spacing_req": 30.5, "spacing_now": 65.3, "deficit": 2.14, "sp_tier": "dense", "df_tier": "critical" }, "geometry": { "type": "Polygon", "coordinates": [ [ [ 126.85, 35.15 ], [ 126.85, 35.25 ], [ 126.75, 35.25 ], [ 126.75, 35.15 ], [ 126.85, 35.15 ] ] ] } },
{ "type": "Feature", "properties": { "sigma_nT": 111.0, "sigma_obs": 1, "spacing_req": 38.1, "spacing_now": 77.0, "deficit": 2.02, "sp_tier": "mid", "df_tier": "critical" }, "geometry": { "type": "Polygon", "coordinates": [ [ [ 127.75, 35.15 ], [ 127.75, 35.25 ], [ 127.65, 35.25 ], [ 127.65, 35.15 ], [ 127.75, 35.15 ] ] ] } },
{ "type": "Feature", "properties": { "sigma_nT": 117.0, "sigma_obs": 1, "spacing_req": 37.1, "spacing_now": 82.3, "deficit": 2.22, "sp_tier": "mid", "df_tier": "critical" }, "geometry": { "type": "Polygon", "coordinates": [ [ [ 127.849999999999895, 35.15 ], [ 127.849999999999895, 35.25 ], [ 127.75, 35.25 ], [ 127.75, 35.15 ], [ 127.849999999999895, 35.15 ] ] ] } },
{ "type": "Feature", "properties": { "sigma_nT": 120.0, "sigma_obs": 1, "spacing_req": 36.8, "spacing_now": 76.8, "deficit": 2.09, "sp_tier": "mid", "df_tier": "critical" }, "geometry": { "type": "Polygon", "coordinates": [ [ [ 127.949999999999889, 35.15 ], [ 127.949999999999889, 35.25 ], [ 127.849999999999895, 35.25 ], [ 127.849999999999895, 35.15 ], [ 127.949999999999889, 35.15 ] ] ] } },
{ "type": "Feature", "properties": { "sigma_nT": 116.0, "sigma_obs": 1, "spacing_req": 37.3, "spacing_now": 74.8, "deficit": 2.01, "sp_tier": "mid", "df_tier": "critical" }, "geometry": { "type": "Polygon", "coordinates": [ [ [ 128.049999999999898, 35.15 ], [ 128.049999999999898, 35.25 ], [ 127.949999999999889, 35.25 ], [ 127.949999999999889, 35.15 ], [ 128.049999999999898, 35.15 ] ] ] } },
{ "type": "Feature", "properties": { "sigma_nT": 133.0, "sigma_obs": 1, "spacing_req": 34.9, "spacing_now": 77.2, "deficit": 2.21, "sp_tier": "dense", "df_tier": "critical" }, "geometry": { "type": "Polygon", "coordinates": [ [ [ 128.149999999999892, 35.15 ], [ 128.149999999999892, 35.25 ], [ 128.049999999999869, 35.25 ], [ 128.049999999999869, 35.15 ], [ 128.149999999999892, 35.15 ] ] ] } },
{ "type": "Feature", "properties": { "sigma_nT": 148.0, "sigma_obs": 1, "spacing_req": 33.1, "spacing_now": 72.1, "deficit": 2.18, "sp_tier": "dense", "df_tier": "critical" }, "geometry": { "type": "Polygon", "coordinates": [ [ [ 128.249999999999886, 35.15 ], [ 128.249999999999886, 35.25 ], [ 128.149999999999864, 35.25 ], [ 128.149999999999864, 35.15 ], [ 128.249999999999886, 35.15 ] ] ] } },
{ "type": "Feature", "properties": { "sigma_nT": 185.0, "sigma_obs": 1, "spacing_req": 29.6, "spacing_now": 66.5, "deficit": 2.25, "sp_tier": "dense", "df_tier": "critical" }, "geometry": { "type": "Polygon", "coordinates": [ [ [ 128.749999999999858, 35.15 ], [ 128.749999999999858, 35.25 ], [ 128.649999999999835, 35.25 ], [ 128.649999999999835, 35.15 ], [ 128.749999999999858, 35.15 ] ] ] } },
{ "type": "Feature", "properties": { "sigma_nT": 193.0, "sigma_obs": 1, "spacing_req": 28.9, "spacing_now": 79.0, "deficit": 2.73, "sp_tier": "dense", "df_tier": "critical" }, "geometry": { "type": "Polygon", "coordinates": [ [ [ 128.849999999999852, 35.15 ], [ 128.849999999999852, 35.25 ], [ 128.749999999999829, 35.25 ], [ 128.749999999999829, 35.15 ], [ 128.849999999999852, 35.15 ] ] ] } },
{ "type": "Feature", "properties": { "sigma_nT": 178.0, "sigma_obs": 1, "spacing_req": 30.2, "spacing_now": 91.9, "deficit": 3.05, "sp_tier": "dense", "df_tier": "critical" }, "geometry": { "type": "Polygon", "coordinates": [ [ [ 128.949999999999847, 35.15 ], [ 128.949999999999847, 35.25 ], [ 128.849999999999824, 35.25 ], [ 128.849999999999824, 35.15 ], [ 128.949999999999847, 35.15 ] ] ] } },
{ "type": "Feature", "properties": { "sigma_nT": 169.0, "sigma_obs": 1, "spacing_req": 30.9, "spacing_now": 104.0, "deficit": 3.37, "sp_tier": "dense", "df_tier": "critical" }, "geometry": { "type": "Polygon", "coordinates": [ [ [ 129.049999999999841, 35.15 ], [ 129.049999999999841, 35.25 ], [ 128.949999999999818, 35.25 ], [ 128.949999999999818, 35.15 ], [ 129.049999999999841, 35.15 ] ] ] } },
{ "type": "Feature", "properties": { "sigma_nT": 159.0, "sigma_obs": 1, "spacing_req": 31.8, "spacing_now": 105.8, "deficit": 3.33, "sp_tier": "dense", "df_tier": "critical" }, "geometry": { "type": "Polygon", "coordinates": [ [ [ 129.149999999999835, 35.15 ], [ 129.149999999999835, 35.25 ], [ 129.049999999999812, 35.25 ], [ 129.049999999999812, 35.15 ], [ 129.149999999999835, 35.15 ] ] ] } },
{ "type": "Feature", "properties": { "sigma_nT": 161.0, "sigma_obs": 1, "spacing_req": 31.7, "spacing_now": 104.8, "deficit": 3.31, "sp_tier": "dense", "df_tier": "critical" }, "geometry": { "type": "Polygon", "coordinates": [ [ [ 129.249999999999829, 35.15 ], [ 129.249999999999829, 35.25 ], [ 129.149999999999807, 35.25 ], [ 129.149999999999807, 35.15 ], [ 129.249999999999829, 35.15 ] ] ] } },
{ "type": "Feature", "properties": { "sigma_nT": 159.0, "sigma_obs": 1, "spacing_req": 31.8, "spacing_now": 63.7, "deficit": 2.0, "sp_tier": "dense", "df_tier": "critical" }, "geometry": { "type": "Polygon", "coordinates": [ [ [ 126.75, 35.25 ], [ 126.75, 35.35 ], [ 126.65, 35.35 ], [ 126.65, 35.25 ], [ 126.75, 35.25 ] ] ] } },
{ "type": "Feature", "properties": { "sigma_nT": 199.0, "sigma_obs": 1, "spacing_req": 28.5, "spacing_now": 61.7, "deficit": 2.17, "sp_tier": "dense", "df_tier": "critical" }, "geometry": { "type": "Polygon", "coordinates": [ [ [ 126.85, 35.25 ], [ 126.85, 35.35 ], [ 126.75, 35.35 ], [ 126.75, 35.25 ], [ 126.85, 35.25 ] ] ] } },
{ "type": "Feature", "properties": { "sigma_nT": 160.0, "sigma_obs": 1, "spacing_req": 31.7, "spacing_now": 73.5, "deficit": 2.32, "sp_tier": "dense", "df_tier": "critical" }, "geometry": { "type": "Polygon", "coordinates": [ [ [ 127.949999999999889, 35.25 ], [ 127.949999999999889, 35.35 ], [ 127.849999999999895, 35.35 ], [ 127.849999999999895, 35.25 ], [ 127.949999999999889, 35.25 ] ] ] } },
{ "type": "Feature", "properties": { "sigma_nT": 160.0, "sigma_obs": 1, "spacing_req": 31.7, "spacing_now": 86.9, "deficit": 2.74, "sp_tier": "dense", "df_tier": "critical" }, "geometry": { "type": "Polygon", "coordinates": [ [ [ 128.049999999999898, 35.25 ], [ 128.049999999999898, 35.35 ], [ 127.949999999999889, 35.35 ], [ 127.949999999999889, 35.25 ], [ 128.049999999999898, 35.25 ] ] ] } },
{ "type": "Feature", "properties": { "sigma_nT": 173.0, "sigma_obs": 1, "spacing_req": 30.6, "spacing_now": 74.2, "deficit": 2.43, "sp_tier": "dense", "df_tier": "critical" }, "geometry": { "type": "Polygon", "coordinates": [ [ [ 128.149999999999892, 35.25 ], [ 128.149999999999892, 35.35 ], [ 128.049999999999869, 35.35 ], [ 128.049999999999869, 35.25 ], [ 128.149999999999892, 35.25 ] ] ] } },
{ "type": "Feature", "properties": { "sigma_nT": 198.0, "sigma_obs": 1, "spacing_req": 28.6, "spacing_now": 66.5, "deficit": 2.33, "sp_tier": "dense", "df_tier": "critical" }, "geometry": { "type": "Polygon", "coordinates": [ [ [ 128.849999999999852, 35.25 ], [ 128.849999999999852, 35.35 ], [ 128.749999999999829, 35.35 ], [ 128.749999999999829, 35.25 ], [ 128.849999999999852, 35.25 ] ] ] } },
{ "type": "Feature", "properties": { "sigma_nT": 186.0, "sigma_obs": 1, "spacing_req": 29.4, "spacing_now": 83.1, "deficit": 2.82, "sp_tier": "dense", "df_tier": "critical" }, "geometry": { "type": "Polygon", "coordinates": [ [ [ 128.949999999999847, 35.25 ], [ 128.949999999999847, 35.35 ], [ 128.849999999999824, 35.35 ], [ 128.849999999999824, 35.25 ], [ 128.949999999999847, 35.25 ] ] ] } },
{ "type": "Feature", "properties": { "sigma_nT": 177.0, "sigma_obs": 1, "spacing_req": 30.2, "spacing_now": 89.1, "deficit": 2.95, "sp_tier": "dense", "df_tier": "critical" }, "geometry": { "type": "Polygon", "coordinates": [ [ [ 129.049999999999841, 35.25 ], [ 129.049999999999841, 35.35 ], [ 128.949999999999818, 35.35 ], [ 128.949999999999818, 35.25 ], [ 129.049999999999841, 35.25 ] ] ] } },
{ "type": "Feature", "properties": { "sigma_nT": 167.0, "sigma_obs": 1, "spacing_req": 31.1, "spacing_now": 84.0, "deficit": 2.7, "sp_tier": "dense", "df_tier": "critical" }, "geometry": { "type": "Polygon", "coordinates": [ [ [ 129.149999999999835, 35.25 ], [ 129.149999999999835, 35.35 ], [ 129.049999999999812, 35.35 ], [ 129.049999999999812, 35.25 ], [ 129.149999999999835, 35.25 ] ] ] } },
{ "type": "Feature", "properties": { "sigma_nT": 149.0, "sigma_obs": 1, "spacing_req": 32.9, "spacing_now": 82.7, "deficit": 2.51, "sp_tier": "dense", "df_tier": "critical" }, "geometry": { "type": "Polygon", "coordinates": [ [ [ 129.249999999999829, 35.25 ], [ 129.249999999999829, 35.35 ], [ 129.149999999999807, 35.35 ], [ 129.149999999999807, 35.25 ], [ 129.249999999999829, 35.25 ] ] ] } },
{ "type": "Feature", "properties": { "sigma_nT": 146.0, "sigma_obs": 1, "spacing_req": 33.2, "spacing_now": 85.3, "deficit": 2.57, "sp_tier": "dense", "df_tier": "critical" }, "geometry": { "type": "Polygon", "coordinates": [ [ [ 129.349999999999824, 35.25 ], [ 129.349999999999824, 35.35 ], [ 129.249999999999801, 35.35 ], [ 129.249999999999801, 35.25 ], [ 129.349999999999824, 35.25 ] ] ] } },
{ "type": "Feature", "properties": { "sigma_nT": 173.0, "sigma_obs": 1, "spacing_req": 30.5, "spacing_now": 75.3, "deficit": 2.47, "sp_tier": "dense", "df_tier": "critical" }, "geometry": { "type": "Polygon", "coordinates": [ [ [ 128.049999999999898, 35.35 ], [ 128.049999999999898, 35.45 ], [ 127.949999999999889, 35.45 ], [ 127.949999999999889, 35.35 ], [ 128.049999999999898, 35.35 ] ] ] } },
{ "type": "Feature", "properties": { "sigma_nT": 187.0, "sigma_obs": 1, "spacing_req": 29.4, "spacing_now": 68.3, "deficit": 2.32, "sp_tier": "dense", "df_tier": "critical" }, "geometry": { "type": "Polygon", "coordinates": [ [ [ 128.149999999999892, 35.35 ], [ 128.149999999999892, 35.45 ], [ 128.049999999999869, 35.45 ], [ 128.049999999999869, 35.35 ], [ 128.149999999999892, 35.35 ] ] ] } },
{ "type": "Feature", "properties": { "sigma_nT": 178.0, "sigma_obs": 1, "spacing_req": 30.1, "spacing_now": 77.8, "deficit": 2.58, "sp_tier": "dense", "df_tier": "critical" }, "geometry": { "type": "Polygon", "coordinates": [ [ [ 128.949999999999847, 35.35 ], [ 128.949999999999847, 35.45 ], [ 128.849999999999824, 35.45 ], [ 128.849999999999824, 35.35 ], [ 128.949999999999847, 35.35 ] ] ] } },
{ "type": "Feature", "properties": { "sigma_nT": 176.0, "sigma_obs": 1, "spacing_req": 30.3, "spacing_now": 69.1, "deficit": 2.28, "sp_tier": "dense", "df_tier": "critical" }, "geometry": { "type": "Polygon", "coordinates": [ [ [ 129.049999999999841, 35.35 ], [ 129.049999999999841, 35.45 ], [ 128.949999999999818, 35.45 ], [ 128.949999999999818, 35.35 ], [ 129.049999999999841, 35.35 ] ] ] } },
{ "type": "Feature", "properties": { "sigma_nT": 134.0, "sigma_obs": 1, "spacing_req": 34.7, "spacing_now": 72.1, "deficit": 2.08, "sp_tier": "dense", "df_tier": "critical" }, "geometry": { "type": "Polygon", "coordinates": [ [ [ 129.449999999999818, 35.35 ], [ 129.449999999999818, 35.45 ], [ 129.349999999999795, 35.45 ], [ 129.349999999999795, 35.35 ], [ 129.449999999999818, 35.35 ] ] ] } },
{ "type": "Feature", "properties": { "sigma_nT": 185.0, "sigma_obs": 1, "spacing_req": 29.6, "spacing_now": 69.0, "deficit": 2.33, "sp_tier": "dense", "df_tier": "critical" }, "geometry": { "type": "Polygon", "coordinates": [ [ [ 128.049999999999898, 35.45 ], [ 128.049999999999898, 35.55 ], [ 127.949999999999889, 35.55 ], [ 127.949999999999889, 35.45 ], [ 128.049999999999898, 35.45 ] ] ] } },
{ "type": "Feature", "properties": { "sigma_nT": 190.0, "sigma_obs": 1, "spacing_req": 29.2, "spacing_now": 68.4, "deficit": 2.34, "sp_tier": "dense", "df_tier": "critical" }, "geometry": { "type": "Polygon", "coordinates": [ [ [ 128.149999999999892, 35.45 ], [ 128.149999999999892, 35.55 ], [ 128.049999999999869, 35.55 ], [ 128.049999999999869, 35.45 ], [ 128.149999999999892, 35.45 ] ] ] } },
{ "type": "Feature", "properties": { "sigma_nT": 177.0, "sigma_obs": 1, "spacing_req": 30.2, "spacing_now": 60.8, "deficit": 2.02, "sp_tier": "dense", "df_tier": "critical" }, "geometry": { "type": "Polygon", "coordinates": [ [ [ 128.849999999999852, 35.45 ], [ 128.849999999999852, 35.55 ], [ 128.749999999999829, 35.55 ], [ 128.749999999999829, 35.45 ], [ 128.849999999999852, 35.45 ] ] ] } },
{ "type": "Feature", "properties": { "sigma_nT": 174.0, "sigma_obs": 1, "spacing_req": 30.5, "spacing_now": 64.2, "deficit": 2.1, "sp_tier": "dense", "df_tier": "critical" }, "geometry": { "type": "Polygon", "coordinates": [ [ [ 128.949999999999847, 35.45 ], [ 128.949999999999847, 35.55 ], [ 128.849999999999824, 35.55 ], [ 128.849999999999824, 35.45 ], [ 128.949999999999847, 35.45 ] ] ] } },
{ "type": "Feature", "properties": { "sigma_nT": 144.0, "sigma_obs": 1, "spacing_req": 33.5, "spacing_now": 67.5, "deficit": 2.01, "sp_tier": "dense", "df_tier": "critical" }, "geometry": { "type": "Polygon", "coordinates": [ [ [ 127.15, 35.55 ], [ 127.15, 35.65 ], [ 127.05, 35.65 ], [ 127.05, 35.55 ], [ 127.15, 35.55 ] ] ] } },
{ "type": "Feature", "properties": { "sigma_nT": 93.0, "sigma_obs": 1, "spacing_req": 41.7, "spacing_now": 84.1, "deficit": 2.02, "sp_tier": "mid", "df_tier": "critical" }, "geometry": { "type": "Polygon", "coordinates": [ [ [ 127.25, 35.65 ], [ 127.25, 35.75 ], [ 127.15, 35.75 ], [ 127.15, 35.65 ], [ 127.25, 35.65 ] ] ] } },
{ "type": "Feature", "properties": { "sigma_nT": 166.0, "sigma_obs": 1, "spacing_req": 31.2, "spacing_now": 62.7, "deficit": 2.01, "sp_tier": "dense", "df_tier": "critical" }, "geometry": { "type": "Polygon", "coordinates": [ [ [ 128.649999999999864, 35.65 ], [ 128.649999999999864, 35.75 ], [ 128.549999999999841, 35.75 ], [ 128.549999999999841, 35.65 ], [ 128.649999999999864, 35.65 ] ] ] } },
{ "type": "Feature", "properties": { "sigma_nT": 76.0, "sigma_obs": 1, "spacing_req": 46.2, "spacing_now": 95.4, "deficit": 2.06, "sp_tier": "mid", "df_tier": "critical" }, "geometry": { "type": "Polygon", "coordinates": [ [ [ 127.25, 35.75 ], [ 127.25, 35.85 ], [ 127.15, 35.85 ], [ 127.15, 35.75 ], [ 127.25, 35.75 ] ] ] } },
{ "type": "Feature", "properties": { "sigma_nT": 177.0, "sigma_obs": 1, "spacing_req": 30.2, "spacing_now": 63.0, "deficit": 2.08, "sp_tier": "dense", "df_tier": "critical" }, "geometry": { "type": "Polygon", "coordinates": [ [ [ 128.649999999999864, 35.75 ], [ 128.649999999999864, 35.85 ], [ 128.549999999999841, 35.85 ], [ 128.549999999999841, 35.75 ], [ 128.649999999999864, 35.75 ] ] ] } },
{ "type": "Feature", "properties": { "sigma_nT": 71.0, "sigma_obs": 1, "spacing_req": 47.6, "spacing_now": 97.9, "deficit": 2.06, "sp_tier": "mid", "df_tier": "critical" }, "geometry": { "type": "Polygon", "coordinates": [ [ [ 127.15, 35.85 ], [ 127.15, 35.95 ], [ 127.05, 35.95 ], [ 127.05, 35.85 ], [ 127.15, 35.85 ] ] ] } },
{ "type": "Feature", "properties": { "sigma_nT": 70.0, "sigma_obs": 1, "spacing_req": 48.1, "spacing_now": 97.6, "deficit": 2.03, "sp_tier": "mid", "df_tier": "critical" }, "geometry": { "type": "Polygon", "coordinates": [ [ [ 127.25, 35.85 ], [ 127.25, 35.95 ], [ 127.15, 35.95 ], [ 127.15, 35.85 ], [ 127.25, 35.85 ] ] ] } },
{ "type": "Feature", "properties": { "sigma_nT": 170.0, "sigma_obs": 1, "spacing_req": 30.8, "spacing_now": 67.3, "deficit": 2.18, "sp_tier": "dense", "df_tier": "critical" }, "geometry": { "type": "Polygon", "coordinates": [ [ [ 128.649999999999864, 35.85 ], [ 128.649999999999864, 35.95 ], [ 128.549999999999841, 35.95 ], [ 128.549999999999841, 35.85 ], [ 128.649999999999864, 35.85 ] ] ] } },
{ "type": "Feature", "properties": { "sigma_nT": 69.0, "sigma_obs": 1, "spacing_req": 48.5, "spacing_now": 98.2, "deficit": 2.02, "sp_tier": "mid", "df_tier": "critical" }, "geometry": { "type": "Polygon", "coordinates": [ [ [ 127.15, 35.95 ], [ 127.15, 36.05 ], [ 127.05, 36.05 ], [ 127.05, 35.95 ], [ 127.15, 35.95 ] ] ] } },
{ "type": "Feature", "properties": { "sigma_nT": 137.0, "sigma_obs": 1, "spacing_req": 34.3, "spacing_now": 71.5, "deficit": 2.08, "sp_tier": "dense", "df_tier": "critical" }, "geometry": { "type": "Polygon", "coordinates": [ [ [ 128.549999999999869, 35.95 ], [ 128.549999999999869, 36.05 ], [ 128.449999999999847, 36.05 ], [ 128.449999999999847, 35.95 ], [ 128.549999999999869, 35.95 ] ] ] } },
{ "type": "Feature", "properties": { "sigma_nT": 148.0, "sigma_obs": 1, "spacing_req": 33.1, "spacing_now": 77.9, "deficit": 2.35, "sp_tier": "dense", "df_tier": "critical" }, "geometry": { "type": "Polygon", "coordinates": [ [ [ 128.649999999999864, 35.95 ], [ 128.649999999999864, 36.05 ], [ 128.549999999999841, 36.05 ], [ 128.549999999999841, 35.95 ], [ 128.649999999999864, 35.95 ] ] ] } },
{ "type": "Feature", "properties": { "sigma_nT": 161.0, "sigma_obs": 1, "spacing_req": 31.7, "spacing_now": 64.2, "deficit": 2.03, "sp_tier": "dense", "df_tier": "critical" }, "geometry": { "type": "Polygon", "coordinates": [ [ [ 128.749999999999858, 35.95 ], [ 128.749999999999858, 36.05 ], [ 128.649999999999835, 36.05 ], [ 128.649999999999835, 35.95 ], [ 128.749999999999858, 35.95 ] ] ] } },
{ "type": "Feature", "properties": { "sigma_nT": 138.0, "sigma_obs": 1, "spacing_req": 34.3, "spacing_now": 82.0, "deficit": 2.39, "sp_tier": "dense", "df_tier": "critical" }, "geometry": { "type": "Polygon", "coordinates": [ [ [ 129.649999999999807, 35.95 ], [ 129.649999999999807, 36.05 ], [ 129.549999999999784, 36.05 ], [ 129.549999999999784, 35.95 ], [ 129.649999999999807, 35.95 ] ] ] } },
{ "type": "Feature", "properties": { "sigma_nT": 112.0, "sigma_obs": 1, "spacing_req": 38.0, "spacing_now": 76.4, "deficit": 2.01, "sp_tier": "mid", "df_tier": "critical" }, "geometry": { "type": "Polygon", "coordinates": [ [ [ 128.449999999999875, 36.05 ], [ 128.449999999999875, 36.15 ], [ 128.349999999999852, 36.15 ], [ 128.349999999999852, 36.05 ], [ 128.449999999999875, 36.05 ] ] ] } },
{ "type": "Feature", "properties": { "sigma_nT": 115.0, "sigma_obs": 1, "spacing_req": 37.5, "spacing_now": 86.9, "deficit": 2.32, "sp_tier": "mid", "df_tier": "critical" }, "geometry": { "type": "Polygon", "coordinates": [ [ [ 128.549999999999869, 36.05 ], [ 128.549999999999869, 36.15 ], [ 128.449999999999847, 36.15 ], [ 128.449999999999847, 36.05 ], [ 128.549999999999869, 36.05 ] ] ] } },
{ "type": "Feature", "properties": { "sigma_nT": 130.0, "sigma_obs": 1, "spacing_req": 35.2, "spacing_now": 92.7, "deficit": 2.63, "sp_tier": "mid", "df_tier": "critical" }, "geometry": { "type": "Polygon", "coordinates": [ [ [ 128.649999999999864, 36.05 ], [ 128.649999999999864, 36.15 ], [ 128.549999999999841, 36.15 ], [ 128.549999999999841, 36.05 ], [ 128.649999999999864, 36.05 ] ] ] } },
{ "type": "Feature", "properties": { "sigma_nT": 153.0, "sigma_obs": 1, "spacing_req": 32.5, "spacing_now": 81.5, "deficit": 2.51, "sp_tier": "dense", "df_tier": "critical" }, "geometry": { "type": "Polygon", "coordinates": [ [ [ 128.749999999999858, 36.05 ], [ 128.749999999999858, 36.15 ], [ 128.649999999999835, 36.15 ], [ 128.649999999999835, 36.05 ], [ 128.749999999999858, 36.05 ] ] ] } },
{ "type": "Feature", "properties": { "sigma_nT": 160.0, "sigma_obs": 1, "spacing_req": 31.8, "spacing_now": 73.2, "deficit": 2.3, "sp_tier": "dense", "df_tier": "critical" }, "geometry": { "type": "Polygon", "coordinates": [ [ [ 128.849999999999852, 36.05 ], [ 128.849999999999852, 36.15 ], [ 128.749999999999829, 36.15 ], [ 128.749999999999829, 36.05 ], [ 128.849999999999852, 36.05 ] ] ] } },
{ "type": "Feature", "properties": { "sigma_nT": 112.0, "sigma_obs": 1, "spacing_req": 37.9, "spacing_now": 93.2, "deficit": 2.46, "sp_tier": "mid", "df_tier": "critical" }, "geometry": { "type": "Polygon", "coordinates": [ [ [ 128.649999999999864, 36.15 ], [ 128.649999999999864, 36.25 ], [ 128.549999999999841, 36.25 ], [ 128.549999999999841, 36.15 ], [ 128.649999999999864, 36.15 ] ] ] } },
{ "type": "Feature", "properties": { "sigma_nT": 127.0, "sigma_obs": 1, "spacing_req": 35.7, "spacing_now": 77.1, "deficit": 2.16, "sp_tier": "mid", "df_tier": "critical" }, "geometry": { "type": "Polygon", "coordinates": [ [ [ 128.749999999999858, 36.15 ], [ 128.749999999999858, 36.25 ], [ 128.649999999999835, 36.25 ], [ 128.649999999999835, 36.15 ], [ 128.749999999999858, 36.15 ] ] ] } },
{ "type": "Feature", "properties": { "sigma_nT": 146.0, "sigma_obs": 1, "spacing_req": 33.2, "spacing_now": 69.3, "deficit": 2.08, "sp_tier": "dense", "df_tier": "critical" }, "geometry": { "type": "Polygon", "coordinates": [ [ [ 129.449999999999818, 36.15 ], [ 129.449999999999818, 36.25 ], [ 129.349999999999795, 36.25 ], [ 129.349999999999795, 36.15 ], [ 129.449999999999818, 36.15 ] ] ] } },
{ "type": "Feature", "properties": { "sigma_nT": 99.0, "sigma_obs": 1, "spacing_req": 40.3, "spacing_now": 86.7, "deficit": 2.15, "sp_tier": "mid", "df_tier": "critical" }, "geometry": { "type": "Polygon", "coordinates": [ [ [ 128.649999999999864, 36.25 ], [ 128.649999999999864, 36.35 ], [ 128.549999999999841, 36.35 ], [ 128.549999999999841, 36.25 ], [ 128.649999999999864, 36.25 ] ] ] } },
{ "type": "Feature", "properties": { "sigma_nT": 56.0, "sigma_obs": 1, "spacing_req": 53.8, "spacing_now": 109.3, "deficit": 2.03, "sp_tier": "coarse", "df_tier": "critical" }, "geometry": { "type": "Polygon", "coordinates": [ [ [ 126.45, 36.35 ], [ 126.45, 36.45 ], [ 126.35, 36.45 ], [ 126.35, 36.35 ], [ 126.45, 36.35 ] ] ] } },
{ "type": "Feature", "properties": { "sigma_nT": 90.0, "sigma_obs": 1, "spacing_req": 42.4, "spacing_now": 85.5, "deficit": 2.01, "sp_tier": "mid", "df_tier": "critical" }, "geometry": { "type": "Polygon", "coordinates": [ [ [ 128.649999999999864, 36.35 ], [ 128.649999999999864, 36.45 ], [ 128.549999999999841, 36.45 ], [ 128.549999999999841, 36.35 ], [ 128.649999999999864, 36.35 ] ] ] } },
{ "type": "Feature", "properties": { "sigma_nT": 63.0, "sigma_obs": 1, "spacing_req": 50.8, "spacing_now": 127.5, "deficit": 2.51, "sp_tier": "coarse", "df_tier": "critical" }, "geometry": { "type": "Polygon", "coordinates": [ [ [ 126.35, 36.45 ], [ 126.35, 36.55 ], [ 126.25, 36.55 ], [ 126.25, 36.45 ], [ 126.35, 36.45 ] ] ] } },
{ "type": "Feature", "properties": { "sigma_nT": 63.0, "sigma_obs": 1, "spacing_req": 50.6, "spacing_now": 109.7, "deficit": 2.17, "sp_tier": "coarse", "df_tier": "critical" }, "geometry": { "type": "Polygon", "coordinates": [ [ [ 126.45, 36.45 ], [ 126.45, 36.55 ], [ 126.35, 36.55 ], [ 126.35, 36.45 ], [ 126.45, 36.45 ] ] ] } },
{ "type": "Feature", "properties": { "sigma_nT": 72.0, "sigma_obs": 1, "spacing_req": 47.5, "spacing_now": 131.7, "deficit": 2.77, "sp_tier": "mid", "df_tier": "critical" }, "geometry": { "type": "Polygon", "coordinates": [ [ [ 126.35, 36.55 ], [ 126.35, 36.65 ], [ 126.25, 36.65 ], [ 126.25, 36.55 ], [ 126.35, 36.55 ] ] ] } },
{ "type": "Feature", "properties": { "sigma_nT": 71.0, "sigma_obs": 1, "spacing_req": 47.7, "spacing_now": 114.6, "deficit": 2.4, "sp_tier": "mid", "df_tier": "critical" }, "geometry": { "type": "Polygon", "coordinates": [ [ [ 126.45, 36.55 ], [ 126.45, 36.65 ], [ 126.35, 36.65 ], [ 126.35, 36.55 ], [ 126.45, 36.55 ] ] ] } },
{ "type": "Feature", "properties": { "sigma_nT": 71.0, "sigma_obs": 1, "spacing_req": 47.6, "spacing_now": 97.8, "deficit": 2.05, "sp_tier": "mid", "df_tier": "critical" }, "geometry": { "type": "Polygon", "coordinates": [ [ [ 126.55, 36.55 ], [ 126.55, 36.65 ], [ 126.45, 36.65 ], [ 126.45, 36.55 ], [ 126.55, 36.55 ] ] ] } },
{ "type": "Feature", "properties": { "sigma_nT": 70.0, "sigma_obs": 1, "spacing_req": 48.0, "spacing_now": 155.7, "deficit": 3.24, "sp_tier": "mid", "df_tier": "critical" }, "geometry": { "type": "Polygon", "coordinates": [ [ [ 126.25, 36.65 ], [ 126.25, 36.75 ], [ 126.15, 36.75 ], [ 126.15, 36.65 ], [ 126.25, 36.65 ] ] ] } },
{ "type": "Feature", "properties": { "sigma_nT": 71.0, "sigma_obs": 1, "spacing_req": 47.6, "spacing_now": 139.3, "deficit": 2.93, "sp_tier": "mid", "df_tier": "critical" }, "geometry": { "type": "Polygon", "coordinates": [ [ [ 126.35, 36.65 ], [ 126.35, 36.75 ], [ 126.25, 36.75 ], [ 126.25, 36.65 ], [ 126.35, 36.65 ] ] ] } },
{ "type": "Feature", "properties": { "sigma_nT": 71.0, "sigma_obs": 1, "spacing_req": 47.8, "spacing_now": 123.3, "deficit": 2.58, "sp_tier": "mid", "df_tier": "critical" }, "geometry": { "type": "Polygon", "coordinates": [ [ [ 126.45, 36.65 ], [ 126.45, 36.75 ], [ 126.35, 36.75 ], [ 126.35, 36.65 ], [ 126.45, 36.65 ] ] ] } },
{ "type": "Feature", "properties": { "sigma_nT": 72.0, "sigma_obs": 1, "spacing_req": 47.5, "spacing_now": 107.8, "deficit": 2.27, "sp_tier": "mid", "df_tier": "critical" }, "geometry": { "type": "Polygon", "coordinates": [ [ [ 126.55, 36.65 ], [ 126.55, 36.75 ], [ 126.45, 36.75 ], [ 126.45, 36.65 ], [ 126.55, 36.65 ] ] ] } },
{ "type": "Feature", "properties": { "sigma_nT": 139.0, "sigma_obs": 1, "spacing_req": 34.1, "spacing_now": 74.1, "deficit": 2.17, "sp_tier": "dense", "df_tier": "critical" }, "geometry": { "type": "Polygon", "coordinates": [ [ [ 128.049999999999898, 36.65 ], [ 128.049999999999898, 36.75 ], [ 127.949999999999889, 36.75 ], [ 127.949999999999889, 36.65 ], [ 128.049999999999898, 36.65 ] ] ] } },
{ "type": "Feature", "properties": { "sigma_nT": 131.0, "sigma_obs": 1, "spacing_req": 35.2, "spacing_now": 76.3, "deficit": 2.17, "sp_tier": "mid", "df_tier": "critical" }, "geometry": { "type": "Polygon", "coordinates": [ [ [ 128.149999999999892, 36.65 ], [ 128.149999999999892, 36.75 ], [ 128.049999999999869, 36.75 ], [ 128.049999999999869, 36.65 ], [ 128.149999999999892, 36.65 ] ] ] } },
{ "type": "Feature", "properties": { "sigma_nT": 90.0, "sigma_obs": 1, "spacing_req": 42.4, "spacing_now": 93.3, "deficit": 2.2, "sp_tier": "mid", "df_tier": "critical" }, "geometry": { "type": "Polygon", "coordinates": [ [ [ 129.449999999999818, 36.65 ], [ 129.449999999999818, 36.75 ], [ 129.349999999999795, 36.75 ], [ 129.349999999999795, 36.65 ], [ 129.449999999999818, 36.65 ] ] ] } },
{ "type": "Feature", "properties": { "sigma_nT": 94.0, "sigma_obs": 1, "spacing_req": 41.4, "spacing_now": 105.4, "deficit": 2.55, "sp_tier": "mid", "df_tier": "critical" }, "geometry": { "type": "Polygon", "coordinates": [ [ [ 129.549999999999812, 36.65 ], [ 129.549999999999812, 36.75 ], [ 129.44999999999979, 36.75 ], [ 129.44999999999979, 36.65 ], [ 129.549999999999812, 36.65 ] ] ] } },
{ "type": "Feature", "properties": { "sigma_nT": 74.0, "sigma_obs": 1, "spacing_req": 46.9, "spacing_now": 144.7, "deficit": 3.09, "sp_tier": "mid", "df_tier": "critical" }, "geometry": { "type": "Polygon", "coordinates": [ [ [ 126.25, 36.75 ], [ 126.25, 36.85 ], [ 126.15, 36.85 ], [ 126.15, 36.75 ], [ 126.25, 36.75 ] ] ] } },
{ "type": "Feature", "properties": { "sigma_nT": 71.0, "sigma_obs": 1, "spacing_req": 47.8, "spacing_now": 129.3, "deficit": 2.71, "sp_tier": "mid", "df_tier": "critical" }, "geometry": { "type": "Polygon", "coordinates": [ [ [ 126.35, 36.75 ], [ 126.35, 36.85 ], [ 126.25, 36.85 ], [ 126.25, 36.75 ], [ 126.35, 36.75 ] ] ] } },
{ "type": "Feature", "properties": { "sigma_nT": 70.0, "sigma_obs": 1, "spacing_req": 48.1, "spacing_now": 114.7, "deficit": 2.39, "sp_tier": "mid", "df_tier": "critical" }, "geometry": { "type": "Polygon", "coordinates": [ [ [ 126.45, 36.75 ], [ 126.45, 36.85 ], [ 126.35, 36.85 ], [ 126.35, 36.75 ], [ 126.45, 36.75 ] ] ] } },
{ "type": "Feature", "properties": { "sigma_nT": 71.0, "sigma_obs": 1, "spacing_req": 47.8, "spacing_now": 101.2, "deficit": 2.12, "sp_tier": "mid", "df_tier": "critical" }, "geometry": { "type": "Polygon", "coordinates": [ [ [ 126.55, 36.75 ], [ 126.55, 36.85 ], [ 126.45, 36.85 ], [ 126.45, 36.75 ], [ 126.55, 36.75 ] ] ] } },
{ "type": "Feature", "properties": { "sigma_nT": 177.0, "sigma_obs": 1, "spacing_req": 30.2, "spacing_now": 71.4, "deficit": 2.37, "sp_tier": "dense", "df_tier": "critical" }, "geometry": { "type": "Polygon", "coordinates": [ [ [ 128.049999999999898, 36.75 ], [ 128.049999999999898, 36.85 ], [ 127.949999999999889, 36.85 ], [ 127.949999999999889, 36.75 ], [ 128.049999999999898, 36.75 ] ] ] } },
{ "type": "Feature", "properties": { "sigma_nT": 171.0, "sigma_obs": 1, "spacing_req": 30.8, "spacing_now": 63.8, "deficit": 2.07, "sp_tier": "dense", "df_tier": "critical" }, "geometry": { "type": "Polygon", "coordinates": [ [ [ 128.149999999999892, 36.75 ], [ 128.149999999999892, 36.85 ], [ 128.049999999999869, 36.85 ], [ 128.049999999999869, 36.75 ], [ 128.149999999999892, 36.75 ] ] ] } },
{ "type": "Feature", "properties": { "sigma_nT": 90.0, "sigma_obs": 1, "spacing_req": 42.3, "spacing_now": 100.5, "deficit": 2.38, "sp_tier": "mid", "df_tier": "critical" }, "geometry": { "type": "Polygon", "coordinates": [ [ [ 129.449999999999818, 36.75 ], [ 129.449999999999818, 36.85 ], [ 129.349999999999795, 36.85 ], [ 129.349999999999795, 36.75 ], [ 129.449999999999818, 36.75 ] ] ] } },
{ "type": "Feature", "properties": { "sigma_nT": 102.0, "sigma_obs": 1, "spacing_req": 39.8, "spacing_now": 117.6, "deficit": 2.95, "sp_tier": "mid", "df_tier": "critical" }, "geometry": { "type": "Polygon", "coordinates": [ [ [ 129.549999999999812, 36.75 ], [ 129.549999999999812, 36.85 ], [ 129.44999999999979, 36.85 ], [ 129.44999999999979, 36.75 ], [ 129.549999999999812, 36.75 ] ] ] } },
{ "type": "Feature", "properties": { "sigma_nT": 78.0, "sigma_obs": 1, "spacing_req": 45.4, "spacing_now": 135.3, "deficit": 2.98, "sp_tier": "mid", "df_tier": "critical" }, "geometry": { "type": "Polygon", "coordinates": [ [ [ 126.25, 36.85 ], [ 126.25, 36.95 ], [ 126.15, 36.95 ], [ 126.15, 36.85 ], [ 126.25, 36.85 ] ] ] } },
{ "type": "Feature", "properties": { "sigma_nT": 71.0, "sigma_obs": 1, "spacing_req": 47.9, "spacing_now": 118.8, "deficit": 2.48, "sp_tier": "mid", "df_tier": "critical" }, "geometry": { "type": "Polygon", "coordinates": [ [ [ 126.35, 36.85 ], [ 126.35, 36.95 ], [ 126.25, 36.95 ], [ 126.25, 36.85 ], [ 126.35, 36.85 ] ] ] } },
{ "type": "Feature", "properties": { "sigma_nT": 67.0, "sigma_obs": 1, "spacing_req": 49.1, "spacing_now": 102.8, "deficit": 2.1, "sp_tier": "mid", "df_tier": "critical" }, "geometry": { "type": "Polygon", "coordinates": [ [ [ 126.45, 36.85 ], [ 126.45, 36.95 ], [ 126.35, 36.95 ], [ 126.35, 36.85 ], [ 126.45, 36.85 ] ] ] } },
{ "type": "Feature", "properties": { "sigma_nT": 179.0, "sigma_obs": 1, "spacing_req": 30.0, "spacing_now": 67.5, "deficit": 2.25, "sp_tier": "dense", "df_tier": "critical" }, "geometry": { "type": "Polygon", "coordinates": [ [ [ 127.949999999999889, 36.85 ], [ 127.949999999999889, 36.95 ], [ 127.849999999999895, 36.95 ], [ 127.849999999999895, 36.85 ], [ 127.949999999999889, 36.85 ] ] ] } },
{ "type": "Feature", "properties": { "sigma_nT": 81.0, "sigma_obs": 1, "spacing_req": 44.6, "spacing_now": 96.4, "deficit": 2.16, "sp_tier": "mid", "df_tier": "critical" }, "geometry": { "type": "Polygon", "coordinates": [ [ [ 129.449999999999818, 36.85 ], [ 129.449999999999818, 36.95 ], [ 129.349999999999795, 36.95 ], [ 129.349999999999795, 36.85 ], [ 129.449999999999818, 36.85 ] ] ] } },
{ "type": "Feature", "properties": { "sigma_nT": 158.0, "sigma_obs": 1, "spacing_req": 32.0, "spacing_now": 64.1, "deficit": 2.0, "sp_tier": "dense", "df_tier": "critical" }, "geometry": { "type": "Polygon", "coordinates": [ [ [ 127.75, 36.95 ], [ 127.75, 37.05 ], [ 127.65, 37.05 ], [ 127.65, 36.95 ], [ 127.75, 36.95 ] ] ] } },
{ "type": "Feature", "properties": { "sigma_nT": 179.0, "sigma_obs": 1, "spacing_req": 30.0, "spacing_now": 71.7, "deficit": 2.39, "sp_tier": "dense", "df_tier": "critical" }, "geometry": { "type": "Polygon", "coordinates": [ [ [ 127.849999999999895, 36.95 ], [ 127.849999999999895, 37.05 ], [ 127.75, 37.05 ], [ 127.75, 36.95 ], [ 127.849999999999895, 36.95 ] ] ] } },
{ "type": "Feature", "properties": { "sigma_nT": 131.0, "sigma_obs": 1, "spacing_req": 35.1, "spacing_now": 78.8, "deficit": 2.25, "sp_tier": "mid", "df_tier": "critical" }, "geometry": { "type": "Polygon", "coordinates": [ [ [ 127.75, 37.05 ], [ 127.75, 37.15 ], [ 127.65, 37.15 ], [ 127.65, 37.05 ], [ 127.75, 37.05 ] ] ] } },
{ "type": "Feature", "properties": { "sigma_nT": 157.0, "sigma_obs": 1, "spacing_req": 32.0, "spacing_now": 73.3, "deficit": 2.29, "sp_tier": "dense", "df_tier": "critical" }, "geometry": { "type": "Polygon", "coordinates": [ [ [ 127.849999999999895, 37.05 ], [ 127.849999999999895, 37.15 ], [ 127.75, 37.15 ], [ 127.75, 37.05 ], [ 127.849999999999895, 37.05 ] ] ] } },
{ "type": "Feature", "properties": { "sigma_nT": 88.0, "sigma_obs": 0, "spacing_req": 42.8, "spacing_now": 283.4, "deficit": 6.62, "sp_tier": "mid", "df_tier": "critical" }, "geometry": { "type": "Polygon", "coordinates": [ [ [ 130.849999999999739, 37.45 ], [ 130.849999999999739, 37.55 ], [ 130.749999999999716, 37.55 ], [ 130.749999999999716, 37.45 ], [ 130.849999999999739, 37.45 ] ] ] } },
{ "type": "Feature", "properties": { "sigma_nT": 88.0, "sigma_obs": 0, "spacing_req": 42.8, "spacing_now": 301.0, "deficit": 7.03, "sp_tier": "mid", "df_tier": "critical" }, "geometry": { "type": "Polygon", "coordinates": [ [ [ 130.949999999999733, 37.45 ], [ 130.949999999999733, 37.55 ], [ 130.84999999999971, 37.55 ], [ 130.84999999999971, 37.45 ], [ 130.949999999999733, 37.45 ] ] ] } },
{ "type": "Feature", "properties": { "sigma_nT": 88.0, "sigma_obs": 0, "spacing_req": 42.8, "spacing_now": 303.5, "deficit": 7.09, "sp_tier": "mid", "df_tier": "critical" }, "geometry": { "type": "Polygon", "coordinates": [ [ [ 130.949999999999733, 37.55 ], [ 130.949999999999733, 37.65 ], [ 130.84999999999971, 37.65 ], [ 130.84999999999971, 37.55 ], [ 130.949999999999733, 37.55 ] ] ] } },
{ "type": "Feature", "properties": { "sigma_nT": 88.0, "sigma_obs": 0, "spacing_req": 42.8, "spacing_now": 86.5, "deficit": 2.02, "sp_tier": "mid", "df_tier": "critical" }, "geometry": { "type": "Polygon", "coordinates": [ [ [ 128.349999999999881, 38.35 ], [ 128.349999999999881, 38.45 ], [ 128.249999999999858, 38.45 ], [ 128.249999999999858, 38.35 ], [ 128.349999999999881, 38.35 ] ] ] } },
{ "type": "Feature", "properties": { "sigma_nT": 88.0, "sigma_obs": 0, "spacing_req": 42.8, "spacing_now": 87.1, "deficit": 2.03, "sp_tier": "mid", "df_tier": "critical" }, "geometry": { "type": "Polygon", "coordinates": [ [ [ 128.449999999999875, 38.35 ], [ 128.449999999999875, 38.45 ], [ 128.349999999999852, 38.45 ], [ 128.349999999999852, 38.35 ], [ 128.449999999999875, 38.35 ] ] ] } },
{ "type": "Feature", "properties": { "sigma_nT": 88.0, "sigma_obs": 0, "spacing_req": 42.8, "spacing_now": 91.1, "deficit": 2.13, "sp_tier": "mid", "df_tier": "critical" }, "geometry": { "type": "Polygon", "coordinates": [ [ [ 128.549999999999869, 38.35 ], [ 128.549999999999869, 38.45 ], [ 128.449999999999847, 38.45 ], [ 128.449999999999847, 38.35 ], [ 128.549999999999869, 38.35 ] ] ] } },
{ "type": "Feature", "properties": { "sigma_nT": 88.0, "sigma_obs": 0, "spacing_req": 42.8, "spacing_now": 109.1, "deficit": 2.55, "sp_tier": "mid", "df_tier": "critical" }, "geometry": { "type": "Polygon", "coordinates": [ [ [ 128.449999999999875, 38.45 ], [ 128.449999999999875, 38.55 ], [ 128.349999999999852, 38.55 ], [ 128.349999999999852, 38.45 ], [ 128.449999999999875, 38.45 ] ] ] } },
{ "type": "Feature", "properties": { "sigma_nT": 88.0, "sigma_obs": 0, "spacing_req": 42.8, "spacing_now": 131.1, "deficit": 3.06, "sp_tier": "mid", "df_tier": "critical" }, "geometry": { "type": "Polygon", "coordinates": [ [ [ 128.449999999999875, 38.55 ], [ 128.449999999999875, 38.65 ], [ 128.349999999999852, 38.65 ], [ 128.349999999999852, 38.55 ], [ 128.449999999999875, 38.55 ] ] ] } }
]
}
