{
"type": "FeatureCollection",
"name": "density_gap_short",
"crs": { "type": "name", "properties": { "name": "urn:ogc:def:crs:OGC:1.3:CRS84" } },
"features": [
{ "type": "Feature", "properties": { "sigma_nT": 193.0, "sigma_obs": 1, "spacing_req": 28.9, "spacing_now": 52.6, "deficit": 1.82, "sp_tier": "dense", "df_tier": "short" }, "geometry": { "type": "Polygon", "coordinates": [ [ [ 126.85, 33.25 ], [ 126.85, 33.35 ], [ 126.75, 33.35 ], [ 126.75, 33.25 ], [ 126.85, 33.25 ] ] ] } },
{ "type": "Feature", "properties": { "sigma_nT": 151.0, "sigma_obs": 1, "spacing_req": 32.7, "spacing_now": 49.7, "deficit": 1.52, "sp_tier": "dense", "df_tier": "short" }, "geometry": { "type": "Polygon", "coordinates": [ [ [ 126.95, 33.25 ], [ 126.95, 33.35 ], [ 126.85, 33.35 ], [ 126.85, 33.25 ], [ 126.95, 33.25 ] ] ] } },
{ "type": "Feature", "properties": { "sigma_nT": 212.0, "sigma_obs": 1, "spacing_req": 27.6, "spacing_now": 45.4, "deficit": 1.64, "sp_tier": "dense", "df_tier": "short" }, "geometry": { "type": "Polygon", "coordinates": [ [ [ 126.75, 33.35 ], [ 126.75, 33.45 ], [ 126.65, 33.45 ], [ 126.65, 33.35 ], [ 126.75, 33.35 ] ] ] } },
{ "type": "Feature", "properties": { "sigma_nT": 212.0, "sigma_obs": 1, "spacing_req": 27.6, "spacing_now": 54.9, "deficit": 1.99, "sp_tier": "dense", "df_tier": "short" }, "geometry": { "type": "Polygon", "coordinates": [ [ [ 126.65, 33.45 ], [ 126.65, 33.55 ], [ 126.55, 33.55 ], [ 126.55, 33.45 ], [ 126.65, 33.45 ] ] ] } },
{ "type": "Feature", "properties": { "sigma_nT": 154.0, "sigma_obs": 1, "spacing_req": 32.3, "spacing_now": 58.5, "deficit": 1.81, "sp_tier": "dense", "df_tier": "short" }, "geometry": { "type": "Polygon", "coordinates": [ [ [ 126.55, 34.25 ], [ 126.55, 34.35 ], [ 126.45, 34.35 ], [ 126.45, 34.25 ], [ 126.55, 34.25 ] ] ] } },
{ "type": "Feature", "properties": { "sigma_nT": 155.0, "sigma_obs": 1, "spacing_req": 32.3, "spacing_now": 51.2, "deficit": 1.59, "sp_tier": "dense", "df_tier": "short" }, "geometry": { "type": "Polygon", "coordinates": [ [ [ 126.55, 34.35 ], [ 126.55, 34.45 ], [ 126.45, 34.45 ], [ 126.45, 34.35 ], [ 126.55, 34.35 ] ] ] } },
{ "type": "Feature", "properties": { "sigma_nT": 141.0, "sigma_obs": 1, "spacing_req": 33.9, "spacing_now": 52.2, "deficit": 1.54, "sp_tier": "dense", "df_tier": "short" }, "geometry": { "type": "Polygon", "coordinates": [ [ [ 126.95, 34.35 ], [ 126.95, 34.45 ], [ 126.85, 34.45 ], [ 126.85, 34.35 ], [ 126.95, 34.35 ] ] ] } },
{ "type": "Feature", "properties": { "sigma_nT": 159.0, "sigma_obs": 1, "spacing_req": 31.9, "spacing_now": 52.9, "deficit": 1.66, "sp_tier": "dense", "df_tier": "short" }, "geometry": { "type": "Polygon", "coordinates": [ [ [ 126.55, 34.45 ], [ 126.55, 34.55 ], [ 126.45, 34.55 ], [ 126.45, 34.45 ], [ 126.55, 34.45 ] ] ] } },
{ "type": "Feature", "properties": { "sigma_nT": 135.0, "sigma_obs": 1, "spacing_req": 34.6, "spacing_now": 58.2, "deficit": 1.68, "sp_tier": "dense", "df_tier": "short" }, "geometry": { "type": "Polygon", "coordinates": [ [ [ 126.75, 34.45 ], [ 126.75, 34.55 ], [ 126.65, 34.55 ], [ 126.65, 34.45 ], [ 126.75, 34.45 ] ] ] } },
{ "type": "Feature", "properties": { "sigma_nT": 126.0, "sigma_obs": 1, "spacing_req": 35.8, "spacing_now": 63.5, "deficit": 1.77, "sp_tier": "mid", "df_tier": "short" }, "geometry": { "type": "Polygon", "coordinates": [ [ [ 127.35, 34.45 ], [ 127.35, 34.55 ], [ 127.25, 34.55 ], [ 127.25, 34.45 ], [ 127.35, 34.45 ] ] ] } },
{ "type": "Feature", "properties": { "sigma_nT": 130.0, "sigma_obs": 1, "spacing_req": 35.3, "spacing_now": 65.8, "deficit": 1.86, "sp_tier": "mid", "df_tier": "short" }, "geometry": { "type": "Polygon", "coordinates": [ [ [ 127.45, 34.45 ], [ 127.45, 34.55 ], [ 127.35, 34.55 ], [ 127.35, 34.45 ], [ 127.45, 34.45 ] ] ] } },
{ "type": "Feature", "properties": { "sigma_nT": 171.0, "sigma_obs": 1, "spacing_req": 30.8, "spacing_now": 49.3, "deficit": 1.6, "sp_tier": "dense", "df_tier": "short" }, "geometry": { "type": "Polygon", "coordinates": [ [ [ 126.45, 34.55 ], [ 126.45, 34.65 ], [ 126.35, 34.65 ], [ 126.35, 34.55 ], [ 126.45, 34.55 ] ] ] } },
{ "type": "Feature", "properties": { "sigma_nT": 157.0, "sigma_obs": 1, "spacing_req": 32.1, "spacing_now": 62.9, "deficit": 1.96, "sp_tier": "dense", "df_tier": "short" }, "geometry": { "type": "Polygon", "coordinates": [ [ [ 126.55, 34.55 ], [ 126.55, 34.65 ], [ 126.45, 34.65 ], [ 126.45, 34.55 ], [ 126.55, 34.55 ] ] ] } },
{ "type": "Feature", "properties": { "sigma_nT": 143.0, "sigma_obs": 1, "spacing_req": 33.7, "spacing_now": 54.6, "deficit": 1.62, "sp_tier": "dense", "df_tier": "short" }, "geometry": { "type": "Polygon", "coordinates": [ [ [ 127.55, 34.55 ], [ 127.55, 34.65 ], [ 127.45, 34.65 ], [ 127.45, 34.55 ], [ 127.55, 34.55 ] ] ] } },
{ "type": "Feature", "properties": { "sigma_nT": 148.0, "sigma_obs": 1, "spacing_req": 33.0, "spacing_now": 63.5, "deficit": 1.92, "sp_tier": "dense", "df_tier": "short" }, "geometry": { "type": "Polygon", "coordinates": [ [ [ 126.15, 34.65 ], [ 126.15, 34.75 ], [ 126.05, 34.75 ], [ 126.05, 34.65 ], [ 126.15, 34.65 ] ] ] } },
{ "type": "Feature", "properties": { "sigma_nT": 142.0, "sigma_obs": 1, "spacing_req": 33.7, "spacing_now": 59.5, "deficit": 1.76, "sp_tier": "dense", "df_tier": "short" }, "geometry": { "type": "Polygon", "coordinates": [ [ [ 126.25, 34.65 ], [ 126.25, 34.75 ], [ 126.15, 34.75 ], [ 126.15, 34.65 ], [ 126.25, 34.65 ] ] ] } },
{ "type": "Feature", "properties": { "sigma_nT": 142.0, "sigma_obs": 1, "spacing_req": 33.7, "spacing_now": 61.0, "deficit": 1.81, "sp_tier": "dense", "df_tier": "short" }, "geometry": { "type": "Polygon", "coordinates": [ [ [ 126.35, 34.65 ], [ 126.35, 34.75 ], [ 126.25, 34.75 ], [ 126.25, 34.65 ], [ 126.35, 34.65 ] ] ] } },
{ "type": "Feature", "properties": { "sigma_nT": 124.0, "sigma_obs": 1, "spacing_req": 36.1, "spacing_now": 71.0, "deficit": 1.97, "sp_tier": "mid", "df_tier": "short" }, "geometry": { "type": "Polygon", "coordinates": [ [ [ 126.65, 34.65 ], [ 126.65, 34.75 ], [ 126.55, 34.75 ], [ 126.55, 34.65 ], [ 126.65, 34.65 ] ] ] } },
{ "type": "Feature", "properties": { "sigma_nT": 160.0, "sigma_obs": 1, "spacing_req": 31.8, "spacing_now": 57.3, "deficit": 1.8, "sp_tier": "dense", "df_tier": "short" }, "geometry": { "type": "Polygon", "coordinates": [ [ [ 127.65, 34.65 ], [ 127.65, 34.75 ], [ 127.55, 34.75 ], [ 127.55, 34.65 ], [ 127.65, 34.65 ] ] ] } },
{ "type": "Feature", "properties": { "sigma_nT": 171.0, "sigma_obs": 1, "spacing_req": 30.7, "spacing_now": 50.6, "deficit": 1.65, "sp_tier": "dense", "df_tier": "short" }, "geometry": { "type": "Polygon", "coordinates": [ [ [ 127.849999999999895, 34.65 ], [ 127.849999999999895, 34.75 ], [ 127.75, 34.75 ], [ 127.75, 34.65 ], [ 127.849999999999895, 34.65 ] ] ] } },
{ "type": "Feature", "properties": { "sigma_nT": 108.0, "sigma_obs": 1, "spacing_req": 38.7, "spacing_now": 63.6, "deficit": 1.64, "sp_tier": "mid", "df_tier": "short" }, "geometry": { "type": "Polygon", "coordinates": [ [ [ 126.75, 34.75 ], [ 126.75, 34.85 ], [ 126.65, 34.85 ], [ 126.65, 34.75 ], [ 126.75, 34.75 ] ] ] } },
{ "type": "Feature", "properties": { "sigma_nT": 146.0, "sigma_obs": 1, "spacing_req": 33.3, "spacing_now": 54.0, "deficit": 1.62, "sp_tier": "dense", "df_tier": "short" }, "geometry": { "type": "Polygon", "coordinates": [ [ [ 127.65, 34.75 ], [ 127.65, 34.85 ], [ 127.55, 34.85 ], [ 127.55, 34.75 ], [ 127.65, 34.75 ] ] ] } },
{ "type": "Feature", "properties": { "sigma_nT": 147.0, "sigma_obs": 1, "spacing_req": 33.2, "spacing_now": 55.7, "deficit": 1.68, "sp_tier": "dense", "df_tier": "short" }, "geometry": { "type": "Polygon", "coordinates": [ [ [ 127.75, 34.75 ], [ 127.75, 34.85 ], [ 127.65, 34.85 ], [ 127.65, 34.75 ], [ 127.75, 34.75 ] ] ] } },
{ "type": "Feature", "properties": { "sigma_nT": 109.0, "sigma_obs": 1, "spacing_req": 38.4, "spacing_now": 60.1, "deficit": 1.56, "sp_tier": "mid", "df_tier": "short" }, "geometry": { "type": "Polygon", "coordinates": [ [ [ 126.45, 34.85 ], [ 126.45, 34.95 ], [ 126.35, 34.95 ], [ 126.35, 34.85 ], [ 126.45, 34.85 ] ] ] } },
{ "type": "Feature", "properties": { "sigma_nT": 105.0, "sigma_obs": 1, "spacing_req": 39.2, "spacing_now": 64.7, "deficit": 1.65, "sp_tier": "mid", "df_tier": "short" }, "geometry": { "type": "Polygon", "coordinates": [ [ [ 126.55, 34.85 ], [ 126.55, 34.95 ], [ 126.45, 34.95 ], [ 126.45, 34.85 ], [ 126.55, 34.85 ] ] ] } },
{ "type": "Feature", "properties": { "sigma_nT": 99.0, "sigma_obs": 1, "spacing_req": 40.3, "spacing_now": 73.8, "deficit": 1.83, "sp_tier": "mid", "df_tier": "short" }, "geometry": { "type": "Polygon", "coordinates": [ [ [ 126.65, 34.85 ], [ 126.65, 34.95 ], [ 126.55, 34.95 ], [ 126.55, 34.85 ], [ 126.65, 34.85 ] ] ] } },
{ "type": "Feature", "properties": { "sigma_nT": 98.0, "sigma_obs": 1, "spacing_req": 40.5, "spacing_now": 78.9, "deficit": 1.95, "sp_tier": "mid", "df_tier": "short" }, "geometry": { "type": "Polygon", "coordinates": [ [ [ 126.75, 34.85 ], [ 126.75, 34.95 ], [ 126.65, 34.95 ], [ 126.65, 34.85 ], [ 126.75, 34.85 ] ] ] } },
{ "type": "Feature", "properties": { "sigma_nT": 114.0, "sigma_obs": 1, "spacing_req": 37.6, "spacing_now": 68.5, "deficit": 1.82, "sp_tier": "mid", "df_tier": "short" }, "geometry": { "type": "Polygon", "coordinates": [ [ [ 126.85, 34.85 ], [ 126.85, 34.95 ], [ 126.75, 34.95 ], [ 126.75, 34.85 ], [ 126.85, 34.85 ] ] ] } },
{ "type": "Feature", "properties": { "sigma_nT": 112.0, "sigma_obs": 1, "spacing_req": 38.0, "spacing_now": 62.0, "deficit": 1.63, "sp_tier": "mid", "df_tier": "short" }, "geometry": { "type": "Polygon", "coordinates": [ [ [ 126.95, 34.85 ], [ 126.95, 34.95 ], [ 126.85, 34.95 ], [ 126.85, 34.85 ], [ 126.95, 34.85 ] ] ] } },
{ "type": "Feature", "properties": { "sigma_nT": 106.0, "sigma_obs": 1, "spacing_req": 39.1, "spacing_now": 60.5, "deficit": 1.55, "sp_tier": "mid", "df_tier": "short" }, "geometry": { "type": "Polygon", "coordinates": [ [ [ 127.05, 34.85 ], [ 127.05, 34.95 ], [ 126.95, 34.95 ], [ 126.95, 34.85 ], [ 127.05, 34.85 ] ] ] } },
{ "type": "Feature", "properties": { "sigma_nT": 136.0, "sigma_obs": 1, "spacing_req": 34.5, "spacing_now": 59.4, "deficit": 1.72, "sp_tier": "dense", "df_tier": "short" }, "geometry": { "type": "Polygon", "coordinates": [ [ [ 127.65, 34.85 ], [ 127.65, 34.95 ], [ 127.55, 34.95 ], [ 127.55, 34.85 ], [ 127.65, 34.85 ] ] ] } },
{ "type": "Feature", "properties": { "sigma_nT": 141.0, "sigma_obs": 1, "spacing_req": 33.8, "spacing_now": 54.6, "deficit": 1.61, "sp_tier": "dense", "df_tier": "short" }, "geometry": { "type": "Polygon", "coordinates": [ [ [ 127.75, 34.85 ], [ 127.75, 34.95 ], [ 127.65, 34.95 ], [ 127.65, 34.85 ], [ 127.75, 34.85 ] ] ] } },
{ "type": "Feature", "properties": { "sigma_nT": 188.0, "sigma_obs": 1, "spacing_req": 29.3, "spacing_now": 53.9, "deficit": 1.84, "sp_tier": "dense", "df_tier": "short" }, "geometry": { "type": "Polygon", "coordinates": [ [ [ 128.349999999999881, 34.85 ], [ 128.349999999999881, 34.95 ], [ 128.249999999999858, 34.95 ], [ 128.249999999999858, 34.85 ], [ 128.349999999999881, 34.85 ] ] ] } },
{ "type": "Feature", "properties": { "sigma_nT": 91.0, "sigma_obs": 1, "spacing_req": 42.0, "spacing_now": 72.1, "deficit": 1.72, "sp_tier": "mid", "df_tier": "short" }, "geometry": { "type": "Polygon", "coordinates": [ [ [ 126.75, 34.95 ], [ 126.75, 35.05 ], [ 126.65, 35.05 ], [ 126.65, 34.95 ], [ 126.75, 34.95 ] ] ] } },
{ "type": "Feature", "properties": { "sigma_nT": 104.0, "sigma_obs": 1, "spacing_req": 39.5, "spacing_now": 70.3, "deficit": 1.78, "sp_tier": "mid", "df_tier": "short" }, "geometry": { "type": "Polygon", "coordinates": [ [ [ 127.05, 34.95 ], [ 127.05, 35.05 ], [ 126.95, 35.05 ], [ 126.95, 34.95 ], [ 127.05, 34.95 ] ] ] } },
{ "type": "Feature", "properties": { "sigma_nT": 109.0, "sigma_obs": 1, "spacing_req": 38.5, "spacing_now": 59.0, "deficit": 1.53, "sp_tier": "mid", "df_tier": "short" }, "geometry": { "type": "Polygon", "coordinates": [ [ [ 127.55, 34.95 ], [ 127.55, 35.05 ], [ 127.45, 35.05 ], [ 127.45, 34.95 ], [ 127.55, 34.95 ] ] ] } },
{ "type": "Feature", "properties": { "sigma_nT": 117.0, "sigma_obs": 1, "spacing_req": 37.1, "spacing_now": 71.6, "deficit": 1.93, "sp_tier": "mid", "df_tier": "short" }, "geometry": { "type": "Polygon", "coordinates": [ [ [ 127.65, 34.95 ], [ 127.65, 35.05 ], [ 127.55, 35.05 ], [ 127.55, 34.95 ], [ 127.65, 34.95 ] ] ] } },
{ "type": "Feature", "properties": { "sigma_nT": 123.0, "sigma_obs": 1, "spacing_req": 36.3, "spacing_now": 61.9, "deficit": 1.71, "sp_tier": "mid", "df_tier": "short" }, "geometry": { "type": "Polygon", "coordinates": [ [ [ 127.75, 34.95 ], [ 127.75, 35.05 ], [ 127.65, 35.05 ], [ 127.65, 34.95 ], [ 127.75, 34.95 ] ] ] } },
{ "type": "Feature", "properties": { "sigma_nT": 162.0, "sigma_obs": 1, "spacing_req": 31.6, "spacing_now": 48.3, "deficit": 1.53, "sp_tier": "dense", "df_tier": "short" }, "geometry": { "type": "Polygon", "coordinates": [ [ [ 128.249999999999886, 34.95 ], [ 128.249999999999886, 35.05 ], [ 128.149999999999864, 35.05 ], [ 128.149999999999864, 34.95 ], [ 128.249999999999886, 34.95 ] ] ] } },
{ "type": "Feature", "properties": { "sigma_nT": 193.0, "sigma_obs": 1, "spacing_req": 28.9, "spacing_now": 45.4, "deficit": 1.57, "sp_tier": "dense", "df_tier": "short" }, "geometry": { "type": "Polygon", "coordinates": [ [ [ 128.449999999999875, 34.95 ], [ 128.449999999999875, 35.05 ], [ 128.349999999999852, 35.05 ], [ 128.349999999999852, 34.95 ], [ 128.449999999999875, 34.95 ] ] ] } },
{ "type": "Feature", "properties": { "sigma_nT": 112.0, "sigma_obs": 1, "spacing_req": 38.0, "spacing_now": 63.5, "deficit": 1.67, "sp_tier": "mid", "df_tier": "short" }, "geometry": { "type": "Polygon", "coordinates": [ [ [ 126.75, 35.05 ], [ 126.75, 35.15 ], [ 126.65, 35.15 ], [ 126.65, 35.05 ], [ 126.75, 35.05 ] ] ] } },
{ "type": "Feature", "properties": { "sigma_nT": 161.0, "sigma_obs": 1, "spacing_req": 31.6, "spacing_now": 61.6, "deficit": 1.95, "sp_tier": "dense", "df_tier": "short" }, "geometry": { "type": "Polygon", "coordinates": [ [ [ 126.95, 35.05 ], [ 126.95, 35.15 ], [ 126.85, 35.15 ], [ 126.85, 35.05 ], [ 126.95, 35.05 ] ] ] } },
{ "type": "Feature", "properties": { "sigma_nT": 163.0, "sigma_obs": 1, "spacing_req": 31.4, "spacing_now": 50.4, "deficit": 1.6, "sp_tier": "dense", "df_tier": "short" }, "geometry": { "type": "Polygon", "coordinates": [ [ [ 127.05, 35.05 ], [ 127.05, 35.15 ], [ 126.95, 35.15 ], [ 126.95, 35.05 ], [ 127.05, 35.05 ] ] ] } },
{ "type": "Feature", "properties": { "sigma_nT": 88.0, "sigma_obs": 1, "spacing_req": 42.8, "spacing_now": 77.8, "deficit": 1.82, "sp_tier": "mid", "df_tier": "short" }, "geometry": { "type": "Polygon", "coordinates": [ [ [ 127.55, 35.05 ], [ 127.55, 35.15 ], [ 127.45, 35.15 ], [ 127.45, 35.05 ], [ 127.55, 35.05 ] ] ] } },
{ "type": "Feature", "properties": { "sigma_nT": 94.0, "sigma_obs": 1, "spacing_req": 41.4, "spacing_now": 75.3, "deficit": 1.82, "sp_tier": "mid", "df_tier": "short" }, "geometry": { "type": "Polygon", "coordinates": [ [ [ 127.75, 35.05 ], [ 127.75, 35.15 ], [ 127.65, 35.15 ], [ 127.65, 35.05 ], [ 127.75, 35.05 ] ] ] } },
{ "type": "Feature", "properties": { "sigma_nT": 103.0, "sigma_obs": 1, "spacing_req": 39.6, "spacing_now": 63.6, "deficit": 1.6, "sp_tier": "mid", "df_tier": "short" }, "geometry": { "type": "Polygon", "coordinates": [ [ [ 127.849999999999895, 35.05 ], [ 127.849999999999895, 35.15 ], [ 127.75, 35.15 ], [ 127.75, 35.05 ], [ 127.849999999999895, 35.05 ] ] ] } },
{ "type": "Feature", "properties": { "sigma_nT": 137.0, "sigma_obs": 1, "spacing_req": 34.3, "spacing_now": 56.0, "deficit": 1.63, "sp_tier": "dense", "df_tier": "short" }, "geometry": { "type": "Polygon", "coordinates": [ [ [ 128.149999999999892, 35.05 ], [ 128.149999999999892, 35.15 ], [ 128.049999999999869, 35.15 ], [ 128.049999999999869, 35.05 ], [ 128.149999999999892, 35.05 ] ] ] } },
{ "type": "Feature", "properties": { "sigma_nT": 208.0, "sigma_obs": 1, "spacing_req": 27.9, "spacing_now": 53.5, "deficit": 1.92, "sp_tier": "dense", "df_tier": "short" }, "geometry": { "type": "Polygon", "coordinates": [ [ [ 128.549999999999869, 35.05 ], [ 128.549999999999869, 35.15 ], [ 128.449999999999847, 35.15 ], [ 128.449999999999847, 35.05 ], [ 128.549999999999869, 35.05 ] ] ] } },
{ "type": "Feature", "properties": { "sigma_nT": 211.0, "sigma_obs": 1, "spacing_req": 27.7, "spacing_now": 50.8, "deficit": 1.83, "sp_tier": "dense", "df_tier": "short" }, "geometry": { "type": "Polygon", "coordinates": [ [ [ 128.649999999999864, 35.05 ], [ 128.649999999999864, 35.15 ], [ 128.549999999999841, 35.15 ], [ 128.549999999999841, 35.05 ], [ 128.649999999999864, 35.05 ] ] ] } },
{ "type": "Feature", "properties": { "sigma_nT": 202.0, "sigma_obs": 1, "spacing_req": 28.3, "spacing_now": 54.4, "deficit": 1.92, "sp_tier": "dense", "df_tier": "short" }, "geometry": { "type": "Polygon", "coordinates": [ [ [ 128.749999999999858, 35.05 ], [ 128.749999999999858, 35.15 ], [ 128.649999999999835, 35.15 ], [ 128.649999999999835, 35.05 ], [ 128.749999999999858, 35.05 ] ] ] } },
{ "type": "Feature", "properties": { "sigma_nT": 124.0, "sigma_obs": 1, "spacing_req": 36.1, "spacing_now": 61.9, "deficit": 1.71, "sp_tier": "mid", "df_tier": "short" }, "geometry": { "type": "Polygon", "coordinates": [ [ [ 126.75, 35.15 ], [ 126.75, 35.25 ], [ 126.65, 35.25 ], [ 126.65, 35.15 ], [ 126.75, 35.15 ] ] ] } },
{ "type": "Feature", "properties": { "sigma_nT": 176.0, "sigma_obs": 1, "spacing_req": 30.3, "spacing_now": 48.5, "deficit": 1.6, "sp_tier": "dense", "df_tier": "short" }, "geometry": { "type": "Polygon", "coordinates": [ [ [ 126.95, 35.15 ], [ 126.95, 35.25 ], [ 126.85, 35.25 ], [ 126.85, 35.15 ], [ 126.95, 35.15 ] ] ] } },
{ "type": "Feature", "properties": { "sigma_nT": 86.0, "sigma_obs": 1, "spacing_req": 43.4, "spacing_now": 69.0, "deficit": 1.59, "sp_tier": "mid", "df_tier": "short" }, "geometry": { "type": "Polygon", "coordinates": [ [ [ 127.55, 35.15 ], [ 127.55, 35.25 ], [ 127.45, 35.25 ], [ 127.45, 35.15 ], [ 127.55, 35.15 ] ] ] } },
{ "type": "Feature", "properties": { "sigma_nT": 88.0, "sigma_obs": 1, "spacing_req": 43.0, "spacing_now": 75.9, "deficit": 1.77, "sp_tier": "mid", "df_tier": "short" }, "geometry": { "type": "Polygon", "coordinates": [ [ [ 127.65, 35.15 ], [ 127.65, 35.25 ], [ 127.55, 35.25 ], [ 127.55, 35.15 ], [ 127.65, 35.15 ] ] ] } },
{ "type": "Feature", "properties": { "sigma_nT": 160.0, "sigma_obs": 1, "spacing_req": 31.8, "spacing_now": 61.0, "deficit": 1.92, "sp_tier": "dense", "df_tier": "short" }, "geometry": { "type": "Polygon", "coordinates": [ [ [ 128.349999999999881, 35.15 ], [ 128.349999999999881, 35.25 ], [ 128.249999999999858, 35.25 ], [ 128.249999999999858, 35.15 ], [ 128.349999999999881, 35.15 ] ] ] } },
{ "type": "Feature", "properties": { "sigma_nT": 175.0, "sigma_obs": 1, "spacing_req": 30.3, "spacing_now": 53.9, "deficit": 1.78, "sp_tier": "dense", "df_tier": "short" }, "geometry": { "type": "Polygon", "coordinates": [ [ [ 128.449999999999875, 35.15 ], [ 128.449999999999875, 35.25 ], [ 128.349999999999852, 35.25 ], [ 128.349999999999852, 35.15 ], [ 128.449999999999875, 35.15 ] ] ] } },
{ "type": "Feature", "properties": { "sigma_nT": 179.0, "sigma_obs": 1, "spacing_req": 30.0, "spacing_now": 52.4, "deficit": 1.74, "sp_tier": "dense", "df_tier": "short" }, "geometry": { "type": "Polygon", "coordinates": [ [ [ 128.549999999999869, 35.15 ], [ 128.549999999999869, 35.25 ], [ 128.449999999999847, 35.25 ], [ 128.449999999999847, 35.15 ], [ 128.549999999999869, 35.15 ] ] ] } },
{ "type": "Feature", "properties": { "sigma_nT": 181.0, "sigma_obs": 1, "spacing_req": 29.9, "spacing_now": 57.0, "deficit": 1.91, "sp_tier": "dense", "df_tier": "short" }, "geometry": { "type": "Polygon", "coordinates": [ [ [ 128.649999999999864, 35.15 ], [ 128.649999999999864, 35.25 ], [ 128.549999999999841, 35.25 ], [ 128.549999999999841, 35.15 ], [ 128.649999999999864, 35.15 ] ] ] } },
{ "type": "Feature", "properties": { "sigma_nT": 195.0, "sigma_obs": 1, "spacing_req": 28.8, "spacing_now": 43.5, "deficit": 1.51, "sp_tier": "dense", "df_tier": "short" }, "geometry": { "type": "Polygon", "coordinates": [ [ [ 126.95, 35.25 ], [ 126.95, 35.35 ], [ 126.85, 35.35 ], [ 126.85, 35.25 ], [ 126.95, 35.25 ] ] ] } },
{ "type": "Feature", "properties": { "sigma_nT": 126.0, "sigma_obs": 1, "spacing_req": 35.8, "spacing_now": 55.4, "deficit": 1.55, "sp_tier": "mid", "df_tier": "short" }, "geometry": { "type": "Polygon", "coordinates": [ [ [ 127.75, 35.25 ], [ 127.75, 35.35 ], [ 127.65, 35.35 ], [ 127.65, 35.25 ], [ 127.75, 35.25 ] ] ] } },
{ "type": "Feature", "properties": { "sigma_nT": 159.0, "sigma_obs": 1, "spacing_req": 31.8, "spacing_now": 62.5, "deficit": 1.96, "sp_tier": "dense", "df_tier": "short" }, "geometry": { "type": "Polygon", "coordinates": [ [ [ 127.849999999999895, 35.25 ], [ 127.849999999999895, 35.35 ], [ 127.75, 35.35 ], [ 127.75, 35.25 ], [ 127.849999999999895, 35.25 ] ] ] } },
{ "type": "Feature", "properties": { "sigma_nT": 174.0, "sigma_obs": 1, "spacing_req": 30.4, "spacing_now": 58.1, "deficit": 1.91, "sp_tier": "dense", "df_tier": "short" }, "geometry": { "type": "Polygon", "coordinates": [ [ [ 128.249999999999886, 35.25 ], [ 128.249999999999886, 35.35 ], [ 128.149999999999864, 35.35 ], [ 128.149999999999864, 35.25 ], [ 128.249999999999886, 35.25 ] ] ] } },
{ "type": "Feature", "properties": { "sigma_nT": 198.0, "sigma_obs": 1, "spacing_req": 28.6, "spacing_now": 50.9, "deficit": 1.78, "sp_tier": "dense", "df_tier": "short" }, "geometry": { "type": "Polygon", "coordinates": [ [ [ 128.749999999999858, 35.25 ], [ 128.749999999999858, 35.35 ], [ 128.649999999999835, 35.35 ], [ 128.649999999999835, 35.25 ], [ 128.749999999999858, 35.25 ] ] ] } },
{ "type": "Feature", "properties": { "sigma_nT": 119.0, "sigma_obs": 1, "spacing_req": 36.8, "spacing_now": 56.8, "deficit": 1.54, "sp_tier": "mid", "df_tier": "short" }, "geometry": { "type": "Polygon", "coordinates": [ [ [ 126.55, 35.35 ], [ 126.55, 35.45 ], [ 126.45, 35.45 ], [ 126.45, 35.35 ], [ 126.55, 35.35 ] ] ] } },
{ "type": "Feature", "properties": { "sigma_nT": 197.0, "sigma_obs": 1, "spacing_req": 28.6, "spacing_now": 44.2, "deficit": 1.54, "sp_tier": "dense", "df_tier": "short" }, "geometry": { "type": "Polygon", "coordinates": [ [ [ 126.85, 35.35 ], [ 126.85, 35.45 ], [ 126.75, 35.45 ], [ 126.75, 35.35 ], [ 126.85, 35.35 ] ] ] } },
{ "type": "Feature", "properties": { "sigma_nT": 198.0, "sigma_obs": 1, "spacing_req": 28.6, "spacing_now": 49.1, "deficit": 1.72, "sp_tier": "dense", "df_tier": "short" }, "geometry": { "type": "Polygon", "coordinates": [ [ [ 126.95, 35.35 ], [ 126.95, 35.45 ], [ 126.85, 35.45 ], [ 126.85, 35.35 ], [ 126.95, 35.35 ] ] ] } },
{ "type": "Feature", "properties": { "sigma_nT": 178.0, "sigma_obs": 1, "spacing_req": 30.1, "spacing_now": 59.3, "deficit": 1.97, "sp_tier": "dense", "df_tier": "short" }, "geometry": { "type": "Polygon", "coordinates": [ [ [ 127.949999999999889, 35.35 ], [ 127.949999999999889, 35.45 ], [ 127.849999999999895, 35.45 ], [ 127.849999999999895, 35.35 ], [ 127.949999999999889, 35.35 ] ] ] } },
{ "type": "Feature", "properties": { "sigma_nT": 188.0, "sigma_obs": 1, "spacing_req": 29.3, "spacing_now": 50.3, "deficit": 1.71, "sp_tier": "dense", "df_tier": "short" }, "geometry": { "type": "Polygon", "coordinates": [ [ [ 128.249999999999886, 35.35 ], [ 128.249999999999886, 35.45 ], [ 128.149999999999864, 35.45 ], [ 128.149999999999864, 35.35 ], [ 128.249999999999886, 35.35 ] ] ] } },
{ "type": "Feature", "properties": { "sigma_nT": 174.0, "sigma_obs": 1, "spacing_req": 30.5, "spacing_now": 59.8, "deficit": 1.96, "sp_tier": "dense", "df_tier": "short" }, "geometry": { "type": "Polygon", "coordinates": [ [ [ 128.849999999999852, 35.35 ], [ 128.849999999999852, 35.45 ], [ 128.749999999999829, 35.45 ], [ 128.749999999999829, 35.35 ], [ 128.849999999999852, 35.35 ] ] ] } },
{ "type": "Feature", "properties": { "sigma_nT": 163.0, "sigma_obs": 1, "spacing_req": 31.5, "spacing_now": 62.4, "deficit": 1.98, "sp_tier": "dense", "df_tier": "short" }, "geometry": { "type": "Polygon", "coordinates": [ [ [ 129.149999999999835, 35.35 ], [ 129.149999999999835, 35.45 ], [ 129.049999999999812, 35.45 ], [ 129.049999999999812, 35.35 ], [ 129.149999999999835, 35.35 ] ] ] } },
{ "type": "Feature", "properties": { "sigma_nT": 145.0, "sigma_obs": 1, "spacing_req": 33.4, "spacing_now": 60.6, "deficit": 1.81, "sp_tier": "dense", "df_tier": "short" }, "geometry": { "type": "Polygon", "coordinates": [ [ [ 129.249999999999829, 35.35 ], [ 129.249999999999829, 35.45 ], [ 129.149999999999807, 35.45 ], [ 129.149999999999807, 35.35 ], [ 129.249999999999829, 35.35 ] ] ] } },
{ "type": "Feature", "properties": { "sigma_nT": 140.0, "sigma_obs": 1, "spacing_req": 34.0, "spacing_now": 64.1, "deficit": 1.88, "sp_tier": "dense", "df_tier": "short" }, "geometry": { "type": "Polygon", "coordinates": [ [ [ 129.349999999999824, 35.35 ], [ 129.349999999999824, 35.45 ], [ 129.249999999999801, 35.45 ], [ 129.249999999999801, 35.35 ], [ 129.349999999999824, 35.35 ] ] ] } },
{ "type": "Feature", "properties": { "sigma_nT": 191.0, "sigma_obs": 1, "spacing_req": 29.1, "spacing_now": 51.6, "deficit": 1.77, "sp_tier": "dense", "df_tier": "short" }, "geometry": { "type": "Polygon", "coordinates": [ [ [ 127.05, 35.45 ], [ 127.05, 35.55 ], [ 126.95, 35.55 ], [ 126.95, 35.45 ], [ 127.05, 35.45 ] ] ] } },
{ "type": "Feature", "properties": { "sigma_nT": 187.0, "sigma_obs": 1, "spacing_req": 29.4, "spacing_now": 45.5, "deficit": 1.55, "sp_tier": "dense", "df_tier": "short" }, "geometry": { "type": "Polygon", "coordinates": [ [ [ 127.15, 35.45 ], [ 127.15, 35.55 ], [ 127.05, 35.55 ], [ 127.05, 35.45 ], [ 127.15, 35.45 ] ] ] } },
{ "type": "Feature", "properties": { "sigma_nT": 184.0, "sigma_obs": 1, "spacing_req": 29.6, "spacing_now": 51.1, "deficit": 1.73, "sp_tier": "dense", "df_tier": "short" }, "geometry": { "type": "Polygon", "coordinates": [ [ [ 127.949999999999889, 35.45 ], [ 127.949999999999889, 35.55 ], [ 127.849999999999895, 35.55 ], [ 127.849999999999895, 35.45 ], [ 127.949999999999889, 35.45 ] ] ] } },
{ "type": "Feature", "properties": { "sigma_nT": 193.0, "sigma_obs": 1, "spacing_req": 28.9, "spacing_now": 51.6, "deficit": 1.78, "sp_tier": "dense", "df_tier": "short" }, "geometry": { "type": "Polygon", "coordinates": [ [ [ 128.249999999999886, 35.45 ], [ 128.249999999999886, 35.55 ], [ 128.149999999999864, 35.55 ], [ 128.149999999999864, 35.45 ], [ 128.249999999999886, 35.45 ] ] ] } },
{ "type": "Feature", "properties": { "sigma_nT": 171.0, "sigma_obs": 1, "spacing_req": 30.7, "spacing_now": 50.8, "deficit": 1.65, "sp_tier": "dense", "df_tier": "short" }, "geometry": { "type": "Polygon", "coordinates": [ [ [ 129.049999999999841, 35.45 ], [ 129.049999999999841, 35.55 ], [ 128.949999999999818, 35.55 ], [ 128.949999999999818, 35.45 ], [ 129.049999999999841, 35.45 ] ] ] } },
{ "type": "Feature", "properties": { "sigma_nT": 125.0, "sigma_obs": 1, "spacing_req": 36.0, "spacing_now": 54.8, "deficit": 1.52, "sp_tier": "mid", "df_tier": "short" }, "geometry": { "type": "Polygon", "coordinates": [ [ [ 129.449999999999818, 35.45 ], [ 129.449999999999818, 35.55 ], [ 129.349999999999795, 35.55 ], [ 129.349999999999795, 35.45 ], [ 129.449999999999818, 35.45 ] ] ] } },
{ "type": "Feature", "properties": { "sigma_nT": 146.0, "sigma_obs": 1, "spacing_req": 33.3, "spacing_now": 51.5, "deficit": 1.55, "sp_tier": "dense", "df_tier": "short" }, "geometry": { "type": "Polygon", "coordinates": [ [ [ 127.05, 35.55 ], [ 127.05, 35.65 ], [ 126.95, 35.65 ], [ 126.95, 35.55 ], [ 127.05, 35.55 ] ] ] } },
{ "type": "Feature", "properties": { "sigma_nT": 119.0, "sigma_obs": 1, "spacing_req": 36.8, "spacing_now": 68.0, "deficit": 1.85, "sp_tier": "mid", "df_tier": "short" }, "geometry": { "type": "Polygon", "coordinates": [ [ [ 127.25, 35.55 ], [ 127.25, 35.65 ], [ 127.15, 35.65 ], [ 127.15, 35.55 ], [ 127.25, 35.55 ] ] ] } },
{ "type": "Feature", "properties": { "sigma_nT": 188.0, "sigma_obs": 1, "spacing_req": 29.3, "spacing_now": 51.8, "deficit": 1.77, "sp_tier": "dense", "df_tier": "short" }, "geometry": { "type": "Polygon", "coordinates": [ [ [ 127.949999999999889, 35.55 ], [ 127.949999999999889, 35.65 ], [ 127.849999999999895, 35.65 ], [ 127.849999999999895, 35.55 ], [ 127.949999999999889, 35.55 ] ] ] } },
{ "type": "Feature", "properties": { "sigma_nT": 191.0, "sigma_obs": 1, "spacing_req": 29.1, "spacing_now": 55.9, "deficit": 1.92, "sp_tier": "dense", "df_tier": "short" }, "geometry": { "type": "Polygon", "coordinates": [ [ [ 128.049999999999898, 35.55 ], [ 128.049999999999898, 35.65 ], [ 127.949999999999889, 35.65 ], [ 127.949999999999889, 35.55 ], [ 128.049999999999898, 35.55 ] ] ] } },
{ "type": "Feature", "properties": { "sigma_nT": 192.0, "sigma_obs": 1, "spacing_req": 29.0, "spacing_now": 47.1, "deficit": 1.63, "sp_tier": "dense", "df_tier": "short" }, "geometry": { "type": "Polygon", "coordinates": [ [ [ 128.149999999999892, 35.55 ], [ 128.149999999999892, 35.65 ], [ 128.049999999999869, 35.65 ], [ 128.049999999999869, 35.55 ], [ 128.149999999999892, 35.55 ] ] ] } },
{ "type": "Feature", "properties": { "sigma_nT": 192.0, "sigma_obs": 1, "spacing_req": 29.0, "spacing_now": 44.5, "deficit": 1.53, "sp_tier": "dense", "df_tier": "short" }, "geometry": { "type": "Polygon", "coordinates": [ [ [ 128.249999999999886, 35.55 ], [ 128.249999999999886, 35.65 ], [ 128.149999999999864, 35.65 ], [ 128.149999999999864, 35.55 ], [ 128.249999999999886, 35.55 ] ] ] } },
{ "type": "Feature", "properties": { "sigma_nT": 182.0, "sigma_obs": 1, "spacing_req": 29.8, "spacing_now": 48.0, "deficit": 1.61, "sp_tier": "dense", "df_tier": "short" }, "geometry": { "type": "Polygon", "coordinates": [ [ [ 128.349999999999881, 35.55 ], [ 128.349999999999881, 35.65 ], [ 128.249999999999858, 35.65 ], [ 128.249999999999858, 35.55 ], [ 128.349999999999881, 35.55 ] ] ] } },
{ "type": "Feature", "properties": { "sigma_nT": 186.0, "sigma_obs": 1, "spacing_req": 29.5, "spacing_now": 54.7, "deficit": 1.86, "sp_tier": "dense", "df_tier": "short" }, "geometry": { "type": "Polygon", "coordinates": [ [ [ 128.749999999999858, 35.55 ], [ 128.749999999999858, 35.65 ], [ 128.649999999999835, 35.65 ], [ 128.649999999999835, 35.55 ], [ 128.749999999999858, 35.55 ] ] ] } },
{ "type": "Feature", "properties": { "sigma_nT": 179.0, "sigma_obs": 1, "spacing_req": 30.0, "spacing_now": 50.3, "deficit": 1.67, "sp_tier": "dense", "df_tier": "short" }, "geometry": { "type": "Polygon", "coordinates": [ [ [ 128.849999999999852, 35.55 ], [ 128.849999999999852, 35.65 ], [ 128.749999999999829, 35.65 ], [ 128.749999999999829, 35.55 ], [ 128.849999999999852, 35.55 ] ] ] } },
{ "type": "Feature", "properties": { "sigma_nT": 109.0, "sigma_obs": 1, "spacing_req": 38.5, "spacing_now": 59.5, "deficit": 1.54, "sp_tier": "mid", "df_tier": "short" }, "geometry": { "type": "Polygon", "coordinates": [ [ [ 129.549999999999812, 35.55 ], [ 129.549999999999812, 35.65 ], [ 129.44999999999979, 35.65 ], [ 129.44999999999979, 35.55 ], [ 129.549999999999812, 35.55 ] ] ] } },
{ "type": "Feature", "properties": { "sigma_nT": 112.0, "sigma_obs": 1, "spacing_req": 37.9, "spacing_now": 57.0, "deficit": 1.5, "sp_tier": "mid", "df_tier": "short" }, "geometry": { "type": "Polygon", "coordinates": [ [ [ 127.05, 35.65 ], [ 127.05, 35.75 ], [ 126.95, 35.75 ], [ 126.95, 35.65 ], [ 127.05, 35.65 ] ] ] } },
{ "type": "Feature", "properties": { "sigma_nT": 111.0, "sigma_obs": 1, "spacing_req": 38.2, "spacing_now": 73.8, "deficit": 1.93, "sp_tier": "mid", "df_tier": "short" }, "geometry": { "type": "Polygon", "coordinates": [ [ [ 127.15, 35.65 ], [ 127.15, 35.75 ], [ 127.05, 35.75 ], [ 127.05, 35.65 ], [ 127.15, 35.65 ] ] ] } },
{ "type": "Feature", "properties": { "sigma_nT": 88.0, "sigma_obs": 1, "spacing_req": 42.9, "spacing_now": 68.0, "deficit": 1.59, "sp_tier": "mid", "df_tier": "short" }, "geometry": { "type": "Polygon", "coordinates": [ [ [ 127.35, 35.65 ], [ 127.35, 35.75 ], [ 127.25, 35.75 ], [ 127.25, 35.65 ], [ 127.35, 35.65 ] ] ] } },
{ "type": "Feature", "properties": { "sigma_nT": 179.0, "sigma_obs": 1, "spacing_req": 30.1, "spacing_now": 56.6, "deficit": 1.88, "sp_tier": "dense", "df_tier": "short" }, "geometry": { "type": "Polygon", "coordinates": [ [ [ 127.949999999999889, 35.65 ], [ 127.949999999999889, 35.75 ], [ 127.849999999999895, 35.75 ], [ 127.849999999999895, 35.65 ], [ 127.949999999999889, 35.65 ] ] ] } },
{ "type": "Feature", "properties": { "sigma_nT": 157.0, "sigma_obs": 1, "spacing_req": 32.1, "spacing_now": 58.6, "deficit": 1.82, "sp_tier": "dense", "df_tier": "short" }, "geometry": { "type": "Polygon", "coordinates": [ [ [ 128.549999999999869, 35.65 ], [ 128.549999999999869, 35.75 ], [ 128.449999999999847, 35.75 ], [ 128.449999999999847, 35.65 ], [ 128.549999999999869, 35.65 ] ] ] } },
{ "type": "Feature", "properties": { "sigma_nT": 171.0, "sigma_obs": 1, "spacing_req": 30.7, "spacing_now": 49.3, "deficit": 1.6, "sp_tier": "dense", "df_tier": "short" }, "geometry": { "type": "Polygon", "coordinates": [ [ [ 128.749999999999858, 35.65 ], [ 128.749999999999858, 35.75 ], [ 128.649999999999835, 35.75 ], [ 128.649999999999835, 35.65 ], [ 128.749999999999858, 35.65 ] ] ] } },
{ "type": "Feature", "properties": { "sigma_nT": 78.0, "sigma_obs": 1, "spacing_req": 45.5, "spacing_now": 69.6, "deficit": 1.53, "sp_tier": "mid", "df_tier": "short" }, "geometry": { "type": "Polygon", "coordinates": [ [ [ 127.05, 35.75 ], [ 127.05, 35.85 ], [ 126.95, 35.85 ], [ 126.95, 35.75 ], [ 127.05, 35.75 ] ] ] } },
{ "type": "Feature", "properties": { "sigma_nT": 79.0, "sigma_obs": 1, "spacing_req": 45.2, "spacing_now": 83.8, "deficit": 1.85, "sp_tier": "mid", "df_tier": "short" }, "geometry": { "type": "Polygon", "coordinates": [ [ [ 127.15, 35.75 ], [ 127.15, 35.85 ], [ 127.05, 35.85 ], [ 127.05, 35.75 ], [ 127.15, 35.75 ] ] ] } },
{ "type": "Feature", "properties": { "sigma_nT": 73.0, "sigma_obs": 1, "spacing_req": 47.0, "spacing_now": 81.6, "deficit": 1.74, "sp_tier": "mid", "df_tier": "short" }, "geometry": { "type": "Polygon", "coordinates": [ [ [ 127.35, 35.75 ], [ 127.35, 35.85 ], [ 127.25, 35.85 ], [ 127.25, 35.75 ], [ 127.35, 35.75 ] ] ] } },
{ "type": "Feature", "properties": { "sigma_nT": 113.0, "sigma_obs": 1, "spacing_req": 37.8, "spacing_now": 62.6, "deficit": 1.65, "sp_tier": "mid", "df_tier": "short" }, "geometry": { "type": "Polygon", "coordinates": [ [ [ 127.849999999999895, 35.75 ], [ 127.849999999999895, 35.85 ], [ 127.75, 35.85 ], [ 127.75, 35.75 ], [ 127.849999999999895, 35.75 ] ] ] } },
{ "type": "Feature", "properties": { "sigma_nT": 137.0, "sigma_obs": 1, "spacing_req": 34.3, "spacing_now": 51.9, "deficit": 1.51, "sp_tier": "dense", "df_tier": "short" }, "geometry": { "type": "Polygon", "coordinates": [ [ [ 127.949999999999889, 35.75 ], [ 127.949999999999889, 35.85 ], [ 127.849999999999895, 35.85 ], [ 127.849999999999895, 35.75 ], [ 127.949999999999889, 35.75 ] ] ] } },
{ "type": "Feature", "properties": { "sigma_nT": 171.0, "sigma_obs": 1, "spacing_req": 30.8, "spacing_now": 56.4, "deficit": 1.83, "sp_tier": "dense", "df_tier": "short" }, "geometry": { "type": "Polygon", "coordinates": [ [ [ 128.549999999999869, 35.75 ], [ 128.549999999999869, 35.85 ], [ 128.449999999999847, 35.85 ], [ 128.449999999999847, 35.75 ], [ 128.549999999999869, 35.75 ] ] ] } },
{ "type": "Feature", "properties": { "sigma_nT": 181.0, "sigma_obs": 1, "spacing_req": 29.9, "spacing_now": 44.9, "deficit": 1.5, "sp_tier": "dense", "df_tier": "short" }, "geometry": { "type": "Polygon", "coordinates": [ [ [ 128.749999999999858, 35.75 ], [ 128.749999999999858, 35.85 ], [ 128.649999999999835, 35.85 ], [ 128.649999999999835, 35.75 ], [ 128.749999999999858, 35.75 ] ] ] } },
{ "type": "Feature", "properties": { "sigma_nT": 105.0, "sigma_obs": 1, "spacing_req": 39.3, "spacing_now": 63.6, "deficit": 1.62, "sp_tier": "mid", "df_tier": "short" }, "geometry": { "type": "Polygon", "coordinates": [ [ [ 129.549999999999812, 35.75 ], [ 129.549999999999812, 35.85 ], [ 129.44999999999979, 35.85 ], [ 129.44999999999979, 35.75 ], [ 129.549999999999812, 35.75 ] ] ] } },
{ "type": "Feature", "properties": { "sigma_nT": 76.0, "sigma_obs": 1, "spacing_req": 46.0, "spacing_now": 69.1, "deficit": 1.5, "sp_tier": "mid", "df_tier": "short" }, "geometry": { "type": "Polygon", "coordinates": [ [ [ 126.75, 35.85 ], [ 126.75, 35.95 ], [ 126.65, 35.95 ], [ 126.65, 35.85 ], [ 126.75, 35.85 ] ] ] } },
{ "type": "Feature", "properties": { "sigma_nT": 76.0, "sigma_obs": 1, "spacing_req": 46.2, "spacing_now": 70.7, "deficit": 1.53, "sp_tier": "mid", "df_tier": "short" }, "geometry": { "type": "Polygon", "coordinates": [ [ [ 126.85, 35.85 ], [ 126.85, 35.95 ], [ 126.75, 35.95 ], [ 126.75, 35.85 ], [ 126.85, 35.85 ] ] ] } },
{ "type": "Feature", "properties": { "sigma_nT": 74.0, "sigma_obs": 1, "spacing_req": 46.8, "spacing_now": 76.6, "deficit": 1.64, "sp_tier": "mid", "df_tier": "short" }, "geometry": { "type": "Polygon", "coordinates": [ [ [ 126.95, 35.85 ], [ 126.95, 35.95 ], [ 126.85, 35.95 ], [ 126.85, 35.85 ], [ 126.95, 35.85 ] ] ] } },
{ "type": "Feature", "properties": { "sigma_nT": 68.0, "sigma_obs": 1, "spacing_req": 48.6, "spacing_now": 86.0, "deficit": 1.77, "sp_tier": "mid", "df_tier": "short" }, "geometry": { "type": "Polygon", "coordinates": [ [ [ 127.05, 35.85 ], [ 127.05, 35.95 ], [ 126.95, 35.95 ], [ 126.95, 35.85 ], [ 127.05, 35.85 ] ] ] } },
{ "type": "Feature", "properties": { "sigma_nT": 68.0, "sigma_obs": 1, "spacing_req": 48.8, "spacing_now": 81.3, "deficit": 1.67, "sp_tier": "mid", "df_tier": "short" }, "geometry": { "type": "Polygon", "coordinates": [ [ [ 127.35, 35.85 ], [ 127.35, 35.95 ], [ 127.25, 35.95 ], [ 127.25, 35.85 ], [ 127.35, 35.85 ] ] ] } },
{ "type": "Feature", "properties": { "sigma_nT": 157.0, "sigma_obs": 1, "spacing_req": 32.1, "spacing_now": 60.5, "deficit": 1.88, "sp_tier": "dense", "df_tier": "short" }, "geometry": { "type": "Polygon", "coordinates": [ [ [ 128.549999999999869, 35.85 ], [ 128.549999999999869, 35.95 ], [ 128.449999999999847, 35.95 ], [ 128.449999999999847, 35.85 ], [ 128.549999999999869, 35.85 ] ] ] } },
{ "type": "Feature", "properties": { "sigma_nT": 177.0, "sigma_obs": 1, "spacing_req": 30.2, "spacing_now": 50.8, "deficit": 1.68, "sp_tier": "dense", "df_tier": "short" }, "geometry": { "type": "Polygon", "coordinates": [ [ [ 128.749999999999858, 35.85 ], [ 128.749999999999858, 35.95 ], [ 128.649999999999835, 35.95 ], [ 128.649999999999835, 35.85 ], [ 128.749999999999858, 35.85 ] ] ] } },
{ "type": "Feature", "properties": { "sigma_nT": 112.0, "sigma_obs": 1, "spacing_req": 38.0, "spacing_now": 61.9, "deficit": 1.63, "sp_tier": "mid", "df_tier": "short" }, "geometry": { "type": "Polygon", "coordinates": [ [ [ 129.549999999999812, 35.85 ], [ 129.549999999999812, 35.95 ], [ 129.44999999999979, 35.95 ], [ 129.44999999999979, 35.85 ], [ 129.549999999999812, 35.85 ] ] ] } },
{ "type": "Feature", "properties": { "sigma_nT": 63.0, "sigma_obs": 1, "spacing_req": 50.7, "spacing_now": 91.2, "deficit": 1.8, "sp_tier": "coarse", "df_tier": "short" }, "geometry": { "type": "Polygon", "coordinates": [ [ [ 126.75, 35.95 ], [ 126.75, 36.05 ], [ 126.65, 36.05 ], [ 126.65, 35.95 ], [ 126.75, 35.95 ] ] ] } },
{ "type": "Feature", "properties": { "sigma_nT": 63.0, "sigma_obs": 1, "spacing_req": 50.6, "spacing_now": 92.4, "deficit": 1.83, "sp_tier": "coarse", "df_tier": "short" }, "geometry": { "type": "Polygon", "coordinates": [ [ [ 126.85, 35.95 ], [ 126.85, 36.05 ], [ 126.75, 36.05 ], [ 126.75, 35.95 ], [ 126.85, 35.95 ] ] ] } },
{ "type": "Feature", "properties": { "sigma_nT": 62.0, "sigma_obs": 1, "spacing_req": 50.9, "spacing_now": 97.0, "deficit": 1.91, "sp_tier": "coarse", "df_tier": "short" }, "geometry": { "type": "Polygon", "coordinates": [ [ [ 126.95, 35.95 ], [ 126.95, 36.05 ], [ 126.85, 36.05 ], [ 126.85, 35.95 ], [ 126.95, 35.95 ] ] ] } },
{ "type": "Feature", "properties": { "sigma_nT": 64.0, "sigma_obs": 1, "spacing_req": 50.1, "spacing_now": 96.8, "deficit": 1.93, "sp_tier": "coarse", "df_tier": "short" }, "geometry": { "type": "Polygon", "coordinates": [ [ [ 127.05, 35.95 ], [ 127.05, 36.05 ], [ 126.95, 36.05 ], [ 126.95, 35.95 ], [ 127.05, 35.95 ] ] ] } },
{ "type": "Feature", "properties": { "sigma_nT": 70.0, "sigma_obs": 1, "spacing_req": 48.1, "spacing_now": 91.3, "deficit": 1.9, "sp_tier": "mid", "df_tier": "short" }, "geometry": { "type": "Polygon", "coordinates": [ [ [ 127.25, 35.95 ], [ 127.25, 36.05 ], [ 127.15, 36.05 ], [ 127.15, 35.95 ], [ 127.25, 35.95 ] ] ] } },
{ "type": "Feature", "properties": { "sigma_nT": 67.0, "sigma_obs": 1, "spacing_req": 49.0, "spacing_now": 73.7, "deficit": 1.5, "sp_tier": "mid", "df_tier": "short" }, "geometry": { "type": "Polygon", "coordinates": [ [ [ 127.35, 35.95 ], [ 127.35, 36.05 ], [ 127.25, 36.05 ], [ 127.25, 35.95 ], [ 127.35, 35.95 ] ] ] } },
{ "type": "Feature", "properties": { "sigma_nT": 130.0, "sigma_obs": 1, "spacing_req": 35.2, "spacing_now": 58.4, "deficit": 1.66, "sp_tier": "mid", "df_tier": "short" }, "geometry": { "type": "Polygon", "coordinates": [ [ [ 128.449999999999875, 35.95 ], [ 128.449999999999875, 36.05 ], [ 128.349999999999852, 36.05 ], [ 128.349999999999852, 35.95 ], [ 128.449999999999875, 35.95 ] ] ] } },
{ "type": "Feature", "properties": { "sigma_nT": 162.0, "sigma_obs": 1, "spacing_req": 31.6, "spacing_now": 53.2, "deficit": 1.69, "sp_tier": "dense", "df_tier": "short" }, "geometry": { "type": "Polygon", "coordinates": [ [ [ 128.849999999999852, 35.95 ], [ 128.849999999999852, 36.05 ], [ 128.749999999999829, 36.05 ], [ 128.749999999999829, 35.95 ], [ 128.849999999999852, 35.95 ] ] ] } },
{ "type": "Feature", "properties": { "sigma_nT": 123.0, "sigma_obs": 1, "spacing_req": 36.2, "spacing_now": 64.6, "deficit": 1.78, "sp_tier": "mid", "df_tier": "short" }, "geometry": { "type": "Polygon", "coordinates": [ [ [ 129.549999999999812, 35.95 ], [ 129.549999999999812, 36.05 ], [ 129.44999999999979, 36.05 ], [ 129.44999999999979, 35.95 ], [ 129.549999999999812, 35.95 ] ] ] } },
{ "type": "Feature", "properties": { "sigma_nT": 58.0, "sigma_obs": 1, "spacing_req": 52.6, "spacing_now": 104.6, "deficit": 1.99, "sp_tier": "coarse", "df_tier": "short" }, "geometry": { "type": "Polygon", "coordinates": [ [ [ 126.65, 36.05 ], [ 126.65, 36.15 ], [ 126.55, 36.15 ], [ 126.55, 36.05 ], [ 126.65, 36.05 ] ] ] } },
{ "type": "Feature", "properties": { "sigma_nT": 56.0, "sigma_obs": 1, "spacing_req": 53.9, "spacing_now": 92.9, "deficit": 1.72, "sp_tier": "coarse", "df_tier": "short" }, "geometry": { "type": "Polygon", "coordinates": [ [ [ 126.75, 36.05 ], [ 126.75, 36.15 ], [ 126.65, 36.15 ], [ 126.65, 36.05 ], [ 126.75, 36.05 ] ] ] } },
{ "type": "Feature", "properties": { "sigma_nT": 57.0, "sigma_obs": 1, "spacing_req": 53.3, "spacing_now": 83.5, "deficit": 1.57, "sp_tier": "coarse", "df_tier": "short" }, "geometry": { "type": "Polygon", "coordinates": [ [ [ 126.85, 36.05 ], [ 126.85, 36.15 ], [ 126.75, 36.15 ], [ 126.75, 36.05 ], [ 126.85, 36.05 ] ] ] } },
{ "type": "Feature", "properties": { "sigma_nT": 61.0, "sigma_obs": 1, "spacing_req": 51.4, "spacing_now": 82.2, "deficit": 1.6, "sp_tier": "coarse", "df_tier": "short" }, "geometry": { "type": "Polygon", "coordinates": [ [ [ 127.25, 36.05 ], [ 127.25, 36.15 ], [ 127.15, 36.15 ], [ 127.15, 36.05 ], [ 127.25, 36.05 ] ] ] } },
{ "type": "Feature", "properties": { "sigma_nT": 101.0, "sigma_obs": 1, "spacing_req": 40.0, "spacing_now": 65.9, "deficit": 1.65, "sp_tier": "mid", "df_tier": "short" }, "geometry": { "type": "Polygon", "coordinates": [ [ [ 128.349999999999881, 36.05 ], [ 128.349999999999881, 36.15 ], [ 128.249999999999858, 36.15 ], [ 128.249999999999858, 36.05 ], [ 128.349999999999881, 36.05 ] ] ] } },
{ "type": "Feature", "properties": { "sigma_nT": 169.0, "sigma_obs": 1, "spacing_req": 30.9, "spacing_now": 61.8, "deficit": 2.0, "sp_tier": "dense", "df_tier": "short" }, "geometry": { "type": "Polygon", "coordinates": [ [ [ 128.949999999999847, 36.05 ], [ 128.949999999999847, 36.15 ], [ 128.849999999999824, 36.15 ], [ 128.849999999999824, 36.05 ], [ 128.949999999999847, 36.05 ] ] ] } },
{ "type": "Feature", "properties": { "sigma_nT": 163.0, "sigma_obs": 1, "spacing_req": 31.4, "spacing_now": 49.7, "deficit": 1.58, "sp_tier": "dense", "df_tier": "short" }, "geometry": { "type": "Polygon", "coordinates": [ [ [ 129.049999999999841, 36.05 ], [ 129.049999999999841, 36.15 ], [ 128.949999999999818, 36.15 ], [ 128.949999999999818, 36.05 ], [ 129.049999999999841, 36.05 ] ] ] } },
{ "type": "Feature", "properties": { "sigma_nT": 136.0, "sigma_obs": 1, "spacing_req": 34.5, "spacing_now": 59.8, "deficit": 1.74, "sp_tier": "dense", "df_tier": "short" }, "geometry": { "type": "Polygon", "coordinates": [ [ [ 129.449999999999818, 36.05 ], [ 129.449999999999818, 36.15 ], [ 129.349999999999795, 36.15 ], [ 129.349999999999795, 36.05 ], [ 129.449999999999818, 36.05 ] ] ] } },
{ "type": "Feature", "properties": { "sigma_nT": 58.0, "sigma_obs": 1, "spacing_req": 52.7, "spacing_now": 105.2, "deficit": 2.0, "sp_tier": "coarse", "df_tier": "short" }, "geometry": { "type": "Polygon", "coordinates": [ [ [ 126.55, 36.15 ], [ 126.55, 36.25 ], [ 126.45, 36.25 ], [ 126.45, 36.15 ], [ 126.55, 36.15 ] ] ] } },
{ "type": "Feature", "properties": { "sigma_nT": 48.0, "sigma_obs": 1, "spacing_req": 57.8, "spacing_now": 90.1, "deficit": 1.56, "sp_tier": "coarse", "df_tier": "short" }, "geometry": { "type": "Polygon", "coordinates": [ [ [ 126.65, 36.15 ], [ 126.65, 36.25 ], [ 126.55, 36.25 ], [ 126.55, 36.15 ], [ 126.65, 36.15 ] ] ] } },
{ "type": "Feature", "properties": { "sigma_nT": 96.0, "sigma_obs": 1, "spacing_req": 40.9, "spacing_now": 62.3, "deficit": 1.52, "sp_tier": "mid", "df_tier": "short" }, "geometry": { "type": "Polygon", "coordinates": [ [ [ 128.449999999999875, 36.15 ], [ 128.449999999999875, 36.25 ], [ 128.349999999999852, 36.25 ], [ 128.349999999999852, 36.15 ], [ 128.449999999999875, 36.15 ] ] ] } },
{ "type": "Feature", "properties": { "sigma_nT": 100.0, "sigma_obs": 1, "spacing_req": 40.2, "spacing_now": 77.9, "deficit": 1.94, "sp_tier": "mid", "df_tier": "short" }, "geometry": { "type": "Polygon", "coordinates": [ [ [ 128.549999999999869, 36.15 ], [ 128.549999999999869, 36.25 ], [ 128.449999999999847, 36.25 ], [ 128.449999999999847, 36.15 ], [ 128.549999999999869, 36.15 ] ] ] } },
{ "type": "Feature", "properties": { "sigma_nT": 133.0, "sigma_obs": 1, "spacing_req": 34.9, "spacing_now": 62.1, "deficit": 1.78, "sp_tier": "dense", "df_tier": "short" }, "geometry": { "type": "Polygon", "coordinates": [ [ [ 128.849999999999852, 36.15 ], [ 128.849999999999852, 36.25 ], [ 128.749999999999829, 36.25 ], [ 128.749999999999829, 36.15 ], [ 128.849999999999852, 36.15 ] ] ] } },
{ "type": "Feature", "properties": { "sigma_nT": 153.0, "sigma_obs": 1, "spacing_req": 32.5, "spacing_now": 49.0, "deficit": 1.51, "sp_tier": "dense", "df_tier": "short" }, "geometry": { "type": "Polygon", "coordinates": [ [ [ 128.949999999999847, 36.15 ], [ 128.949999999999847, 36.25 ], [ 128.849999999999824, 36.25 ], [ 128.849999999999824, 36.15 ], [ 128.949999999999847, 36.15 ] ] ] } },
{ "type": "Feature", "properties": { "sigma_nT": 149.0, "sigma_obs": 1, "spacing_req": 33.0, "spacing_now": 55.1, "deficit": 1.67, "sp_tier": "dense", "df_tier": "short" }, "geometry": { "type": "Polygon", "coordinates": [ [ [ 129.349999999999824, 36.15 ], [ 129.349999999999824, 36.25 ], [ 129.249999999999801, 36.25 ], [ 129.249999999999801, 36.15 ], [ 129.349999999999824, 36.15 ] ] ] } },
{ "type": "Feature", "properties": { "sigma_nT": 42.0, "sigma_obs": 1, "spacing_req": 61.9, "spacing_now": 96.0, "deficit": 1.55, "sp_tier": "coarse", "df_tier": "short" }, "geometry": { "type": "Polygon", "coordinates": [ [ [ 126.55, 36.25 ], [ 126.55, 36.35 ], [ 126.45, 36.35 ], [ 126.45, 36.25 ], [ 126.55, 36.25 ] ] ] } },
{ "type": "Feature", "properties": { "sigma_nT": 78.0, "sigma_obs": 1, "spacing_req": 45.4, "spacing_now": 70.9, "deficit": 1.56, "sp_tier": "mid", "df_tier": "short" }, "geometry": { "type": "Polygon", "coordinates": [ [ [ 128.549999999999869, 36.25 ], [ 128.549999999999869, 36.35 ], [ 128.449999999999847, 36.35 ], [ 128.449999999999847, 36.25 ], [ 128.549999999999869, 36.25 ] ] ] } },
{ "type": "Feature", "properties": { "sigma_nT": 112.0, "sigma_obs": 1, "spacing_req": 38.0, "spacing_now": 69.1, "deficit": 1.82, "sp_tier": "mid", "df_tier": "short" }, "geometry": { "type": "Polygon", "coordinates": [ [ [ 128.749999999999858, 36.25 ], [ 128.749999999999858, 36.35 ], [ 128.649999999999835, 36.35 ], [ 128.649999999999835, 36.25 ], [ 128.749999999999858, 36.25 ] ] ] } },
{ "type": "Feature", "properties": { "sigma_nT": 132.0, "sigma_obs": 1, "spacing_req": 35.0, "spacing_now": 60.2, "deficit": 1.72, "sp_tier": "dense", "df_tier": "short" }, "geometry": { "type": "Polygon", "coordinates": [ [ [ 129.449999999999818, 36.25 ], [ 129.449999999999818, 36.35 ], [ 129.349999999999795, 36.35 ], [ 129.349999999999795, 36.25 ], [ 129.449999999999818, 36.25 ] ] ] } },
{ "type": "Feature", "properties": { "sigma_nT": 53.0, "sigma_obs": 1, "spacing_req": 55.4, "spacing_now": 91.4, "deficit": 1.65, "sp_tier": "coarse", "df_tier": "short" }, "geometry": { "type": "Polygon", "coordinates": [ [ [ 126.55, 36.35 ], [ 126.55, 36.45 ], [ 126.45, 36.45 ], [ 126.45, 36.35 ], [ 126.55, 36.35 ] ] ] } },
{ "type": "Feature", "properties": { "sigma_nT": 85.0, "sigma_obs": 1, "spacing_req": 43.5, "spacing_now": 73.5, "deficit": 1.69, "sp_tier": "mid", "df_tier": "short" }, "geometry": { "type": "Polygon", "coordinates": [ [ [ 127.55, 36.35 ], [ 127.55, 36.45 ], [ 127.45, 36.45 ], [ 127.45, 36.35 ], [ 127.55, 36.35 ] ] ] } },
{ "type": "Feature", "properties": { "sigma_nT": 91.0, "sigma_obs": 1, "spacing_req": 42.2, "spacing_now": 71.9, "deficit": 1.7, "sp_tier": "mid", "df_tier": "short" }, "geometry": { "type": "Polygon", "coordinates": [ [ [ 127.65, 36.35 ], [ 127.65, 36.45 ], [ 127.55, 36.45 ], [ 127.55, 36.35 ], [ 127.65, 36.35 ] ] ] } },
{ "type": "Feature", "properties": { "sigma_nT": 92.0, "sigma_obs": 1, "spacing_req": 41.9, "spacing_now": 72.8, "deficit": 1.74, "sp_tier": "mid", "df_tier": "short" }, "geometry": { "type": "Polygon", "coordinates": [ [ [ 127.75, 36.35 ], [ 127.75, 36.45 ], [ 127.65, 36.45 ], [ 127.65, 36.35 ], [ 127.75, 36.35 ] ] ] } },
{ "type": "Feature", "properties": { "sigma_nT": 99.0, "sigma_obs": 1, "spacing_req": 40.4, "spacing_now": 67.6, "deficit": 1.67, "sp_tier": "mid", "df_tier": "short" }, "geometry": { "type": "Polygon", "coordinates": [ [ [ 128.749999999999858, 36.35 ], [ 128.749999999999858, 36.45 ], [ 128.649999999999835, 36.45 ], [ 128.649999999999835, 36.35 ], [ 128.749999999999858, 36.35 ] ] ] } },
{ "type": "Feature", "properties": { "sigma_nT": 134.0, "sigma_obs": 1, "spacing_req": 34.7, "spacing_now": 58.5, "deficit": 1.69, "sp_tier": "dense", "df_tier": "short" }, "geometry": { "type": "Polygon", "coordinates": [ [ [ 129.449999999999818, 36.35 ], [ 129.449999999999818, 36.45 ], [ 129.349999999999795, 36.45 ], [ 129.349999999999795, 36.35 ], [ 129.449999999999818, 36.35 ] ] ] } },
{ "type": "Feature", "properties": { "sigma_nT": 63.0, "sigma_obs": 1, "spacing_req": 50.8, "spacing_now": 92.0, "deficit": 1.81, "sp_tier": "coarse", "df_tier": "short" }, "geometry": { "type": "Polygon", "coordinates": [ [ [ 126.55, 36.45 ], [ 126.55, 36.55 ], [ 126.45, 36.55 ], [ 126.45, 36.45 ], [ 126.55, 36.45 ] ] ] } },
{ "type": "Feature", "properties": { "sigma_nT": 67.0, "sigma_obs": 1, "spacing_req": 49.2, "spacing_now": 89.9, "deficit": 1.83, "sp_tier": "mid", "df_tier": "short" }, "geometry": { "type": "Polygon", "coordinates": [ [ [ 128.649999999999864, 36.45 ], [ 128.649999999999864, 36.55 ], [ 128.549999999999841, 36.55 ], [ 128.549999999999841, 36.45 ], [ 128.649999999999864, 36.45 ] ] ] } },
{ "type": "Feature", "properties": { "sigma_nT": 77.0, "sigma_obs": 1, "spacing_req": 45.8, "spacing_now": 73.2, "deficit": 1.6, "sp_tier": "mid", "df_tier": "short" }, "geometry": { "type": "Polygon", "coordinates": [ [ [ 128.749999999999858, 36.45 ], [ 128.749999999999858, 36.55 ], [ 128.649999999999835, 36.55 ], [ 128.649999999999835, 36.45 ], [ 128.749999999999858, 36.45 ] ] ] } },
{ "type": "Feature", "properties": { "sigma_nT": 131.0, "sigma_obs": 1, "spacing_req": 35.1, "spacing_now": 64.9, "deficit": 1.85, "sp_tier": "mid", "df_tier": "short" }, "geometry": { "type": "Polygon", "coordinates": [ [ [ 129.449999999999818, 36.45 ], [ 129.449999999999818, 36.55 ], [ 129.349999999999795, 36.55 ], [ 129.349999999999795, 36.45 ], [ 129.449999999999818, 36.45 ] ] ] } },
{ "type": "Feature", "properties": { "sigma_nT": 68.0, "sigma_obs": 1, "spacing_req": 48.7, "spacing_now": 81.4, "deficit": 1.67, "sp_tier": "mid", "df_tier": "short" }, "geometry": { "type": "Polygon", "coordinates": [ [ [ 126.65, 36.55 ], [ 126.65, 36.65 ], [ 126.55, 36.65 ], [ 126.55, 36.55 ], [ 126.65, 36.55 ] ] ] } },
{ "type": "Feature", "properties": { "sigma_nT": 105.0, "sigma_obs": 1, "spacing_req": 39.3, "spacing_now": 62.5, "deficit": 1.59, "sp_tier": "mid", "df_tier": "short" }, "geometry": { "type": "Polygon", "coordinates": [ [ [ 127.949999999999889, 36.55 ], [ 127.949999999999889, 36.65 ], [ 127.849999999999895, 36.65 ], [ 127.849999999999895, 36.55 ], [ 127.949999999999889, 36.55 ] ] ] } },
{ "type": "Feature", "properties": { "sigma_nT": 60.0, "sigma_obs": 1, "spacing_req": 51.7, "spacing_now": 88.3, "deficit": 1.71, "sp_tier": "coarse", "df_tier": "short" }, "geometry": { "type": "Polygon", "coordinates": [ [ [ 128.549999999999869, 36.55 ], [ 128.549999999999869, 36.65 ], [ 128.449999999999847, 36.65 ], [ 128.449999999999847, 36.55 ], [ 128.549999999999869, 36.55 ] ] ] } },
{ "type": "Feature", "properties": { "sigma_nT": 70.0, "sigma_obs": 1, "spacing_req": 47.9, "spacing_now": 86.4, "deficit": 1.8, "sp_tier": "mid", "df_tier": "short" }, "geometry": { "type": "Polygon", "coordinates": [ [ [ 128.649999999999864, 36.55 ], [ 128.649999999999864, 36.65 ], [ 128.549999999999841, 36.65 ], [ 128.549999999999841, 36.55 ], [ 128.649999999999864, 36.55 ] ] ] } },
{ "type": "Feature", "properties": { "sigma_nT": 78.0, "sigma_obs": 1, "spacing_req": 45.6, "spacing_now": 78.3, "deficit": 1.72, "sp_tier": "mid", "df_tier": "short" }, "geometry": { "type": "Polygon", "coordinates": [ [ [ 128.749999999999858, 36.55 ], [ 128.749999999999858, 36.65 ], [ 128.649999999999835, 36.65 ], [ 128.649999999999835, 36.55 ], [ 128.749999999999858, 36.55 ] ] ] } },
{ "type": "Feature", "properties": { "sigma_nT": 85.0, "sigma_obs": 1, "spacing_req": 43.6, "spacing_now": 70.9, "deficit": 1.63, "sp_tier": "mid", "df_tier": "short" }, "geometry": { "type": "Polygon", "coordinates": [ [ [ 128.849999999999852, 36.55 ], [ 128.849999999999852, 36.65 ], [ 128.749999999999829, 36.65 ], [ 128.749999999999829, 36.55 ], [ 128.849999999999852, 36.55 ] ] ] } },
{ "type": "Feature", "properties": { "sigma_nT": 94.0, "sigma_obs": 1, "spacing_req": 41.4, "spacing_now": 64.9, "deficit": 1.57, "sp_tier": "mid", "df_tier": "short" }, "geometry": { "type": "Polygon", "coordinates": [ [ [ 129.349999999999824, 36.55 ], [ 129.349999999999824, 36.65 ], [ 129.249999999999801, 36.65 ], [ 129.249999999999801, 36.55 ], [ 129.349999999999824, 36.55 ] ] ] } },
{ "type": "Feature", "properties": { "sigma_nT": 93.0, "sigma_obs": 1, "spacing_req": 41.8, "spacing_now": 77.2, "deficit": 1.85, "sp_tier": "mid", "df_tier": "short" }, "geometry": { "type": "Polygon", "coordinates": [ [ [ 129.449999999999818, 36.55 ], [ 129.449999999999818, 36.65 ], [ 129.349999999999795, 36.65 ], [ 129.349999999999795, 36.55 ], [ 129.449999999999818, 36.55 ] ] ] } },
{ "type": "Feature", "properties": { "sigma_nT": 71.0, "sigma_obs": 1, "spacing_req": 47.6, "spacing_now": 93.2, "deficit": 1.96, "sp_tier": "mid", "df_tier": "short" }, "geometry": { "type": "Polygon", "coordinates": [ [ [ 126.65, 36.65 ], [ 126.65, 36.75 ], [ 126.55, 36.75 ], [ 126.55, 36.65 ], [ 126.65, 36.65 ] ] ] } },
{ "type": "Feature", "properties": { "sigma_nT": 66.0, "sigma_obs": 1, "spacing_req": 49.5, "spacing_now": 80.0, "deficit": 1.62, "sp_tier": "mid", "df_tier": "short" }, "geometry": { "type": "Polygon", "coordinates": [ [ [ 126.75, 36.65 ], [ 126.75, 36.75 ], [ 126.65, 36.75 ], [ 126.65, 36.65 ], [ 126.75, 36.65 ] ] ] } },
{ "type": "Feature", "properties": { "sigma_nT": 142.0, "sigma_obs": 1, "spacing_req": 33.7, "spacing_now": 56.3, "deficit": 1.67, "sp_tier": "dense", "df_tier": "short" }, "geometry": { "type": "Polygon", "coordinates": [ [ [ 127.949999999999889, 36.65 ], [ 127.949999999999889, 36.75 ], [ 127.849999999999895, 36.75 ], [ 127.849999999999895, 36.65 ], [ 127.949999999999889, 36.65 ] ] ] } },
{ "type": "Feature", "properties": { "sigma_nT": 99.0, "sigma_obs": 1, "spacing_req": 40.3, "spacing_now": 77.9, "deficit": 1.93, "sp_tier": "mid", "df_tier": "short" }, "geometry": { "type": "Polygon", "coordinates": [ [ [ 128.249999999999886, 36.65 ], [ 128.249999999999886, 36.75 ], [ 128.149999999999864, 36.75 ], [ 128.149999999999864, 36.65 ], [ 128.249999999999886, 36.65 ] ] ] } },
{ "type": "Feature", "properties": { "sigma_nT": 57.0, "sigma_obs": 1, "spacing_req": 53.4, "spacing_now": 81.8, "deficit": 1.53, "sp_tier": "coarse", "df_tier": "short" }, "geometry": { "type": "Polygon", "coordinates": [ [ [ 128.549999999999869, 36.65 ], [ 128.549999999999869, 36.75 ], [ 128.449999999999847, 36.75 ], [ 128.449999999999847, 36.65 ], [ 128.549999999999869, 36.65 ] ] ] } },
{ "type": "Feature", "properties": { "sigma_nT": 88.0, "sigma_obs": 1, "spacing_req": 42.9, "spacing_now": 66.5, "deficit": 1.55, "sp_tier": "mid", "df_tier": "short" }, "geometry": { "type": "Polygon", "coordinates": [ [ [ 129.149999999999835, 36.65 ], [ 129.149999999999835, 36.75 ], [ 129.049999999999812, 36.75 ], [ 129.049999999999812, 36.65 ], [ 129.149999999999835, 36.65 ] ] ] } },
{ "type": "Feature", "properties": { "sigma_nT": 84.0, "sigma_obs": 1, "spacing_req": 43.9, "spacing_now": 76.4, "deficit": 1.74, "sp_tier": "mid", "df_tier": "short" }, "geometry": { "type": "Polygon", "coordinates": [ [ [ 129.249999999999829, 36.65 ], [ 129.249999999999829, 36.75 ], [ 129.149999999999807, 36.75 ], [ 129.149999999999807, 36.65 ], [ 129.249999999999829, 36.65 ] ] ] } },
{ "type": "Feature", "properties": { "sigma_nT": 88.0, "sigma_obs": 1, "spacing_req": 42.8, "spacing_now": 83.3, "deficit": 1.95, "sp_tier": "mid", "df_tier": "short" }, "geometry": { "type": "Polygon", "coordinates": [ [ [ 129.349999999999824, 36.65 ], [ 129.349999999999824, 36.75 ], [ 129.249999999999801, 36.75 ], [ 129.249999999999801, 36.65 ], [ 129.349999999999824, 36.65 ] ] ] } },
{ "type": "Feature", "properties": { "sigma_nT": 70.0, "sigma_obs": 1, "spacing_req": 48.1, "spacing_now": 89.1, "deficit": 1.85, "sp_tier": "mid", "df_tier": "short" }, "geometry": { "type": "Polygon", "coordinates": [ [ [ 126.65, 36.75 ], [ 126.65, 36.85 ], [ 126.55, 36.85 ], [ 126.55, 36.75 ], [ 126.65, 36.75 ] ] ] } },
{ "type": "Feature", "properties": { "sigma_nT": 65.0, "sigma_obs": 1, "spacing_req": 50.0, "spacing_now": 79.2, "deficit": 1.58, "sp_tier": "coarse", "df_tier": "short" }, "geometry": { "type": "Polygon", "coordinates": [ [ [ 126.75, 36.75 ], [ 126.75, 36.85 ], [ 126.65, 36.85 ], [ 126.65, 36.75 ], [ 126.75, 36.75 ] ] ] } },
{ "type": "Feature", "properties": { "sigma_nT": 177.0, "sigma_obs": 1, "spacing_req": 30.2, "spacing_now": 58.4, "deficit": 1.93, "sp_tier": "dense", "df_tier": "short" }, "geometry": { "type": "Polygon", "coordinates": [ [ [ 127.949999999999889, 36.75 ], [ 127.949999999999889, 36.85 ], [ 127.849999999999895, 36.85 ], [ 127.849999999999895, 36.75 ], [ 127.949999999999889, 36.75 ] ] ] } },
{ "type": "Feature", "properties": { "sigma_nT": 139.0, "sigma_obs": 1, "spacing_req": 34.1, "spacing_now": 60.7, "deficit": 1.78, "sp_tier": "dense", "df_tier": "short" }, "geometry": { "type": "Polygon", "coordinates": [ [ [ 128.249999999999886, 36.75 ], [ 128.249999999999886, 36.85 ], [ 128.149999999999864, 36.85 ], [ 128.149999999999864, 36.75 ], [ 128.249999999999886, 36.75 ] ] ] } },
{ "type": "Feature", "properties": { "sigma_nT": 86.0, "sigma_obs": 1, "spacing_req": 43.3, "spacing_now": 83.6, "deficit": 1.93, "sp_tier": "mid", "df_tier": "short" }, "geometry": { "type": "Polygon", "coordinates": [ [ [ 129.349999999999824, 36.75 ], [ 129.349999999999824, 36.85 ], [ 129.249999999999801, 36.85 ], [ 129.249999999999801, 36.75 ], [ 129.349999999999824, 36.75 ] ] ] } },
{ "type": "Feature", "properties": { "sigma_nT": 64.0, "sigma_obs": 1, "spacing_req": 50.2, "spacing_now": 87.4, "deficit": 1.74, "sp_tier": "coarse", "df_tier": "short" }, "geometry": { "type": "Polygon", "coordinates": [ [ [ 126.55, 36.85 ], [ 126.55, 36.95 ], [ 126.45, 36.95 ], [ 126.45, 36.85 ], [ 126.55, 36.85 ] ] ] } },
{ "type": "Feature", "properties": { "sigma_nT": 179.0, "sigma_obs": 1, "spacing_req": 30.1, "spacing_now": 54.3, "deficit": 1.81, "sp_tier": "dense", "df_tier": "short" }, "geometry": { "type": "Polygon", "coordinates": [ [ [ 127.849999999999895, 36.85 ], [ 127.849999999999895, 36.95 ], [ 127.75, 36.95 ], [ 127.75, 36.85 ], [ 127.849999999999895, 36.85 ] ] ] } },
{ "type": "Feature", "properties": { "sigma_nT": 180.0, "sigma_obs": 1, "spacing_req": 30.0, "spacing_now": 53.9, "deficit": 1.8, "sp_tier": "dense", "df_tier": "short" }, "geometry": { "type": "Polygon", "coordinates": [ [ [ 128.049999999999898, 36.85 ], [ 128.049999999999898, 36.95 ], [ 127.949999999999889, 36.95 ], [ 127.949999999999889, 36.85 ], [ 128.049999999999898, 36.85 ] ] ] } },
{ "type": "Feature", "properties": { "sigma_nT": 79.0, "sigma_obs": 1, "spacing_req": 45.3, "spacing_now": 78.7, "deficit": 1.74, "sp_tier": "mid", "df_tier": "short" }, "geometry": { "type": "Polygon", "coordinates": [ [ [ 129.349999999999824, 36.85 ], [ 129.349999999999824, 36.95 ], [ 129.249999999999801, 36.95 ], [ 129.249999999999801, 36.85 ], [ 129.349999999999824, 36.85 ] ] ] } },
{ "type": "Feature", "properties": { "sigma_nT": 68.0, "sigma_obs": 1, "spacing_req": 48.9, "spacing_now": 94.6, "deficit": 1.93, "sp_tier": "mid", "df_tier": "short" }, "geometry": { "type": "Polygon", "coordinates": [ [ [ 126.45, 36.95 ], [ 126.45, 37.05 ], [ 126.35, 37.05 ], [ 126.35, 36.95 ], [ 126.45, 36.95 ] ] ] } },
{ "type": "Feature", "properties": { "sigma_nT": 64.0, "sigma_obs": 1, "spacing_req": 50.4, "spacing_now": 77.6, "deficit": 1.54, "sp_tier": "coarse", "df_tier": "short" }, "geometry": { "type": "Polygon", "coordinates": [ [ [ 126.55, 36.95 ], [ 126.55, 37.05 ], [ 126.45, 37.05 ], [ 126.45, 36.95 ], [ 126.55, 36.95 ] ] ] } },
{ "type": "Feature", "properties": { "sigma_nT": 108.0, "sigma_obs": 1, "spacing_req": 38.7, "spacing_now": 60.9, "deficit": 1.57, "sp_tier": "mid", "df_tier": "short" }, "geometry": { "type": "Polygon", "coordinates": [ [ [ 127.65, 36.95 ], [ 127.65, 37.05 ], [ 127.55, 37.05 ], [ 127.55, 36.95 ], [ 127.65, 36.95 ] ] ] } },
{ "type": "Feature", "properties": { "sigma_nT": 180.0, "sigma_obs": 1, "spacing_req": 30.0, "spacing_now": 57.7, "deficit": 1.93, "sp_tier": "dense", "df_tier": "short" }, "geometry": { "type": "Polygon", "coordinates": [ [ [ 127.949999999999889, 36.95 ], [ 127.949999999999889, 37.05 ], [ 127.849999999999895, 37.05 ], [ 127.849999999999895, 36.95 ], [ 127.949999999999889, 36.95 ] ] ] } },
{ "type": "Feature", "properties": { "sigma_nT": 70.0, "sigma_obs": 1, "spacing_req": 48.0, "spacing_now": 79.9, "deficit": 1.66, "sp_tier": "mid", "df_tier": "short" }, "geometry": { "type": "Polygon", "coordinates": [ [ [ 129.349999999999824, 36.95 ], [ 129.349999999999824, 37.05 ], [ 129.249999999999801, 37.05 ], [ 129.249999999999801, 36.95 ], [ 129.349999999999824, 36.95 ] ] ] } },
{ "type": "Feature", "properties": { "sigma_nT": 71.0, "sigma_obs": 1, "spacing_req": 47.8, "spacing_now": 92.0, "deficit": 1.93, "sp_tier": "mid", "df_tier": "short" }, "geometry": { "type": "Polygon", "coordinates": [ [ [ 129.449999999999818, 36.95 ], [ 129.449999999999818, 37.05 ], [ 129.349999999999795, 37.05 ], [ 129.349999999999795, 36.95 ], [ 129.449999999999818, 36.95 ] ] ] } },
{ "type": "Feature", "properties": { "sigma_nT": 71.0, "sigma_obs": 1, "spacing_req": 47.8, "spacing_now": 76.4, "deficit": 1.6, "sp_tier": "mid", "df_tier": "short" }, "geometry": { "type": "Polygon", "coordinates": [ [ [ 127.65, 37.05 ], [ 127.65, 37.15 ], [ 127.55, 37.15 ], [ 127.55, 37.05 ], [ 127.65, 37.05 ] ] ] } },
{ "type": "Feature", "properties": { "sigma_nT": 158.0, "sigma_obs": 1, "spacing_req": 31.9, "spacing_now": 55.6, "deficit": 1.74, "sp_tier": "dense", "df_tier": "short" }, "geometry": { "type": "Polygon", "coordinates": [ [ [ 127.949999999999889, 37.05 ], [ 127.949999999999889, 37.15 ], [ 127.849999999999895, 37.15 ], [ 127.849999999999895, 37.05 ], [ 127.949999999999889, 37.05 ] ] ] } },
{ "type": "Feature", "properties": { "sigma_nT": 86.0, "sigma_obs": 1, "spacing_req": 43.3, "spacing_now": 65.8, "deficit": 1.52, "sp_tier": "mid", "df_tier": "short" }, "geometry": { "type": "Polygon", "coordinates": [ [ [ 127.849999999999895, 37.15 ], [ 127.849999999999895, 37.25 ], [ 127.75, 37.25 ], [ 127.75, 37.15 ], [ 127.849999999999895, 37.15 ] ] ] } },
{ "type": "Feature", "properties": { "sigma_nT": 53.0, "sigma_obs": 1, "spacing_req": 55.3, "spacing_now": 86.6, "deficit": 1.57, "sp_tier": "coarse", "df_tier": "short" }, "geometry": { "type": "Polygon", "coordinates": [ [ [ 127.05, 37.45 ], [ 127.05, 37.55 ], [ 126.95, 37.55 ], [ 126.95, 37.45 ], [ 127.05, 37.45 ] ] ] } },
{ "type": "Feature", "properties": { "sigma_nT": 52.0, "sigma_obs": 1, "spacing_req": 55.8, "spacing_now": 89.6, "deficit": 1.61, "sp_tier": "coarse", "df_tier": "short" }, "geometry": { "type": "Polygon", "coordinates": [ [ [ 127.05, 37.55 ], [ 127.05, 37.65 ], [ 126.95, 37.65 ], [ 126.95, 37.55 ], [ 127.05, 37.55 ] ] ] } },
{ "type": "Feature", "properties": { "sigma_nT": 72.0, "sigma_obs": 1, "spacing_req": 47.2, "spacing_now": 74.6, "deficit": 1.58, "sp_tier": "mid", "df_tier": "short" }, "geometry": { "type": "Polygon", "coordinates": [ [ [ 126.95, 37.65 ], [ 126.95, 37.75 ], [ 126.85, 37.75 ], [ 126.85, 37.65 ], [ 126.95, 37.65 ] ] ] } },
{ "type": "Feature", "properties": { "sigma_nT": 88.0, "sigma_obs": 0, "spacing_req": 42.8, "spacing_now": 64.7, "deficit": 1.51, "sp_tier": "mid", "df_tier": "short" }, "geometry": { "type": "Polygon", "coordinates": [ [ [ 126.75, 37.85 ], [ 126.75, 37.95 ], [ 126.65, 37.95 ], [ 126.65, 37.85 ], [ 126.75, 37.85 ] ] ] } },
{ "type": "Feature", "properties": { "sigma_nT": 88.0, "sigma_obs": 0, "spacing_req": 42.8, "spacing_now": 69.3, "deficit": 1.62, "sp_tier": "mid", "df_tier": "short" }, "geometry": { "type": "Polygon", "coordinates": [ [ [ 127.25, 38.25 ], [ 127.25, 38.35 ], [ 127.15, 38.35 ], [ 127.15, 38.25 ], [ 127.25, 38.25 ] ] ] } },
{ "type": "Feature", "properties": { "sigma_nT": 88.0, "sigma_obs": 0, "spacing_req": 42.8, "spacing_now": 74.2, "deficit": 1.73, "sp_tier": "mid", "df_tier": "short" }, "geometry": { "type": "Polygon", "coordinates": [ [ [ 127.35, 38.25 ], [ 127.35, 38.35 ], [ 127.25, 38.35 ], [ 127.25, 38.25 ], [ 127.35, 38.25 ] ] ] } },
{ "type": "Feature", "properties": { "sigma_nT": 88.0, "sigma_obs": 0, "spacing_req": 42.8, "spacing_now": 64.6, "deficit": 1.51, "sp_tier": "mid", "df_tier": "short" }, "geometry": { "type": "Polygon", "coordinates": [ [ [ 127.45, 38.25 ], [ 127.45, 38.35 ], [ 127.35, 38.35 ], [ 127.35, 38.25 ], [ 127.45, 38.25 ] ] ] } },
{ "type": "Feature", "properties": { "sigma_nT": 88.0, "sigma_obs": 0, "spacing_req": 42.8, "spacing_now": 68.3, "deficit": 1.6, "sp_tier": "mid", "df_tier": "short" }, "geometry": { "type": "Polygon", "coordinates": [ [ [ 128.049999999999898, 38.25 ], [ 128.049999999999898, 38.35 ], [ 127.949999999999889, 38.35 ], [ 127.949999999999889, 38.25 ], [ 128.049999999999898, 38.25 ] ] ] } },
{ "type": "Feature", "properties": { "sigma_nT": 88.0, "sigma_obs": 0, "spacing_req": 42.8, "spacing_now": 76.1, "deficit": 1.78, "sp_tier": "mid", "df_tier": "short" }, "geometry": { "type": "Polygon", "coordinates": [ [ [ 128.149999999999892, 38.25 ], [ 128.149999999999892, 38.35 ], [ 128.049999999999869, 38.35 ], [ 128.049999999999869, 38.25 ], [ 128.149999999999892, 38.25 ] ] ] } },
{ "type": "Feature", "properties": { "sigma_nT": 88.0, "sigma_obs": 0, "spacing_req": 42.8, "spacing_now": 68.3, "deficit": 1.6, "sp_tier": "mid", "df_tier": "short" }, "geometry": { "type": "Polygon", "coordinates": [ [ [ 128.249999999999886, 38.25 ], [ 128.249999999999886, 38.35 ], [ 128.149999999999864, 38.35 ], [ 128.149999999999864, 38.25 ], [ 128.249999999999886, 38.25 ] ] ] } },
{ "type": "Feature", "properties": { "sigma_nT": 88.0, "sigma_obs": 0, "spacing_req": 42.8, "spacing_now": 64.5, "deficit": 1.51, "sp_tier": "mid", "df_tier": "short" }, "geometry": { "type": "Polygon", "coordinates": [ [ [ 128.349999999999881, 38.25 ], [ 128.349999999999881, 38.35 ], [ 128.249999999999858, 38.35 ], [ 128.249999999999858, 38.25 ], [ 128.349999999999881, 38.25 ] ] ] } }
]
}
