{"type": "FeatureCollection", "features": [{"type": "Feature", "geometry": {"type": "Point", "coordinates": [126.953028, 37.112417]}, "properties": {"name": "남양", "address": "화성시 동탄면 장지리저수지 제방둑(수문에서50m)", "inst_year": null, "obs_year": 2016, "elev": null, "decl": null, "incl": null, "total": null, "net": "other"}}, {"type": "Feature", "geometry": {"type": "Point", "coordinates": [128.859444, 36.929783]}, "properties": {"name": "춘양", "address": "봉화군 명호면 도천리 기둑실지뚝 가운데", "inst_year": null, "obs_year": 2015, "elev": null, "decl": -7.936944444444444, "incl": 52.82944444444445, "total": 50226.0, "net": "other"}}, {"type": "Feature", "geometry": {"type": "Point", "coordinates": [129.075694, 36.369944]}, "properties": {"name": "청송", "address": "청송군 부동면 지리523(마뜰못)", "inst_year": null, "obs_year": 2018, "elev": null, "decl": -7.726111111111111, "incl": 51.962500000000006, "total": 49628.0, "net": "other"}}, {"type": "Feature", "geometry": {"type": "Point", "coordinates": [128.110481, 36.355288]}, "properties": {"name": "상주", "address": "경상북도 상주시 청리면 율리 436-2 밤깟마을(상주23)", "inst_year": 1995, "obs_year": 2023, "elev": 92.568, "decl": -8.12363888888889, "incl": 52.75655555555556, "total": 50538.443, "net": "target"}}, {"type": "Feature", "geometry": {"type": "Point", "coordinates": [127.586222, 36.725028]}, "properties": {"name": "미원", "address": "충청북도 청주시 청원구 북이면 영하리 산13-1(미원409)", "inst_year": 1984, "obs_year": 2024, "elev": 97.952, "decl": -9.12226388888889, "incl": 53.41215555555556, "total": 50709.268, "net": "target"}}, {"type": "Feature", "geometry": {"type": "Point", "coordinates": [126.489274, 36.79004]}, "properties": {"name": "서산", "address": "서산시 잠홍동 잠홍저수지(삼각점457로대체)", "inst_year": null, "obs_year": 2018, "elev": null, "decl": -7.489166666666667, "incl": 53.30277777777778, "total": null, "net": "other"}}, {"type": "Feature", "geometry": {"type": "Point", "coordinates": [127.008275, 36.437753]}, "properties": {"name": "청양", "address": "공주시 우성면 용봉리 우목저수지", "inst_year": null, "obs_year": 2018, "elev": null, "decl": -7.519444444444445, "incl": 52.5325, "total": 50296.7, "net": "other"}}, {"type": "Feature", "geometry": {"type": "Point", "coordinates": [127.699734, 36.07088]}, "properties": {"name": "이원", "address": "충청북도 학산면 아암리 17-1, 여의치저수지", "inst_year": 2005, "obs_year": 2024, "elev": 210.708, "decl": -8.419358333333333, "incl": 52.96939444444445, "total": 50286.9, "net": "other"}}, {"type": "Feature", "geometry": {"type": "Point", "coordinates": [126.716139, 35.58775]}, "properties": {"name": "부안", "address": "전라북도 부안군 줄포면 난산리 440-2 목중새마을(부안423)", "inst_year": 1997, "obs_year": 2023, "elev": 33.5, "decl": -7.182833333333334, "incl": 52.33430555555556, "total": 50607.778, "net": "target"}}, {"type": "Feature", "geometry": {"type": "Point", "coordinates": [126.377778, 35.168056]}, "properties": {"name": "와도", "address": "영광군 염산면 옥실리1475 옥실저수지(옥슬제)", "inst_year": null, "obs_year": 2018, "elev": 29.14, "decl": -7.315833333333333, "incl": 51.04361111111111, "total": 49962.0, "net": "other"}}, {"type": "Feature", "geometry": {"type": "Point", "coordinates": [127.139556, 35.296694]}, "properties": {"name": "순창", "address": "곡성군 옥과면 주산리654번지", "inst_year": null, "obs_year": 2013, "elev": null, "decl": -7.5008333333333335, "incl": 51.013333333333335, "total": 49932.0, "net": "other"}}, {"type": "Feature", "geometry": {"type": "Point", "coordinates": [126.478775, 37.666124]}, "properties": {"name": "강화", "address": "인천광역시 강화군 길상면 길직리 산 148-6", "inst_year": 2022, "obs_year": 2024, "elev": 100.524, "decl": -8.659730555555555, "incl": 54.76521666666667, "total": 51531.185, "net": "target"}}, {"type": "Feature", "geometry": {"type": "Point", "coordinates": [127.622969, 35.542509]}, "properties": {"name": "함양", "address": "경남 함양군 백전면 구산리 166 구산제(구산저수지)", "inst_year": 2006, "obs_year": 2023, "elev": 415.62, "decl": -8.797277777777778, "incl": 51.9955, "total": 49653.2, "net": "other"}}, {"type": "Feature", "geometry": {"type": "Point", "coordinates": [128.187658, 35.800783]}, "properties": {"name": "가야", "address": "경상북도 고령군 덕곡면 노리 산39-5", "inst_year": 2022, "obs_year": 2024, "elev": 190.91, "decl": -8.382344444444445, "incl": 51.809241666666665, "total": 49608.0, "net": "other"}}, {"type": "Feature", "geometry": {"type": "Point", "coordinates": [128.948603, 35.792085]}, "properties": {"name": "영천", "address": "경북 경산시 용성면 부일리 산40", "inst_year": 2024, "obs_year": 2024, "elev": 564.555, "decl": -9.90221111111111, "incl": 52.20221388888889, "total": 49783.992, "net": "other"}}, {"type": "Feature", "geometry": {"type": "Point", "coordinates": [129.183861, 35.673667]}, "properties": {"name": "양산", "address": "울산광역시 울주군 두서면 미호리 산59-2", "inst_year": 2005, "obs_year": 2022, "elev": 226.101, "decl": -8.641083333333333, "incl": 51.66894444444444, "total": 49640.4, "net": "target"}}, {"type": "Feature", "geometry": {"type": "Point", "coordinates": [128.473833, 35.436167]}, "properties": {"name": "남지", "address": "창녕군 장마면 유리 1705-1 봉산지뚝", "inst_year": null, "obs_year": 2019, "elev": null, "decl": -7.166666666666667, "incl": 50.75361111111111, "total": 49237.0, "net": "target"}}, {"type": "Feature", "geometry": {"type": "Point", "coordinates": [128.592861, 34.870311]}, "properties": {"name": "거제", "address": "경상남도 거제시 거제면 옥산리 산83-6", "inst_year": 2002, "obs_year": 2024, "elev": 91.014, "decl": -8.147083333333333, "incl": 51.199, "total": 49335.5, "net": "target"}}, {"type": "Feature", "geometry": {"type": "Point", "coordinates": [127.995389, 34.862]}, "properties": {"name": "남해", "address": "남해군 창선면 옥천리833(옥천저수지위 작은저수지)", "inst_year": null, "obs_year": 2013, "elev": null, "decl": -6.953888888888889, "incl": 50.42611111111111, "total": 48750.0, "net": "other"}}, {"type": "Feature", "geometry": {"type": "Point", "coordinates": [127.304972, 34.787083]}, "properties": {"name": "순천", "address": "전라남도 고흥군 동강면 마륜리 산67-3 원동저수지", "inst_year": 2009, "obs_year": 2025, "elev": 67.4, "decl": -8.440091666666667, "incl": 51.11415277777778, "total": 49618.919, "net": "other"}}, {"type": "Feature", "geometry": {"type": "Point", "coordinates": [126.977833, 34.627306]}, "properties": {"name": "장흥", "address": "장흥군 안양면 해창리(해창제방)", "inst_year": null, "obs_year": 2019, "elev": null, "decl": -7.311111111111111, "incl": 50.480555555555554, "total": 49018.0, "net": "other"}}, {"type": "Feature", "geometry": {"type": "Point", "coordinates": [126.223806, 34.431917]}, "properties": {"name": "조도", "address": "진도군 임회면 삼막리 광전교인근", "inst_year": null, "obs_year": 2014, "elev": null, "decl": -6.046111111111111, "incl": 50.36833333333333, "total": 49534.0, "net": "target"}}, {"type": "Feature", "geometry": {"type": "Point", "coordinates": [127.134628, 37.990903]}, "properties": {"name": "포천", "address": "경기도 연천군 청산면 대전리 산83", "inst_year": 2023, "obs_year": 2025, "elev": 423.872, "decl": -9.245016666666666, "incl": 55.04298333333333, "total": 51495.298, "net": "target"}}, {"type": "Feature", "geometry": {"type": "Point", "coordinates": [126.894162, 33.52448]}, "properties": {"name": "성산", "address": "제주특별자치도 제주시 구좌읍 하도리425", "inst_year": 2006, "obs_year": 2025, "elev": 8.08, "decl": -8.658166666666666, "incl": 50.120777777777775, "total": 49008.025, "net": "target"}}, {"type": "Feature", "geometry": {"type": "Point", "coordinates": [127.589988, 37.445381]}, "properties": {"name": "여주", "address": "경기도 양평군 개군면 내리 산12", "inst_year": 2023, "obs_year": 2025, "elev": 177.03, "decl": -9.267430555555556, "incl": 54.423825, "total": 51174.98, "net": "target"}}, {"type": "Feature", "geometry": {"type": "Point", "coordinates": [127.686722, 38.115667]}, "properties": {"name": "화천", "address": "화천군 화천읍 상리 산6", "inst_year": null, "obs_year": 2018, "elev": 155.0, "decl": -7.763055555555556, "incl": 54.371944444444445, "total": 50950.0, "net": "target"}}, {"type": "Feature", "geometry": {"type": "Point", "coordinates": [128.333139, 38.009833]}, "properties": {"name": "설악", "address": "인제군 상남면 하남리610-57 (의식동저수지가운데)", "inst_year": null, "obs_year": 2012, "elev": null, "decl": -7.812222222222222, "incl": 54.041666666666664, "total": 50610.0, "net": "other"}}, {"type": "Feature", "geometry": {"type": "Point", "coordinates": [128.398083, 37.609583]}, "properties": {"name": "봉평", "address": "평창군 봉평면 평촌2리 김병찬씨 뒷산", "inst_year": null, "obs_year": 2015, "elev": 695.73, "decl": -7.737222222222222, "incl": 53.65861111111111, "total": 50787.0, "net": "target"}}, {"type": "Feature", "geometry": {"type": "Point", "coordinates": [129.203226, 37.384717]}, "properties": {"name": "삼척", "address": "강원도 삼척시 근덕면 하맹방리 774-2, 초당저수지", "inst_year": 2022, "obs_year": 2024, "elev": 27.791, "decl": -8.223683333333334, "incl": 54.32595555555556, "total": 50647.45, "net": "target"}}, {"type": "Feature", "geometry": {"type": "Point", "coordinates": [128.211444, 37.074639]}, "properties": {"name": "제천", "address": "제천시 백운면 방학리 백마저수지뚝 가운데", "inst_year": null, "obs_year": 2015, "elev": null, "decl": -7.7380555555555555, "incl": 53.223333333333336, "total": 50410.0, "net": "target"}}]}