{"type": "FeatureCollection", "features": [{"type": "Feature", "geometry": {"type": "Point", "coordinates": [128.18765805555557, 35.80078258333333]}, "properties": {"name": "가야", "net": "other", "net_of": null, "address": "경상북도 고령군 덕곡면 노리 산39-5", "inst_year": 2022, "obs_year": 2024, "lat": 35.80078258333333, "lon": 128.18765805555557, "elev": 190.91, "decl": -8.382344, "incl": 51.809242, "total": 49608.0}}, {"type": "Feature", "geometry": {"type": "Point", "coordinates": [126.47877522222223, 37.66612411111111]}, "properties": {"name": "강화", "net": "target", "net_of": null, "address": "인천광역시 강화군 길상면 길직리 산 148-6", "inst_year": 2022, "obs_year": 2024, "lat": 37.66612411111111, "lon": 126.47877522222223, "elev": 100.524, "decl": -8.659731, "incl": 54.765217, "total": 51531.2}}, {"type": "Feature", "geometry": {"type": "Point", "coordinates": [128.59286111111112, 34.870311083333334]}, "properties": {"name": "거제", "net": "target", "net_of": null, "address": "경상남도 거제시 거제면 옥산리 산83-6", "inst_year": 2002, "obs_year": 2024, "lat": 34.870311083333334, "lon": 128.59286111111112, "elev": 91.014, "decl": -8.147075, "incl": 51.198997, "total": 49335.5}}, {"type": "Feature", "geometry": {"type": "Point", "coordinates": [127.58622222222222, 36.72502777777778]}, "properties": {"name": "미원", "net": "target", "net_of": null, "address": "충청북도 청주시 청원구 북이면 영하리 산13-1(미원409)", "inst_year": 1984, "obs_year": 2024, "lat": 36.72502777777778, "lon": 127.58622222222222, "elev": 97.952, "decl": -9.122264, "incl": 53.412156, "total": 50709.3}}, {"type": "Feature", "geometry": {"type": "Point", "coordinates": [126.71613888888889, 35.58775]}, "properties": {"name": "부안", "net": "target", "net_of": null, "address": "전라북도 부안군 줄포면 난산리 440-2 목중새마을(부안423)", "inst_year": 1997, "obs_year": 2025, "lat": 35.58775, "lon": 126.71613888888889, "elev": 33.5, "decl": -8.473328, "incl": 52.376639, "total": 50678.1}}, {"type": "Feature", "geometry": {"type": "Point", "coordinates": [129.20322594444443, 37.384717083333335]}, "properties": {"name": "삼척", "net": "target", "net_of": null, "address": "강원도 삼척시 근덕면 하맹방리 774-2, 초당저수지", "inst_year": 2022, "obs_year": 2024, "lat": 37.384717083333335, "lon": 129.20322594444443, "elev": 27.791, "decl": -8.223683, "incl": 54.325956, "total": 50647.4}}, {"type": "Feature", "geometry": {"type": "Point", "coordinates": [128.11048069444445, 36.35528841666667]}, "properties": {"name": "상주", "net": "target", "net_of": null, "address": "경상북도 상주시 청리면 율리 436-2 밤깟마을(상주23)", "inst_year": 1995, "obs_year": 2025, "lat": 36.35528841666667, "lon": 128.11048069444445, "elev": 92.568, "decl": -8.193992, "incl": 52.758553, "total": 50560.0}}, {"type": "Feature", "geometry": {"type": "Point", "coordinates": [126.89416197222224, 33.524479916666664]}, "properties": {"name": "성산", "net": "target", "net_of": null, "address": "제주특별자치도 제주시 구좌읍 하도리425", "inst_year": 2006, "obs_year": 2025, "lat": 33.524479916666664, "lon": 126.89416197222224, "elev": 8.08, "decl": -8.658169, "incl": 50.120781, "total": 48909.9}}, {"type": "Feature", "geometry": {"type": "Point", "coordinates": [127.30497222222222, 34.78708333333333]}, "properties": {"name": "순천", "net": "other", "net_of": null, "address": "전라남도 고흥군 동강면 마륜리 산67-3 원동저수지", "inst_year": 2009, "obs_year": 2025, "lat": 34.78708333333333, "lon": 127.30497222222222, "elev": 67.4, "decl": -8.440092, "incl": 51.114153, "total": 49618.9}}, {"type": "Feature", "geometry": {"type": "Point", "coordinates": [129.18386111111113, 35.67366666666666]}, "properties": {"name": "양산", "net": "superseded", "net_of": "언양", "address": "울산광역시 울주군 두서면 미호리 산59-2", "inst_year": 2005, "obs_year": 2022, "lat": 35.67366666666666, "lon": 129.18386111111113, "elev": 226.101, "decl": -8.641083333333333, "incl": 51.66894444444444, "total": 49640.4}}, {"type": "Feature", "geometry": {"type": "Point", "coordinates": [129.1908721388889, 35.67619994444444]}, "properties": {"name": "언양", "net": "target", "net_of": null, "address": "울산광역시 울주군 두서면 미호리 산3(삼언양417)", "inst_year": 2005, "obs_year": 2024, "lat": 35.67619994444444, "lon": 129.1908721388889, "elev": 226.101, "decl": -9.003039, "incl": 51.749664, "total": 49597.3}}, {"type": "Feature", "geometry": {"type": "Point", "coordinates": [127.57332169444445, 37.445381]}, "properties": {"name": "여주", "net": "target", "net_of": null, "address": "경기도 양평군 개군면 내리 산12", "inst_year": 2023, "obs_year": 2025, "lat": 37.445381, "lon": 127.57332169444445, "elev": 177.03, "decl": -9.267430555555556, "incl": 54.423825, "total": 51174.98}}, {"type": "Feature", "geometry": {"type": "Point", "coordinates": [128.94860258333333, 35.79208525]}, "properties": {"name": "영천", "net": "other", "net_of": null, "address": "경북 경산시 용성면 부일리 산40", "inst_year": 2024, "obs_year": 2024, "lat": 35.79208525, "lon": 128.94860258333333, "elev": 564.555, "decl": -9.902211, "incl": 52.202214, "total": 49784.0}}, {"type": "Feature", "geometry": {"type": "Point", "coordinates": [127.69973402777778, 36.07088027777778]}, "properties": {"name": "이원", "net": "other", "net_of": null, "address": "충청북도 학산면 아암리 17-1, 여의치저수지", "inst_year": 2005, "obs_year": 2024, "lat": 36.07088027777778, "lon": 127.69973402777778, "elev": 210.708, "decl": -8.419358, "incl": 52.969394, "total": 50286.9}}, {"type": "Feature", "geometry": {"type": "Point", "coordinates": [127.13462836111111, 37.99090344444445]}, "properties": {"name": "포천", "net": "target", "net_of": null, "address": "경기도 연천군 청산면 대전리 산83", "inst_year": 2023, "obs_year": 2025, "lat": 37.99090344444445, "lon": 127.13462836111111, "elev": 423.872, "decl": -9.245017, "incl": 55.042983, "total": 51495.3}}, {"type": "Feature", "geometry": {"type": "Point", "coordinates": [127.62296883333333, 35.54250855555556]}, "properties": {"name": "함양", "net": "other", "net_of": null, "address": "경남 함양군 백전면 구산리 166 구산제(구산저수지)", "inst_year": 2006, "obs_year": 2025, "lat": 35.54250855555556, "lon": 127.62296883333333, "elev": 415.62, "decl": -7.629208, "incl": 52.017197, "total": 49779.9}}, {"type": "Feature", "geometry": {"type": "Point", "coordinates": [126.95302777777778, 37.11241666666667]}, "properties": {"name": "남양", "net": "other", "net_of": null, "address": "화성시 동탄면 장지리저수지 제방둑(수문에서50m)", "inst_year": null, "obs_year": 2016, "lat": 37.11241666666667, "lon": 126.95302777777778, "elev": null, "decl": -7.788889, "incl": 53.510417, "total": 50640.0}}, {"type": "Feature", "geometry": {"type": "Point", "coordinates": [128.86777777777777, 36.92978333333333]}, "properties": {"name": "춘양", "net": "other", "net_of": null, "address": "봉화군 명호면 도천리 기둑실지뚝 가운데", "inst_year": null, "obs_year": 2015, "lat": 36.92978333333333, "lon": 128.86777777777777, "elev": null, "decl": -8.249722, "incl": 53.053333, "total": 50148.0}}, {"type": "Feature", "geometry": {"type": "Point", "coordinates": [129.07569444444445, 36.36994444444444]}, "properties": {"name": "청송", "net": "other", "net_of": null, "address": "청송군 부동면 지리523(마뜰못)", "inst_year": null, "obs_year": 2018, "lat": 36.36994444444444, "lon": 129.07569444444445, "elev": null, "decl": -8.261333, "incl": 52.534, "total": 49822.7}}, {"type": "Feature", "geometry": {"type": "Point", "coordinates": [126.49108333333334, 36.78947222222222]}, "properties": {"name": "서산", "net": "other", "net_of": null, "address": "서산시 잠홍동 잠홍저수지(삼각점457로대체)", "inst_year": null, "obs_year": 2018, "lat": 36.78947222222222, "lon": 126.49108333333334, "elev": null, "decl": -7.82175, "incl": 54.1445, "total": 51098.4}}, {"type": "Feature", "geometry": {"type": "Point", "coordinates": [127.00827541666666, 36.43775316666666]}, "properties": {"name": "청양", "net": "other", "net_of": null, "address": "공주시 우성면 용봉리 우목저수지", "inst_year": null, "obs_year": 2018, "lat": 36.43775316666666, "lon": 127.00827541666666, "elev": null, "decl": -8.210083, "incl": 51.852833, "total": 50484.9}}, {"type": "Feature", "geometry": {"type": "Point", "coordinates": [126.37585833333333, 35.17108333333333]}, "properties": {"name": "와도", "net": "other", "net_of": null, "address": "영광군 염산면 옥실리1475 옥실저수지(옥슬제)", "inst_year": null, "obs_year": 2018, "lat": 35.17108333333333, "lon": 126.37585833333333, "elev": 29.14, "decl": -7.571972, "incl": 51.593611, "total": 50089.4}}, {"type": "Feature", "geometry": {"type": "Point", "coordinates": [127.13955555555556, 35.29669444444444]}, "properties": {"name": "순창", "net": "other", "net_of": null, "address": "곡성군 옥과면 주산리654번지", "inst_year": null, "obs_year": 2013, "lat": 35.29669444444444, "lon": 127.13955555555556, "elev": null, "decl": -7.695167, "incl": 51.275389, "total": 49120.0}}, {"type": "Feature", "geometry": {"type": "Point", "coordinates": [129.15722222222223, 35.915277777777774]}, "properties": {"name": "경주", "net": "superseded", "net_of": "영천", "address": "경주시 현곡면 내곡리(내태저수지)", "inst_year": null, "obs_year": 2015, "lat": 35.915277777777774, "lon": 129.15722222222223, "elev": null, "decl": -7.637777777777777, "incl": 51.46416666666667, "total": 49688.0}}, {"type": "Feature", "geometry": {"type": "Point", "coordinates": [128.47377777777777, 35.436166666666665]}, "properties": {"name": "남지", "net": "target", "net_of": null, "address": "창녕군 장마면 유리 1705-1 봉산지뚝", "inst_year": null, "obs_year": 2019, "lat": 35.436166666666665, "lon": 128.47377777777777, "elev": null, "decl": -7.60285, "incl": 51.288442, "total": 49481.8}}, {"type": "Feature", "geometry": {"type": "Point", "coordinates": [127.9953888888889, 34.862]}, "properties": {"name": "남해", "net": "other", "net_of": null, "address": "남해군 창선면 옥천리833(옥천저수지위 작은저수지)", "inst_year": null, "obs_year": 2013, "lat": 34.862, "lon": 127.9953888888889, "elev": null, "decl": -7.145056, "incl": 50.795139, "total": 48180.0}}, {"type": "Feature", "geometry": {"type": "Point", "coordinates": [126.97783333333334, 34.62730555555556]}, "properties": {"name": "장흥", "net": "other", "net_of": null, "address": "장흥군 안양면 해창리(해창제방)", "inst_year": null, "obs_year": 2019, "lat": 34.62730555555556, "lon": 126.97783333333334, "elev": null, "decl": -8.318178, "incl": 51.124536, "total": 49468.1}}, {"type": "Feature", "geometry": {"type": "Point", "coordinates": [126.22380555555556, 34.431916666666666]}, "properties": {"name": "조도", "net": "target", "net_of": null, "address": "진도군 임회면 삼막리 광전교인근", "inst_year": null, "obs_year": 2014, "lat": 34.431916666666666, "lon": 126.22380555555556, "elev": null, "decl": -6.046111111111111, "incl": 50.36833333333333, "total": 49534.0}}, {"type": "Feature", "geometry": {"type": "Point", "coordinates": [127.68672222222223, 38.11566666666667]}, "properties": {"name": "화천", "net": "target", "net_of": null, "address": "화천군 화천읍 상리 산6", "inst_year": null, "obs_year": 2018, "lat": 38.11566666666667, "lon": 127.68672222222223, "elev": 155.0, "decl": -8.933944, "incl": 54.944778, "total": 51499.4}}, {"type": "Feature", "geometry": {"type": "Point", "coordinates": [128.3331388888889, 38.00983333333333]}, "properties": {"name": "설악", "net": "other", "net_of": null, "address": "인제군 상남면 하남리610-57 (의식동저수지가운데)", "inst_year": null, "obs_year": 2012, "lat": 38.00983333333333, "lon": 128.3331388888889, "elev": null, "decl": -7.812222222222222, "incl": 54.041666666666664, "total": 50610.0}}, {"type": "Feature", "geometry": {"type": "Point", "coordinates": [128.395802, 37.61237222222223]}, "properties": {"name": "봉평", "net": "target", "net_of": null, "address": "평창군 봉평면 평촌2리 김병찬씨 뒷산", "inst_year": null, "obs_year": 2015, "lat": 37.61237222222223, "lon": 128.395802, "elev": 695.73, "decl": -8.446667, "incl": 54.1425, "total": 50634.0}}, {"type": "Feature", "geometry": {"type": "Point", "coordinates": [128.85305555555556, 37.41083333333333]}, "properties": {"name": "임계", "net": "superseded", "net_of": "삼척", "address": "삼척시 근덕면 하맹방리 초당저수지뚝 가운데", "inst_year": null, "obs_year": 2016, "lat": 37.41083333333333, "lon": 128.85305555555556, "elev": null, "decl": -7.665277777777778, "incl": 52.882777777777775, "total": 50670.0}}, {"type": "Feature", "geometry": {"type": "Point", "coordinates": [128.21144444444442, 37.07463888888889]}, "properties": {"name": "제천", "net": "target", "net_of": null, "address": "제천시 백운면 방학리 백마저수지뚝 가운데", "inst_year": null, "obs_year": 2015, "lat": 37.07463888888889, "lon": 128.21144444444442, "elev": null, "decl": -7.575278, "incl": 53.646944, "total": 50410.0}}]}