{
"type": "FeatureCollection",
"name": "maggrad_extreme",
"crs": { "type": "name", "properties": { "name": "urn:ogc:def:crs:OGC:1.3:CRS84" } },
"features": [
{ "type": "Feature", "properties": { "grad_nT_km": 114.9, "tier": "extreme", "score": 0.8 }, "geometry": { "type": "Polygon", "coordinates": [ [ [ 126.3875, 33.2875 ], [ 126.3875, 33.3375 ], [ 126.3375, 33.3375 ], [ 126.3375, 33.2875 ], [ 126.3875, 33.2875 ] ] ] } },
{ "type": "Feature", "properties": { "grad_nT_km": 120.0, "tier": "extreme", "score": 0.8 }, "geometry": { "type": "Polygon", "coordinates": [ [ [ 126.5375, 33.2875 ], [ 126.5375, 33.3375 ], [ 126.4875, 33.3375 ], [ 126.4875, 33.2875 ], [ 126.5375, 33.2875 ] ] ] } },
{ "type": "Feature", "properties": { "grad_nT_km": 160.7, "tier": "extreme", "score": 0.5 }, "geometry": { "type": "Polygon", "coordinates": [ [ [ 126.5875, 33.2875 ], [ 126.5875, 33.3375 ], [ 126.5375, 33.3375 ], [ 126.5375, 33.2875 ], [ 126.5875, 33.2875 ] ] ] } },
{ "type": "Feature", "properties": { "grad_nT_km": 164.4, "tier": "extreme", "score": 0.4 }, "geometry": { "type": "Polygon", "coordinates": [ [ [ 126.5375, 33.3375 ], [ 126.5375, 33.3875 ], [ 126.4875, 33.3875 ], [ 126.4875, 33.3375 ], [ 126.5375, 33.3375 ] ] ] } },
{ "type": "Feature", "properties": { "grad_nT_km": 196.6, "tier": "extreme", "score": 0.3 }, "geometry": { "type": "Polygon", "coordinates": [ [ [ 126.5875, 33.3375 ], [ 126.5875, 33.3875 ], [ 126.5375, 33.3875 ], [ 126.5375, 33.3375 ], [ 126.5875, 33.3375 ] ] ] } },
{ "type": "Feature", "properties": { "grad_nT_km": 106.7, "tier": "extreme", "score": 0.9 }, "geometry": { "type": "Polygon", "coordinates": [ [ [ 126.8875, 33.3375 ], [ 126.8875, 33.3875 ], [ 126.8375, 33.3875 ], [ 126.8375, 33.3375 ], [ 126.8875, 33.3375 ] ] ] } },
{ "type": "Feature", "properties": { "grad_nT_km": 102.2, "tier": "extreme", "score": 1.0 }, "geometry": { "type": "Polygon", "coordinates": [ [ [ 126.8875, 33.3875 ], [ 126.8875, 33.4375 ], [ 126.8375, 33.4375 ], [ 126.8375, 33.3875 ], [ 126.8875, 33.3875 ] ] ] } },
{ "type": "Feature", "properties": { "grad_nT_km": 106.2, "tier": "extreme", "score": 0.9 }, "geometry": { "type": "Polygon", "coordinates": [ [ [ 126.9875, 34.1875 ], [ 126.9875, 34.2375 ], [ 126.9375, 34.2375 ], [ 126.9375, 34.1875 ], [ 126.9875, 34.1875 ] ] ] } },
{ "type": "Feature", "properties": { "grad_nT_km": 106.5, "tier": "extreme", "score": 0.9 }, "geometry": { "type": "Polygon", "coordinates": [ [ [ 126.1375, 34.3875 ], [ 126.1375, 34.4375 ], [ 126.0875, 34.4375 ], [ 126.0875, 34.3875 ], [ 126.1375, 34.3875 ] ] ] } },
{ "type": "Feature", "properties": { "grad_nT_km": 102.9, "tier": "extreme", "score": 1.0 }, "geometry": { "type": "Polygon", "coordinates": [ [ [ 126.2375, 34.3875 ], [ 126.2375, 34.4375 ], [ 126.1875, 34.4375 ], [ 126.1875, 34.3875 ], [ 126.2375, 34.3875 ] ] ] } },
{ "type": "Feature", "properties": { "grad_nT_km": 100.8, "tier": "extreme", "score": 1.0 }, "geometry": { "type": "Polygon", "coordinates": [ [ [ 126.8875, 34.3875 ], [ 126.8875, 34.4375 ], [ 126.8375, 34.4375 ], [ 126.8375, 34.3875 ], [ 126.8875, 34.3875 ] ] ] } },
{ "type": "Feature", "properties": { "grad_nT_km": 100.1, "tier": "extreme", "score": 1.0 }, "geometry": { "type": "Polygon", "coordinates": [ [ [ 127.2375, 34.4375 ], [ 127.2375, 34.4875 ], [ 127.1875, 34.4875 ], [ 127.1875, 34.4375 ], [ 127.2375, 34.4375 ] ] ] } },
{ "type": "Feature", "properties": { "grad_nT_km": 140.1, "tier": "extreme", "score": 0.6 }, "geometry": { "type": "Polygon", "coordinates": [ [ [ 127.8375, 34.4375 ], [ 127.8375, 34.4875 ], [ 127.7875, 34.4875 ], [ 127.7875, 34.4375 ], [ 127.8375, 34.4375 ] ] ] } },
{ "type": "Feature", "properties": { "grad_nT_km": 120.6, "tier": "extreme", "score": 0.8 }, "geometry": { "type": "Polygon", "coordinates": [ [ [ 126.1875, 34.4875 ], [ 126.1875, 34.5375 ], [ 126.1375, 34.5375 ], [ 126.1375, 34.4875 ], [ 126.1875, 34.4875 ] ] ] } },
{ "type": "Feature", "properties": { "grad_nT_km": 107.9, "tier": "extreme", "score": 0.9 }, "geometry": { "type": "Polygon", "coordinates": [ [ [ 127.9875, 34.4875 ], [ 127.9875, 34.5375 ], [ 127.9375, 34.5375 ], [ 127.9375, 34.4875 ], [ 127.9875, 34.4875 ] ] ] } },
{ "type": "Feature", "properties": { "grad_nT_km": 108.6, "tier": "extreme", "score": 0.9 }, "geometry": { "type": "Polygon", "coordinates": [ [ [ 128.0875, 34.4875 ], [ 128.0875, 34.5375 ], [ 128.0375, 34.5375 ], [ 128.0375, 34.4875 ], [ 128.0875, 34.4875 ] ] ] } },
{ "type": "Feature", "properties": { "grad_nT_km": 113.5, "tier": "extreme", "score": 0.8 }, "geometry": { "type": "Polygon", "coordinates": [ [ [ 128.1375, 34.4875 ], [ 128.1375, 34.5375 ], [ 128.0875, 34.5375 ], [ 128.0875, 34.4875 ], [ 128.1375, 34.4875 ] ] ] } },
{ "type": "Feature", "properties": { "grad_nT_km": 127.0, "tier": "extreme", "score": 0.7 }, "geometry": { "type": "Polygon", "coordinates": [ [ [ 127.4375, 34.5375 ], [ 127.4375, 34.5875 ], [ 127.3875, 34.5875 ], [ 127.3875, 34.5375 ], [ 127.4375, 34.5375 ] ] ] } },
{ "type": "Feature", "properties": { "grad_nT_km": 105.2, "tier": "extreme", "score": 0.9 }, "geometry": { "type": "Polygon", "coordinates": [ [ [ 127.4875, 34.5375 ], [ 127.4875, 34.5875 ], [ 127.4375, 34.5875 ], [ 127.4375, 34.5375 ], [ 127.4875, 34.5375 ] ] ] } },
{ "type": "Feature", "properties": { "grad_nT_km": 134.6, "tier": "extreme", "score": 0.6 }, "geometry": { "type": "Polygon", "coordinates": [ [ [ 125.7875, 34.5875 ], [ 125.7875, 34.6375 ], [ 125.7375, 34.6375 ], [ 125.7375, 34.5875 ], [ 125.7875, 34.5875 ] ] ] } },
{ "type": "Feature", "properties": { "grad_nT_km": 118.0, "tier": "extreme", "score": 0.8 }, "geometry": { "type": "Polygon", "coordinates": [ [ [ 125.8875, 34.5875 ], [ 125.8875, 34.6375 ], [ 125.8375, 34.6375 ], [ 125.8375, 34.5875 ], [ 125.8875, 34.5875 ] ] ] } },
{ "type": "Feature", "properties": { "grad_nT_km": 101.6, "tier": "extreme", "score": 1.0 }, "geometry": { "type": "Polygon", "coordinates": [ [ [ 125.8875, 34.6375 ], [ 125.8875, 34.6875 ], [ 125.8375, 34.6875 ], [ 125.8375, 34.6375 ], [ 125.8875, 34.6375 ] ] ] } },
{ "type": "Feature", "properties": { "grad_nT_km": 109.6, "tier": "extreme", "score": 0.9 }, "geometry": { "type": "Polygon", "coordinates": [ [ [ 126.6875, 34.6375 ], [ 126.6875, 34.6875 ], [ 126.6375, 34.6875 ], [ 126.6375, 34.6375 ], [ 126.6875, 34.6375 ] ] ] } },
{ "type": "Feature", "properties": { "grad_nT_km": 134.3, "tier": "extreme", "score": 0.6 }, "geometry": { "type": "Polygon", "coordinates": [ [ [ 128.0375, 34.6375 ], [ 128.0375, 34.6875 ], [ 127.9875, 34.6875 ], [ 127.9875, 34.6375 ], [ 128.0375, 34.6375 ] ] ] } },
{ "type": "Feature", "properties": { "grad_nT_km": 102.4, "tier": "extreme", "score": 1.0 }, "geometry": { "type": "Polygon", "coordinates": [ [ [ 126.3875, 34.6875 ], [ 126.3875, 34.7375 ], [ 126.3375, 34.7375 ], [ 126.3375, 34.6875 ], [ 126.3875, 34.6875 ] ] ] } },
{ "type": "Feature", "properties": { "grad_nT_km": 142.4, "tier": "extreme", "score": 0.6 }, "geometry": { "type": "Polygon", "coordinates": [ [ [ 127.7875, 34.7375 ], [ 127.7875, 34.7875 ], [ 127.7375, 34.7875 ], [ 127.7375, 34.7375 ], [ 127.7875, 34.7375 ] ] ] } },
{ "type": "Feature", "properties": { "grad_nT_km": 123.4, "tier": "extreme", "score": 0.7 }, "geometry": { "type": "Polygon", "coordinates": [ [ [ 128.2875, 34.7375 ], [ 128.2875, 34.7875 ], [ 128.2375, 34.7875 ], [ 128.2375, 34.7375 ], [ 128.2875, 34.7375 ] ] ] } },
{ "type": "Feature", "properties": { "grad_nT_km": 100.5, "tier": "extreme", "score": 1.0 }, "geometry": { "type": "Polygon", "coordinates": [ [ [ 128.6375, 34.7375 ], [ 128.6375, 34.7875 ], [ 128.5875, 34.7875 ], [ 128.5875, 34.7375 ], [ 128.6375, 34.7375 ] ] ] } },
{ "type": "Feature", "properties": { "grad_nT_km": 103.6, "tier": "extreme", "score": 1.0 }, "geometry": { "type": "Polygon", "coordinates": [ [ [ 127.6875, 34.7875 ], [ 127.6875, 34.8375 ], [ 127.6375, 34.8375 ], [ 127.6375, 34.7875 ], [ 127.6875, 34.7875 ] ] ] } },
{ "type": "Feature", "properties": { "grad_nT_km": 113.3, "tier": "extreme", "score": 0.8 }, "geometry": { "type": "Polygon", "coordinates": [ [ [ 128.2375, 34.7875 ], [ 128.2375, 34.8375 ], [ 128.1875, 34.8375 ], [ 128.1875, 34.7875 ], [ 128.2375, 34.7875 ] ] ] } },
{ "type": "Feature", "properties": { "grad_nT_km": 110.4, "tier": "extreme", "score": 0.9 }, "geometry": { "type": "Polygon", "coordinates": [ [ [ 128.4375, 34.7875 ], [ 128.4375, 34.8375 ], [ 128.3875, 34.8375 ], [ 128.3875, 34.7875 ], [ 128.4375, 34.7875 ] ] ] } },
{ "type": "Feature", "properties": { "grad_nT_km": 113.6, "tier": "extreme", "score": 0.8 }, "geometry": { "type": "Polygon", "coordinates": [ [ [ 128.7875, 34.7875 ], [ 128.7875, 34.8375 ], [ 128.7375, 34.8375 ], [ 128.7375, 34.7875 ], [ 128.7875, 34.7875 ] ] ] } },
{ "type": "Feature", "properties": { "grad_nT_km": 110.6, "tier": "extreme", "score": 0.9 }, "geometry": { "type": "Polygon", "coordinates": [ [ [ 128.3375, 34.8375 ], [ 128.3375, 34.8875 ], [ 128.2875, 34.8875 ], [ 128.2875, 34.8375 ], [ 128.3375, 34.8375 ] ] ] } },
{ "type": "Feature", "properties": { "grad_nT_km": 101.6, "tier": "extreme", "score": 1.0 }, "geometry": { "type": "Polygon", "coordinates": [ [ [ 128.3875, 34.8375 ], [ 128.3875, 34.8875 ], [ 128.3375, 34.8875 ], [ 128.3375, 34.8375 ], [ 128.3875, 34.8375 ] ] ] } },
{ "type": "Feature", "properties": { "grad_nT_km": 125.1, "tier": "extreme", "score": 0.7 }, "geometry": { "type": "Polygon", "coordinates": [ [ [ 128.7375, 34.8375 ], [ 128.7375, 34.8875 ], [ 128.6875, 34.8875 ], [ 128.6875, 34.8375 ], [ 128.7375, 34.8375 ] ] ] } },
{ "type": "Feature", "properties": { "grad_nT_km": 116.9, "tier": "extreme", "score": 0.8 }, "geometry": { "type": "Polygon", "coordinates": [ [ [ 128.9875, 34.9875 ], [ 128.9875, 35.0375 ], [ 128.9375, 35.0375 ], [ 128.9375, 34.9875 ], [ 128.9875, 34.9875 ] ] ] } },
{ "type": "Feature", "properties": { "grad_nT_km": 141.7, "tier": "extreme", "score": 0.6 }, "geometry": { "type": "Polygon", "coordinates": [ [ [ 128.5875, 35.0375 ], [ 128.5875, 35.0875 ], [ 128.5375, 35.0875 ], [ 128.5375, 35.0375 ], [ 128.5875, 35.0375 ] ] ] } },
{ "type": "Feature", "properties": { "grad_nT_km": 106.7, "tier": "extreme", "score": 0.9 }, "geometry": { "type": "Polygon", "coordinates": [ [ [ 128.5875, 35.0875 ], [ 128.5875, 35.1375 ], [ 128.5375, 35.1375 ], [ 128.5375, 35.0875 ], [ 128.5875, 35.0875 ] ] ] } },
{ "type": "Feature", "properties": { "grad_nT_km": 139.1, "tier": "extreme", "score": 0.6 }, "geometry": { "type": "Polygon", "coordinates": [ [ [ 128.7875, 35.1375 ], [ 128.7875, 35.1875 ], [ 128.7375, 35.1875 ], [ 128.7375, 35.1375 ], [ 128.7875, 35.1375 ] ] ] } },
{ "type": "Feature", "properties": { "grad_nT_km": 115.3, "tier": "extreme", "score": 0.8 }, "geometry": { "type": "Polygon", "coordinates": [ [ [ 129.0875, 35.1375 ], [ 129.0875, 35.1875 ], [ 129.0375, 35.1875 ], [ 129.0375, 35.1375 ], [ 129.0875, 35.1375 ] ] ] } },
{ "type": "Feature", "properties": { "grad_nT_km": 117.5, "tier": "extreme", "score": 0.8 }, "geometry": { "type": "Polygon", "coordinates": [ [ [ 129.1875, 35.1375 ], [ 129.1875, 35.1875 ], [ 129.1375, 35.1875 ], [ 129.1375, 35.1375 ], [ 129.1875, 35.1375 ] ] ] } },
{ "type": "Feature", "properties": { "grad_nT_km": 107.5, "tier": "extreme", "score": 0.9 }, "geometry": { "type": "Polygon", "coordinates": [ [ [ 128.3875, 35.1875 ], [ 128.3875, 35.2375 ], [ 128.3375, 35.2375 ], [ 128.3375, 35.1875 ], [ 128.3875, 35.1875 ] ] ] } },
{ "type": "Feature", "properties": { "grad_nT_km": 101.9, "tier": "extreme", "score": 1.0 }, "geometry": { "type": "Polygon", "coordinates": [ [ [ 128.4375, 35.1875 ], [ 128.4375, 35.2375 ], [ 128.3875, 35.2375 ], [ 128.3875, 35.1875 ], [ 128.4375, 35.1875 ] ] ] } },
{ "type": "Feature", "properties": { "grad_nT_km": 156.7, "tier": "extreme", "score": 0.5 }, "geometry": { "type": "Polygon", "coordinates": [ [ [ 128.7875, 35.1875 ], [ 128.7875, 35.2375 ], [ 128.7375, 35.2375 ], [ 128.7375, 35.1875 ], [ 128.7875, 35.1875 ] ] ] } },
{ "type": "Feature", "properties": { "grad_nT_km": 102.5, "tier": "extreme", "score": 1.0 }, "geometry": { "type": "Polygon", "coordinates": [ [ [ 129.1875, 35.1875 ], [ 129.1875, 35.2375 ], [ 129.1375, 35.2375 ], [ 129.1375, 35.1875 ], [ 129.1875, 35.1875 ] ] ] } },
{ "type": "Feature", "properties": { "grad_nT_km": 121.8, "tier": "extreme", "score": 0.7 }, "geometry": { "type": "Polygon", "coordinates": [ [ [ 126.9375, 35.2875 ], [ 126.9375, 35.3375 ], [ 126.8875, 35.3375 ], [ 126.8875, 35.2875 ], [ 126.9375, 35.2875 ] ] ] } },
{ "type": "Feature", "properties": { "grad_nT_km": 102.1, "tier": "extreme", "score": 1.0 }, "geometry": { "type": "Polygon", "coordinates": [ [ [ 126.9875, 35.2875 ], [ 126.9875, 35.3375 ], [ 126.9375, 35.3375 ], [ 126.9375, 35.2875 ], [ 126.9875, 35.2875 ] ] ] } },
{ "type": "Feature", "properties": { "grad_nT_km": 244.5, "tier": "extreme", "score": 0.2 }, "geometry": { "type": "Polygon", "coordinates": [ [ [ 127.0375, 35.2875 ], [ 127.0375, 35.3375 ], [ 126.9875, 35.3375 ], [ 126.9875, 35.2875 ], [ 127.0375, 35.2875 ] ] ] } },
{ "type": "Feature", "properties": { "grad_nT_km": 117.5, "tier": "extreme", "score": 0.8 }, "geometry": { "type": "Polygon", "coordinates": [ [ [ 126.9375, 35.3375 ], [ 126.9375, 35.3875 ], [ 126.8875, 35.3875 ], [ 126.8875, 35.3375 ], [ 126.9375, 35.3375 ] ] ] } },
{ "type": "Feature", "properties": { "grad_nT_km": 106.6, "tier": "extreme", "score": 0.9 }, "geometry": { "type": "Polygon", "coordinates": [ [ [ 127.0375, 35.3875 ], [ 127.0375, 35.4375 ], [ 126.9875, 35.4375 ], [ 126.9875, 35.3875 ], [ 127.0375, 35.3875 ] ] ] } },
{ "type": "Feature", "properties": { "grad_nT_km": 105.9, "tier": "extreme", "score": 0.9 }, "geometry": { "type": "Polygon", "coordinates": [ [ [ 127.9375, 35.3875 ], [ 127.9375, 35.4375 ], [ 127.8875, 35.4375 ], [ 127.8875, 35.3875 ], [ 127.9375, 35.3875 ] ] ] } },
{ "type": "Feature", "properties": { "grad_nT_km": 123.3, "tier": "extreme", "score": 0.7 }, "geometry": { "type": "Polygon", "coordinates": [ [ [ 127.9875, 35.3875 ], [ 127.9875, 35.4375 ], [ 127.9375, 35.4375 ], [ 127.9375, 35.3875 ], [ 127.9875, 35.3875 ] ] ] } },
{ "type": "Feature", "properties": { "grad_nT_km": 113.1, "tier": "extreme", "score": 0.8 }, "geometry": { "type": "Polygon", "coordinates": [ [ [ 126.8375, 35.4375 ], [ 126.8375, 35.4875 ], [ 126.7875, 35.4875 ], [ 126.7875, 35.4375 ], [ 126.8375, 35.4375 ] ] ] } },
{ "type": "Feature", "properties": { "grad_nT_km": 117.1, "tier": "extreme", "score": 0.8 }, "geometry": { "type": "Polygon", "coordinates": [ [ [ 127.9375, 35.4375 ], [ 127.9375, 35.4875 ], [ 127.8875, 35.4875 ], [ 127.8875, 35.4375 ], [ 127.9375, 35.4375 ] ] ] } },
{ "type": "Feature", "properties": { "grad_nT_km": 134.8, "tier": "extreme", "score": 0.6 }, "geometry": { "type": "Polygon", "coordinates": [ [ [ 127.9875, 35.4375 ], [ 127.9875, 35.4875 ], [ 127.9375, 35.4875 ], [ 127.9375, 35.4375 ], [ 127.9875, 35.4375 ] ] ] } },
{ "type": "Feature", "properties": { "grad_nT_km": 122.1, "tier": "extreme", "score": 0.7 }, "geometry": { "type": "Polygon", "coordinates": [ [ [ 128.0375, 35.4375 ], [ 128.0375, 35.4875 ], [ 127.9875, 35.4875 ], [ 127.9875, 35.4375 ], [ 128.0375, 35.4375 ] ] ] } },
{ "type": "Feature", "properties": { "grad_nT_km": 112.1, "tier": "extreme", "score": 0.8 }, "geometry": { "type": "Polygon", "coordinates": [ [ [ 128.0875, 35.4375 ], [ 128.0875, 35.4875 ], [ 128.0375, 35.4875 ], [ 128.0375, 35.4375 ], [ 128.0875, 35.4375 ] ] ] } },
{ "type": "Feature", "properties": { "grad_nT_km": 110.7, "tier": "extreme", "score": 0.9 }, "geometry": { "type": "Polygon", "coordinates": [ [ [ 128.8375, 35.4375 ], [ 128.8375, 35.4875 ], [ 128.7875, 35.4875 ], [ 128.7875, 35.4375 ], [ 128.8375, 35.4375 ] ] ] } },
{ "type": "Feature", "properties": { "grad_nT_km": 139.3, "tier": "extreme", "score": 0.6 }, "geometry": { "type": "Polygon", "coordinates": [ [ [ 128.8875, 35.4375 ], [ 128.8875, 35.4875 ], [ 128.8375, 35.4875 ], [ 128.8375, 35.4375 ], [ 128.8875, 35.4375 ] ] ] } },
{ "type": "Feature", "properties": { "grad_nT_km": 111.8, "tier": "extreme", "score": 0.9 }, "geometry": { "type": "Polygon", "coordinates": [ [ [ 129.3375, 35.4375 ], [ 129.3375, 35.4875 ], [ 129.2875, 35.4875 ], [ 129.2875, 35.4375 ], [ 129.3375, 35.4375 ] ] ] } },
{ "type": "Feature", "properties": { "grad_nT_km": 105.3, "tier": "extreme", "score": 0.9 }, "geometry": { "type": "Polygon", "coordinates": [ [ [ 126.9375, 35.4875 ], [ 126.9375, 35.5375 ], [ 126.8875, 35.5375 ], [ 126.8875, 35.4875 ], [ 126.9375, 35.4875 ] ] ] } },
{ "type": "Feature", "properties": { "grad_nT_km": 193.1, "tier": "extreme", "score": 0.3 }, "geometry": { "type": "Polygon", "coordinates": [ [ [ 128.0375, 35.4875 ], [ 128.0375, 35.5375 ], [ 127.9875, 35.5375 ], [ 127.9875, 35.4875 ], [ 128.0375, 35.4875 ] ] ] } },
{ "type": "Feature", "properties": { "grad_nT_km": 140.7, "tier": "extreme", "score": 0.6 }, "geometry": { "type": "Polygon", "coordinates": [ [ [ 128.0875, 35.4875 ], [ 128.0875, 35.5375 ], [ 128.0375, 35.5375 ], [ 128.0375, 35.4875 ], [ 128.0875, 35.4875 ] ] ] } },
{ "type": "Feature", "properties": { "grad_nT_km": 109.2, "tier": "extreme", "score": 0.9 }, "geometry": { "type": "Polygon", "coordinates": [ [ [ 128.1375, 35.4875 ], [ 128.1375, 35.5375 ], [ 128.0875, 35.5375 ], [ 128.0875, 35.4875 ], [ 128.1375, 35.4875 ] ] ] } },
{ "type": "Feature", "properties": { "grad_nT_km": 109.1, "tier": "extreme", "score": 0.9 }, "geometry": { "type": "Polygon", "coordinates": [ [ [ 127.1375, 35.5375 ], [ 127.1375, 35.5875 ], [ 127.0875, 35.5875 ], [ 127.0875, 35.5375 ], [ 127.1375, 35.5375 ] ] ] } },
{ "type": "Feature", "properties": { "grad_nT_km": 142.4, "tier": "extreme", "score": 0.6 }, "geometry": { "type": "Polygon", "coordinates": [ [ [ 128.1375, 35.5875 ], [ 128.1375, 35.6375 ], [ 128.0875, 35.6375 ], [ 128.0875, 35.5875 ], [ 128.1375, 35.5875 ] ] ] } },
{ "type": "Feature", "properties": { "grad_nT_km": 120.3, "tier": "extreme", "score": 0.8 }, "geometry": { "type": "Polygon", "coordinates": [ [ [ 128.1875, 35.6375 ], [ 128.1875, 35.6875 ], [ 128.1375, 35.6875 ], [ 128.1375, 35.6375 ], [ 128.1875, 35.6375 ] ] ] } },
{ "type": "Feature", "properties": { "grad_nT_km": 111.6, "tier": "extreme", "score": 0.9 }, "geometry": { "type": "Polygon", "coordinates": [ [ [ 128.5375, 35.6375 ], [ 128.5375, 35.6875 ], [ 128.4875, 35.6875 ], [ 128.4875, 35.6375 ], [ 128.5375, 35.6375 ] ] ] } },
{ "type": "Feature", "properties": { "grad_nT_km": 101.2, "tier": "extreme", "score": 1.0 }, "geometry": { "type": "Polygon", "coordinates": [ [ [ 127.8875, 35.8875 ], [ 127.8875, 35.9375 ], [ 127.8375, 35.9375 ], [ 127.8375, 35.8875 ], [ 127.8875, 35.8875 ] ] ] } },
{ "type": "Feature", "properties": { "grad_nT_km": 127.6, "tier": "extreme", "score": 0.7 }, "geometry": { "type": "Polygon", "coordinates": [ [ [ 127.9375, 35.8875 ], [ 127.9375, 35.9375 ], [ 127.8875, 35.9375 ], [ 127.8875, 35.8875 ], [ 127.9375, 35.8875 ] ] ] } },
{ "type": "Feature", "properties": { "grad_nT_km": 105.9, "tier": "extreme", "score": 0.9 }, "geometry": { "type": "Polygon", "coordinates": [ [ [ 128.8375, 36.1875 ], [ 128.8375, 36.2375 ], [ 128.7875, 36.2375 ], [ 128.7875, 36.1875 ], [ 128.8375, 36.1875 ] ] ] } },
{ "type": "Feature", "properties": { "grad_nT_km": 107.5, "tier": "extreme", "score": 0.9 }, "geometry": { "type": "Polygon", "coordinates": [ [ [ 127.6875, 36.2375 ], [ 127.6875, 36.2875 ], [ 127.6375, 36.2875 ], [ 127.6375, 36.2375 ], [ 127.6875, 36.2375 ] ] ] } },
{ "type": "Feature", "properties": { "grad_nT_km": 106.6, "tier": "extreme", "score": 0.9 }, "geometry": { "type": "Polygon", "coordinates": [ [ [ 129.1375, 36.2375 ], [ 129.1375, 36.2875 ], [ 129.0875, 36.2875 ], [ 129.0875, 36.2375 ], [ 129.1375, 36.2375 ] ] ] } },
{ "type": "Feature", "properties": { "grad_nT_km": 187.1, "tier": "extreme", "score": 0.4 }, "geometry": { "type": "Polygon", "coordinates": [ [ [ 129.1375, 36.2875 ], [ 129.1375, 36.3375 ], [ 129.0875, 36.3375 ], [ 129.0875, 36.2875 ], [ 129.1375, 36.2875 ] ] ] } },
{ "type": "Feature", "properties": { "grad_nT_km": 139.5, "tier": "extreme", "score": 0.6 }, "geometry": { "type": "Polygon", "coordinates": [ [ [ 129.1875, 36.2875 ], [ 129.1875, 36.3375 ], [ 129.1375, 36.3375 ], [ 129.1375, 36.2875 ], [ 129.1875, 36.2875 ] ] ] } },
{ "type": "Feature", "properties": { "grad_nT_km": 124.8, "tier": "extreme", "score": 0.7 }, "geometry": { "type": "Polygon", "coordinates": [ [ [ 127.7875, 36.3375 ], [ 127.7875, 36.3875 ], [ 127.7375, 36.3875 ], [ 127.7375, 36.3375 ], [ 127.7875, 36.3375 ] ] ] } },
{ "type": "Feature", "properties": { "grad_nT_km": 110.0, "tier": "extreme", "score": 0.9 }, "geometry": { "type": "Polygon", "coordinates": [ [ [ 127.8375, 36.7875 ], [ 127.8375, 36.8375 ], [ 127.7875, 36.8375 ], [ 127.7875, 36.7875 ], [ 127.8375, 36.7875 ] ] ] } },
{ "type": "Feature", "properties": { "grad_nT_km": 211.0, "tier": "extreme", "score": 0.3 }, "geometry": { "type": "Polygon", "coordinates": [ [ [ 127.8875, 36.7875 ], [ 127.8875, 36.8375 ], [ 127.8375, 36.8375 ], [ 127.8375, 36.7875 ], [ 127.8875, 36.7875 ] ] ] } },
{ "type": "Feature", "properties": { "grad_nT_km": 108.1, "tier": "extreme", "score": 0.9 }, "geometry": { "type": "Polygon", "coordinates": [ [ [ 127.8875, 36.8375 ], [ 127.8875, 36.8875 ], [ 127.8375, 36.8875 ], [ 127.8375, 36.8375 ], [ 127.8875, 36.8375 ] ] ] } },
{ "type": "Feature", "properties": { "grad_nT_km": 180.3, "tier": "extreme", "score": 0.4 }, "geometry": { "type": "Polygon", "coordinates": [ [ [ 127.9375, 36.8375 ], [ 127.9375, 36.8875 ], [ 127.8875, 36.8875 ], [ 127.8875, 36.8375 ], [ 127.9375, 36.8375 ] ] ] } },
{ "type": "Feature", "properties": { "grad_nT_km": 118.5, "tier": "extreme", "score": 0.8 }, "geometry": { "type": "Polygon", "coordinates": [ [ [ 127.9875, 36.8375 ], [ 127.9875, 36.8875 ], [ 127.9375, 36.8875 ], [ 127.9375, 36.8375 ], [ 127.9875, 36.8375 ] ] ] } },
{ "type": "Feature", "properties": { "grad_nT_km": 138.3, "tier": "extreme", "score": 0.6 }, "geometry": { "type": "Polygon", "coordinates": [ [ [ 127.8875, 36.8875 ], [ 127.8875, 36.9375 ], [ 127.8375, 36.9375 ], [ 127.8375, 36.8875 ], [ 127.8875, 36.8875 ] ] ] } },
{ "type": "Feature", "properties": { "grad_nT_km": 193.7, "tier": "extreme", "score": 0.3 }, "geometry": { "type": "Polygon", "coordinates": [ [ [ 127.9375, 36.8875 ], [ 127.9375, 36.9375 ], [ 127.8875, 36.9375 ], [ 127.8875, 36.8875 ], [ 127.9375, 36.8875 ] ] ] } },
{ "type": "Feature", "properties": { "grad_nT_km": 161.0, "tier": "extreme", "score": 0.5 }, "geometry": { "type": "Polygon", "coordinates": [ [ [ 127.9875, 36.8875 ], [ 127.9875, 36.9375 ], [ 127.9375, 36.9375 ], [ 127.9375, 36.8875 ], [ 127.9875, 36.8875 ] ] ] } },
{ "type": "Feature", "properties": { "grad_nT_km": 139.1, "tier": "extreme", "score": 0.6 }, "geometry": { "type": "Polygon", "coordinates": [ [ [ 127.8875, 36.9375 ], [ 127.8875, 36.9875 ], [ 127.8375, 36.9875 ], [ 127.8375, 36.9375 ], [ 127.8875, 36.9375 ] ] ] } },
{ "type": "Feature", "properties": { "grad_nT_km": 190.4, "tier": "extreme", "score": 0.3 }, "geometry": { "type": "Polygon", "coordinates": [ [ [ 127.9875, 36.9375 ], [ 127.9875, 36.9875 ], [ 127.9375, 36.9875 ], [ 127.9375, 36.9375 ], [ 127.9875, 36.9375 ] ] ] } },
{ "type": "Feature", "properties": { "grad_nT_km": 149.1, "tier": "extreme", "score": 0.5 }, "geometry": { "type": "Polygon", "coordinates": [ [ [ 128.0375, 36.9375 ], [ 128.0375, 36.9875 ], [ 127.9875, 36.9875 ], [ 127.9875, 36.9375 ], [ 128.0375, 36.9375 ] ] ] } },
{ "type": "Feature", "properties": { "grad_nT_km": 134.0, "tier": "extreme", "score": 0.6 }, "geometry": { "type": "Polygon", "coordinates": [ [ [ 127.9875, 36.9875 ], [ 127.9875, 37.0375 ], [ 127.9375, 37.0375 ], [ 127.9375, 36.9875 ], [ 127.9875, 36.9875 ] ] ] } },
{ "type": "Feature", "properties": { "grad_nT_km": 187.3, "tier": "extreme", "score": 0.4 }, "geometry": { "type": "Polygon", "coordinates": [ [ [ 128.0375, 36.9875 ], [ 128.0375, 37.0375 ], [ 127.9875, 37.0375 ], [ 127.9875, 36.9875 ], [ 128.0375, 36.9875 ] ] ] } }
]
}
