{"type":"FeatureCollection","features":[{"type":"Feature","geometry":{"type":"Point","coordinates":[128.639813,34.93608]},"properties":{"mid":"DS-001","name":"거제 신규점1","hq":"경남 본부","grade":"B","verdict":"조건부 적합","bang":"가능","disturb":"차량영향","concl":"조건부 가능 — 현장 재확인 후 결정 (차량영향)","surveyor":"지적기사 조용진","date":"2026-07-23","elev":"233"}},{"type":"Feature","geometry":{"type":"Point","coordinates":[129.01446,36.18508]},"properties":{"mid":"DS-002","name":"기계 신규점","hq":"대구경북 본부","grade":"C","verdict":"부적합","bang":"불가","disturb":"통신시설(6.35m), 방위표지 불가","concl":"부적합 — 방위표지 설치 불가로 대체 후보지 검토","surveyor":"김경재","date":"2026-07-24","elev":"655"}},{"type":"Feature","geometry":{"type":"Point","coordinates":[127.230237,35.604653]},"properties":{"mid":"DS-003","name":"길담 신규점","hq":"전북 본부","grade":"A","verdict":"적합","bang":"가능","disturb":"없음","concl":"선점 가능 — 자기구배 조사 진행","surveyor":"지적기사 강순석","date":"2026-07-16","elev":"281"}},{"type":"Feature","geometry":{"type":"Point","coordinates":[127.981473,34.852281]},"properties":{"mid":"DS-004","name":"남해 신규점1","hq":"경남 본부","grade":"A","verdict":"적합","bang":"가능","disturb":"없음","concl":"선점 가능 — 자기구배 조사 진행","surveyor":"지적기사 양동원","date":"2026-07-29","elev":"262"}},{"type":"Feature","geometry":{"type":"Point","coordinates":[127.966073,34.78318]},"properties":{"mid":"DS-005","name":"남해 신규점2","hq":"경남 본부","grade":"C","verdict":"부적합","bang":"불가","disturb":"차량영향, 자연환경, 방위표지 불가","concl":"부적합 — 방위표지 설치 불가로 대체 후보지 검토","surveyor":"지적기사 양동원","date":"2026-07-29","elev":"165"}},{"type":"Feature","geometry":{"type":"Point","coordinates":[126.932401,36.601356]},"properties":{"mid":"DS-006","name":"예산 신규점1","hq":"대전세종충남 본부","grade":"C","verdict":"조건부 적합","bang":"불가","disturb":"자연환경, 방위표지 불가","concl":"부적합 — 방위표지 설치 불가로 대체 후보지 검토","surveyor":"지적기사 윤병선","date":"2026-07-29","elev":"225"}},{"type":"Feature","geometry":{"type":"Point","coordinates":[129.022881,35.647139]},"properties":{"mid":"DS-007","name":"언양 신규점1","hq":"대구경북 본부","grade":"B","verdict":"조건부 적합","bang":"가능","disturb":"금속류(1.1m), 자연환경","concl":"조건부 가능 — 현장 재확인 후 결정 (금속류(1.1m), 자연환경)","surveyor":"지적기사 이재성","date":"2026-07-22","elev":"530"}},{"type":"Feature","geometry":{"type":"Point","coordinates":[128.98393,37.020705]},"properties":{"mid":"DS-008","name":"태백 신규점","hq":"대구경북 본부","grade":"A","verdict":"적합","bang":"가능","disturb":"없음","concl":"선점 가능 — 자기구배 조사 진행","surveyor":"지적기사 권홍순","date":"2026-07-28","elev":"872"}},{"type":"Feature","geometry":{"type":"Point","coordinates":[129.289507,37.047186]},"properties":{"mid":"DS-009","name":"죽변 신규점2","hq":"대구경북 본부","grade":"B","verdict":"조건부 적합","bang":"가능","disturb":"자연환경","concl":"조건부 가능 — 현장 재확인 후 결정 (자연환경)","surveyor":"지적기사 정진희","date":"2026-07-22","elev":"216"}},{"type":"Feature","geometry":{"type":"Point","coordinates":[129.30718,36.889907]},"properties":{"mid":"DS-010","name":"울진 신규점1","hq":"대구경북 본부","grade":"B","verdict":"조건부 적합","bang":"가능","disturb":"자연환경","concl":"조건부 가능 — 현장 재확인 후 결정 (자연환경)","surveyor":"지적기사 정진희","date":"2026-07-27","elev":"221"}},{"type":"Feature","geometry":{"type":"Point","coordinates":[129.318345,36.94661]},"properties":{"mid":"DS-011","name":"울진 신규점2","hq":"대구경북 본부","grade":"C","verdict":"부적합","bang":"가능","disturb":"자연환경","concl":"부적합 — 대체 후보지 검토 (자연환경)","surveyor":"지적기사 정진희","date":"2026-07-22","elev":"348"}},{"type":"Feature","geometry":{"type":"Point","coordinates":[129.099267,35.664464]},"properties":{"mid":"DS-012","name":"언양 신규점2","hq":"부산울산 본부","grade":"B","verdict":"조건부 적합","bang":"가능","disturb":"차량영향(1.5m), 자연환경(5m)","concl":"조건부 가능 — 현장 재확인 후 결정 (차량영향(1.5m), 자연환경(5m))","surveyor":"김병우","date":"2026-07-22","elev":"613"}},{"type":"Feature","geometry":{"type":"Point","coordinates":[128.1698,37.618578]},"properties":{"mid":"DS-013","name":"청일 신규점2","hq":"강원 본부","grade":"A","verdict":"적합","bang":"가능","disturb":"없음","concl":"선점 가능 — 자기구배 조사 진행","surveyor":"지적기사 서세덕","date":"2026-07-21","elev":"372"}},{"type":"Feature","geometry":{"type":"Point","coordinates":[128.075858,37.776326]},"properties":{"mid":"DS-014","name":"어론 신규점","hq":"강원 본부","grade":"A","verdict":"적합","bang":"가능","disturb":"없음","concl":"선점 가능 — 자기구배 조사 진행","surveyor":"지적기사 배성도","date":"2026-07-14","elev":"532"}},{"type":"Feature","geometry":{"type":"Point","coordinates":[128.973865,37.359346]},"properties":{"mid":"DS-015","name":"임계 신규점1","hq":"강원 본부","grade":"A","verdict":"적합","bang":"가능","disturb":"없음","concl":"선점 가능 — 자기구배 조사 진행","surveyor":"지적기사 성기철","date":"2026-07-31","elev":"844"}},{"type":"Feature","geometry":{"type":"Point","coordinates":[128.941837,37.394363]},"properties":{"mid":"DS-016","name":"임계 신규점2","hq":"강원 본부","grade":"A","verdict":"적합","bang":"가능","disturb":"없음","concl":"선점 가능 — 자기구배 조사 진행","surveyor":"지적기사 성기철","date":"2026-07-31","elev":"763"}},{"type":"Feature","geometry":{"type":"Point","coordinates":[128.544986,37.929111]},"properties":{"mid":"DS-017","name":"연곡 신규점1","hq":"강원 본부","grade":"C","verdict":"부적합","bang":"가능","disturb":"차량영향(1m), 전력시설(4m), 자연환경(2m)","concl":"부적합 — 대체 후보지 검토 (차량영향(1m), 전력시설(4m), 자연환경(2m))","surveyor":"지적기사 민우홍","date":"2026-07-22","elev":"457"}},{"type":"Feature","geometry":{"type":"Point","coordinates":[128.57246,37.810851]},"properties":{"mid":"DS-018","name":"연곡 신규점2","hq":"강원 본부","grade":"B","verdict":"조건부 적합","bang":"가능","disturb":"차량영향(0.2m)","concl":"조건부 가능 — 현장 재확인 후 결정 (차량영향(0.2m))","surveyor":"지적기사 배성도","date":"2026-07-27","elev":"1302"}},{"type":"Feature","geometry":{"type":"Point","coordinates":[129.190932,37.182081]},"properties":{"mid":"DS-019","name":"장성 신규점2","hq":"강원 본부","grade":"B","verdict":"조건부 적합","bang":"가능","disturb":"자연환경","concl":"조건부 가능 — 현장 재확인 후 결정 (자연환경)","surveyor":"지적기사 성기철","date":"2026-07-31","elev":"500"}},{"type":"Feature","geometry":{"type":"Point","coordinates":[128.853559,36.745399]},"properties":{"mid":"DS-020","name":"예안 신규점1","hq":"대구경북 본부","grade":"A","verdict":"적합","bang":"가능","disturb":"없음","concl":"선점 가능 — 자기구배 조사 진행","surveyor":"김선철","date":"2026-07-24","elev":"293"}},{"type":"Feature","geometry":{"type":"Point","coordinates":[129.275847,37.002863]},"properties":{"mid":"DS-021","name":"죽변 신규점","hq":"대구경북 본부","grade":"B","verdict":"조건부 적합","bang":"가능","disturb":"자연환경","concl":"조건부 가능 — 현장 재확인 후 결정 (자연환경)","surveyor":"지적기사 정진희","date":"2026-07-22","elev":"290"}},{"type":"Feature","geometry":{"type":"Point","coordinates":[128.903612,35.576305]},"properties":{"mid":"DS-022","name":"동곡 신규점1","hq":"경남 본부","grade":"B","verdict":"조건부 적합","bang":"가능","disturb":"자연환경","concl":"조건부 가능 — 현장 재확인 후 결정 (자연환경)","surveyor":"지적기사 강도형","date":"2026-07-28","elev":"456"}},{"type":"Feature","geometry":{"type":"Point","coordinates":[129.17479,36.987658]},"properties":{"mid":"DS-023","name":"소천 신규점1","hq":"대구경북 본부","grade":"B","verdict":"조건부 적합","bang":"가능","disturb":"자연환경","concl":"조건부 가능 — 현장 재확인 후 결정 (자연환경)","surveyor":"지적기사 정진희","date":"2026-07-27","elev":"551"}},{"type":"Feature","geometry":{"type":"Point","coordinates":[129.243211,36.912772]},"properties":{"mid":"DS-024","name":"소천 신규점2","hq":"대구경북 본부","grade":"B","verdict":"조건부 적합","bang":"가능","disturb":"통신시설(193m), 자연환경","concl":"조건부 가능 — 현장 재확인 후 결정 (통신시설(193m), 자연환경)","surveyor":"지적기사 정진희","date":"2026-07-27","elev":"575"}},{"type":"Feature","geometry":{"type":"Point","coordinates":[129.154341,36.765848]},"properties":{"mid":"DS-025","name":"소천 신규점4","hq":"대구경북 본부","grade":"A","verdict":"적합","bang":"가능","disturb":"없음","concl":"선점 가능 — 자기구배 조사 진행","surveyor":"김경재","date":"2026-07-27","elev":"380"}},{"type":"Feature","geometry":{"type":"Point","coordinates":[129.21804,36.79866]},"properties":{"mid":"DS-026","name":"소천 신규점3","hq":"대구경북 본부","grade":"B","verdict":"조건부 적합","bang":"가능","disturb":"전력시설(2.73m)","concl":"조건부 가능 — 현장 재확인 후 결정 (전력시설(2.73m))","surveyor":"김경재","date":"2026-07-27","elev":"531"}},{"type":"Feature","geometry":{"type":"Point","coordinates":[128.843391,35.593365]},"properties":{"mid":"DS-027","name":"동곡 신규점2","hq":"대구경북 본부","grade":"B","verdict":"조건부 적합","bang":"가능","disturb":"자연환경","concl":"조건부 가능 — 현장 재확인 후 결정 (자연환경)","surveyor":"지적기사 이재성","date":"2026-07-22","elev":"321"}},{"type":"Feature","geometry":{"type":"Point","coordinates":[127.954624,35.943135]},"properties":{"mid":"DS-028","name":"무풍 신규점2","hq":"대구경북 본부","grade":"B","verdict":"조건부 적합","bang":"가능","disturb":"통신시설(187m)","concl":"조건부 가능 — 현장 재확인 후 결정 (통신시설(187m))","surveyor":"지적기사 김재학","date":"2026-07-28","elev":"343"}},{"type":"Feature","geometry":{"type":"Point","coordinates":[128.166134,37.662931]},"properties":{"mid":"DS-029","name":"청일 신규점1","hq":"강원 본부","grade":"B","verdict":"조건부 적합","bang":"가능","disturb":"차량영향(0.2m), 자연환경(0.5m)","concl":"조건부 가능 — 현장 재확인 후 결정 (차량영향(0.2m), 자연환경(0.5m))","surveyor":"지적기사 배성도","date":"2026-07-14","elev":"479"}},{"type":"Feature","geometry":{"type":"Point","coordinates":[127.092148,35.284821]},"properties":{"mid":"DS-030","name":"순창 신규점","hq":"광주전남 본부","grade":"A","verdict":"적합","bang":"가능","disturb":"없음","concl":"선점 가능 — 자기구배 조사 진행","surveyor":"지적기사 김진환","date":"2026-07-20","elev":"219"}},{"type":"Feature","geometry":{"type":"Point","coordinates":[127.294737,34.904713]},"properties":{"mid":"DS-031","name":"순천 신규점","hq":"광주전남 본부","grade":"A","verdict":"적합","bang":"가능","disturb":"없음","concl":"선점 가능 — 자기구배 조사 진행","surveyor":"지적기사 이영관","date":"2026-07-15","elev":"301"}},{"type":"Feature","geometry":{"type":"Point","coordinates":[128.425275,37.725775]},"properties":{"mid":"DS-032","name":"봉평 신규점1","hq":"강원 본부","grade":"B","verdict":"조건부 적합","bang":"가능","disturb":"차량영향(0.8m), 자연환경(1m)","concl":"조건부 가능 — 현장 재확인 후 결정 (차량영향(0.8m), 자연환경(1m))","surveyor":"지적기사 배성도","date":"2026-07-22","elev":"787"}},{"type":"Feature","geometry":{"type":"Point","coordinates":[129.145795,36.382888]},"properties":{"mid":"DS-033","name":"청송 신규점1","hq":"대구경북 본부","grade":"A","verdict":"적합","bang":"가능","disturb":"없음","concl":"선점 가능 — 자기구배 조사 진행","surveyor":"김경재","date":"2026-07-24","elev":"313"}},{"type":"Feature","geometry":{"type":"Point","coordinates":[129.16841,36.377461]},"properties":{"mid":"DS-034","name":"청송 신규점2","hq":"대구경북 본부","grade":"B","verdict":"조건부 적합","bang":"가능","disturb":"금속류(0.4m)","concl":"조건부 가능 — 현장 재확인 후 결정 (금속류(0.4m))","surveyor":"김경재","date":"2026-07-24","elev":"376"}},{"type":"Feature","geometry":{"type":"Point","coordinates":[128.508751,36.4767]},"properties":{"mid":"DS-035","name":"의성 신규점","hq":"대구경북 본부","grade":"A","verdict":"적합","bang":"가능","disturb":"없음","concl":"선점 가능 — 자기구배 조사 진행","surveyor":"정진열","date":"2026-07-22","elev":"179"}},{"type":"Feature","geometry":{"type":"Point","coordinates":[128.494519,36.50939]},"properties":{"mid":"DS-036","name":"예천 신규점","hq":"대구경북 본부","grade":"A","verdict":"적합","bang":"가능","disturb":"없음","concl":"선점 가능 — 자기구배 조사 진행","surveyor":"정진열","date":"2026-07-22","elev":"160"}},{"type":"Feature","geometry":{"type":"Point","coordinates":[129.244274,36.748581]},"properties":{"mid":"DS-037","name":"영양 신규점1","hq":"대구경북 본부","grade":"B","verdict":"조건부 적합","bang":"가능","disturb":"금속류(6.15m), 건축물(2.18m)","concl":"조건부 가능 — 현장 재확인 후 결정 (금속류(6.15m), 건축물(2.18m))","surveyor":"김경재","date":"2026-07-27","elev":"677"}},{"type":"Feature","geometry":{"type":"Point","coordinates":[129.217259,36.695112]},"properties":{"mid":"DS-038","name":"영양신규점2","hq":"대구경북 본부","grade":"A","verdict":"적합","bang":"가능","disturb":"없음","concl":"선점 가능 — 자기구배 조사 진행","surveyor":"김경재","date":"2026-07-27","elev":"420"}},{"type":"Feature","geometry":{"type":"Point","coordinates":[129.240659,36.721964]},"properties":{"mid":"DS-039","name":"영양 신규점3","hq":"대구경북 본부","grade":"B","verdict":"조건부 적합","bang":"가능","disturb":"금속류(6.44m, 10.81mm), 건축물(7.2mm)","concl":"조건부 가능 — 현장 재확인 후 결정 (금속류(6.44m, 10.81mm), 건축물(7.2mm))","surveyor":"김경재","date":"2026-07-27","elev":"488"}},{"type":"Feature","geometry":{"type":"Point","coordinates":[129.181307,36.743626]},"properties":{"mid":"DS-040","name":"영양 신규점4","hq":"대구경북 본부","grade":"A","verdict":"적합","bang":"가능","disturb":"없음","concl":"선점 가능 — 자기구배 조사 진행","surveyor":"김경재","date":"2026-07-27","elev":"512"}},{"type":"Feature","geometry":{"type":"Point","coordinates":[129.183013,36.662401]},"properties":{"mid":"DS-041","name":"영양 신규점5","hq":"대구경북 본부","grade":"C","verdict":"부적합","bang":"가능","disturb":"차량영향, 전력시설(4.36m), 금속류(5.3m), 건축물(5.17m, 13.33mm), 자연환경","concl":"부적합 — 대체 후보지 검토 (차량영향, 전력시설(4.36m), 금속류(5.3m), 건축물(5.17m, 13.33mm), 자연환경)","surveyor":"김경재","date":"2026-07-27","elev":"411"}},{"type":"Feature","geometry":{"type":"Point","coordinates":[129.1728,36.628032]},"properties":{"mid":"DS-042","name":"영양 신규점6","hq":"대구경북 본부","grade":"A","verdict":"적합","bang":"가능","disturb":"없음","concl":"선점 가능 — 자기구배 조사 진행","surveyor":"김경재","date":"2026-07-27","elev":"324"}},{"type":"Feature","geometry":{"type":"Point","coordinates":[128.947955,35.791588]},"properties":{"mid":"DS-043","name":"영천 기존점","hq":"대구경북 본부","grade":"B","verdict":"조건부 적합","bang":"가능","disturb":"금속류(1.5m)","concl":"조건부 가능 — 현장 재확인 후 결정 (금속류(1.5m))","surveyor":"지적기사 최익제","date":"2026-07-28","elev":"565"}},{"type":"Feature","geometry":{"type":"Point","coordinates":[129.159949,37.225027]},"properties":{"mid":"DS-044","name":"장성 신규점1","hq":"강원 본부","grade":"C","verdict":"조건부 적합","bang":"불가","disturb":"자연환경, 방위표지 불가","concl":"부적합 — 방위표지 설치 불가로 대체 후보지 검토","surveyor":"지적기사 성기철","date":"2026-07-30","elev":"519"}},{"type":"Feature","geometry":{"type":"Point","coordinates":[128.393827,34.792976]},"properties":{"mid":"DS-045","name":"통영 신규점","hq":"경남 본부","grade":"A","verdict":"적합","bang":"가능","disturb":"없음","concl":"선점 가능 — 자기구배 조사 진행","surveyor":"성종문","date":"2026-07-22","elev":"79"}},{"type":"Feature","geometry":{"type":"Point","coordinates":[128.521755,38.318869]},"properties":{"mid":"DS-046","name":"오호 신규점","hq":"강원 본부","grade":"A","verdict":"적합","bang":"가능","disturb":"없음","concl":"선점 가능 — 자기구배 조사 진행","surveyor":"지적기술사 박남근","date":"2026-07-21","elev":"21"}},{"type":"Feature","geometry":{"type":"Point","coordinates":[127.68669,38.115564]},"properties":{"mid":"DS-047","name":"화천 기존점","hq":"강원 본부","grade":"A","verdict":"적합","bang":"가능","disturb":"없음","concl":"선점 가능 — 자기구배 조사 진행","surveyor":"지적기사 오승훈","date":"2026-07-16","elev":"130"}},{"type":"Feature","geometry":{"type":"Point","coordinates":[126.69363,36.257025]},"properties":{"mid":"DS-048","name":"보령 신규점1","hq":"대전세종충남 본부","grade":"C","verdict":"조건부 적합","bang":"불가","disturb":"자연환경, 방위표지 불가","concl":"부적합 — 방위표지 설치 불가로 대체 후보지 검토","surveyor":"지적기사 윤병선","date":"2026-07-27","elev":"278"}},{"type":"Feature","geometry":{"type":"Point","coordinates":[126.706961,36.266844]},"properties":{"mid":"DS-049","name":"보령 신규점2","hq":"대전세종충남 본부","grade":"A","verdict":"적합","bang":"가능","disturb":"없음","concl":"선점 가능 — 자기구배 조사 진행","surveyor":"지적기사 윤병선","date":"2026-07-27","elev":"277"}},{"type":"Feature","geometry":{"type":"Point","coordinates":[126.93039,35.477978]},"properties":{"mid":"DS-050","name":"담양 신규점1","hq":"전북 본부","grade":"A","verdict":"적합","bang":"가능","disturb":"없음","concl":"선점 가능 — 자기구배 조사 진행","surveyor":"지적기사 강순석","date":"2026-07-16","elev":"383"}},{"type":"Feature","geometry":{"type":"Point","coordinates":[126.962054,35.456101]},"properties":{"mid":"DS-051","name":"담양 신규점2","hq":"전북 본부","grade":"A","verdict":"적합","bang":"가능","disturb":"없음","concl":"선점 가능 — 자기구배 조사 진행","surveyor":"지적기사 강순석","date":"2026-07-16","elev":"350"}},{"type":"Feature","geometry":{"type":"Point","coordinates":[126.271593,33.206947]},"properties":{"mid":"DS-052","name":"모슬포 신규점1","hq":"제주 본부","grade":"B","verdict":"조건부 적합","bang":"가능","disturb":"통신시설(733.73m)","concl":"조건부 가능 — 현장 재확인 후 결정 (통신시설(733.73m))","surveyor":"지적기사 이영탁","date":"2026-07-15","elev":"10"}},{"type":"Feature","geometry":{"type":"Point","coordinates":[128.324542,37.711878]},"properties":{"mid":"DS-053","name":"봉평 신규점2","hq":"강원 본부","grade":"B","verdict":"조건부 적합","bang":"가능","disturb":"차량영향(1m), 자연환경(0.5m)","concl":"조건부 가능 — 현장 재확인 후 결정 (차량영향(1m), 자연환경(0.5m))","surveyor":"지적기사 배성도","date":"2026-07-22","elev":"771"}},{"type":"Feature","geometry":{"type":"Point","coordinates":[129.158275,37.056755]},"properties":{"mid":"DS-054","name":"장성 신규점3","hq":"대구경북 본부","grade":"C","verdict":"부적합","bang":"불가","disturb":"차량영향, 자연환경(3mm), 방위표지 불가","concl":"부적합 — 방위표지 설치 불가로 대체 후보지 검토","surveyor":"지적기사 권홍순","date":"2026-07-28","elev":"702"}},{"type":"Feature","geometry":{"type":"Point","coordinates":[126.543215,34.328826]},"properties":{"mid":"DS-055","name":"완도 신규점","hq":"광주전남 본부","grade":"A","verdict":"적합","bang":"가능","disturb":"없음","concl":"선점 가능 — 자기구배 조사 진행","surveyor":"황은규","date":"2026-07-16","elev":"131"}},{"type":"Feature","geometry":{"type":"Point","coordinates":[128.80375,36.786156]},"properties":{"mid":"DS-056","name":"춘양 신규점1","hq":"대구경북 본부","grade":"B","verdict":"조건부 적합","bang":"가능","disturb":"자연환경","concl":"조건부 가능 — 현장 재확인 후 결정 (자연환경)","surveyor":"김선철","date":"2026-07-24","elev":"469"}},{"type":"Feature","geometry":{"type":"Point","coordinates":[128.192739,36.888529]},"properties":{"mid":"DS-057","name":"덕산 신규점1","hq":"충북 본부","grade":"A","verdict":"적합","bang":"가능","disturb":"없음","concl":"선점 가능 — 자기구배 조사 진행","surveyor":"안덕모","date":"2026-07-16","elev":"388"}},{"type":"Feature","geometry":{"type":"Point","coordinates":[127.577283,35.24659]},"properties":{"mid":"DS-058","name":"하동 신규점","hq":"광주전남 본부","grade":"B","verdict":"조건부 적합","bang":"가능","disturb":"자연환경(2mm)","concl":"조건부 가능 — 현장 재확인 후 결정 (자연환경(2mm))","surveyor":"지적기사 이상록","date":"2026-07-23","elev":"411"}},{"type":"Feature","geometry":{"type":"Point","coordinates":[127.175037,34.703363]},"properties":{"mid":"DS-059","name":"회천 신규점1","hq":"광주전남 본부","grade":"A","verdict":"적합","bang":"가능","disturb":"없음","concl":"선점 가능 — 자기구배 조사 진행","surveyor":"구경란","date":"2026-07-15","elev":"122"}},{"type":"Feature","geometry":{"type":"Point","coordinates":[127.04766,34.680805]},"properties":{"mid":"DS-060","name":"회천 신규점2","hq":"광주전남 본부","grade":"A","verdict":"적합","bang":"가능","disturb":"없음","concl":"선점 가능 — 자기구배 조사 진행","surveyor":"구경란","date":"2026-07-15","elev":"99"}},{"type":"Feature","geometry":{"type":"Point","coordinates":[127.904644,36.636223]},"properties":{"mid":"DS-061","name":"속리 신규점1","hq":"충북 본부","grade":"C","verdict":"부적합","bang":"가능","disturb":"자연환경","concl":"부적합 — 대체 후보지 검토 (자연환경)","surveyor":"김형섭","date":"2026-07-24","elev":"310"}},{"type":"Feature","geometry":{"type":"Point","coordinates":[127.900781,36.642005]},"properties":{"mid":"DS-062","name":"속리 신규점2","hq":"충북 본부","grade":"B","verdict":"조건부 적합","bang":"가능","disturb":"통신시설(67m), 건축물(115m)","concl":"조건부 가능 — 현장 재확인 후 결정 (통신시설(67m), 건축물(115m))","surveyor":"김형섭","date":"2026-07-24","elev":"293"}},{"type":"Feature","geometry":{"type":"Point","coordinates":[127.959371,36.667756]},"properties":{"mid":"DS-063","name":"속리 신규점3","hq":"대구경북 본부","grade":"B","verdict":"조건부 적합","bang":"가능","disturb":"통신시설(28m)","concl":"조건부 가능 — 현장 재확인 후 결정 (통신시설(28m))","surveyor":"지적기사 서명환","date":"2026-07-24","elev":"331"}},{"type":"Feature","geometry":{"type":"Point","coordinates":[127.794977,36.59604]},"properties":{"mid":"DS-064","name":"속리 신규점4","hq":"충북 본부","grade":"B","verdict":"조건부 적합","bang":"가능","disturb":"자연환경","concl":"조건부 가능 — 현장 재확인 후 결정 (자연환경)","surveyor":"민을기","date":"2026-07-16","elev":"394"}},{"type":"Feature","geometry":{"type":"Point","coordinates":[127.808051,36.570538]},"properties":{"mid":"DS-065","name":"속리 신규점5","hq":"충북 본부","grade":"B","verdict":"조건부 적합","bang":"가능","disturb":"자연환경","concl":"조건부 가능 — 현장 재확인 후 결정 (자연환경)","surveyor":"민을기","date":"2026-07-16","elev":"428"}},{"type":"Feature","geometry":{"type":"Point","coordinates":[127.912069,36.485623]},"properties":{"mid":"DS-066","name":"관기 신규점1","hq":"대구경북 본부","grade":"B","verdict":"조건부 적합","bang":"가능","disturb":"건축물(13.82m)","concl":"조건부 가능 — 현장 재확인 후 결정 (건축물(13.82m))","surveyor":"지적산업기사 김영호","date":"2026-07-23","elev":"331"}},{"type":"Feature","geometry":{"type":"Point","coordinates":[127.969736,36.480093]},"properties":{"mid":"DS-067","name":"관기 신규점2","hq":"대구경북 본부","grade":"B","verdict":"조건부 적합","bang":"가능","disturb":"자연환경","concl":"조건부 가능 — 현장 재확인 후 결정 (자연환경)","surveyor":"지적산업기사 김영호","date":"2026-07-23","elev":"305"}},{"type":"Feature","geometry":{"type":"Point","coordinates":[127.905982,36.325755]},"properties":{"mid":"DS-068","name":"관리 신규점3","hq":"대구경북 본부","grade":"A","verdict":"적합","bang":"가능","disturb":"없음","concl":"선점 가능 — 자기구배 조사 진행","surveyor":"지적산업기사 김영호","date":"2026-07-23","elev":"383"}},{"type":"Feature","geometry":{"type":"Point","coordinates":[127.90007,36.278563]},"properties":{"mid":"DS-069","name":"관기 신규점4","hq":"충북 본부","grade":"C","verdict":"부적합","bang":"불가","disturb":"매설물, 자연환경, 방위표지 불가","concl":"부적합 — 방위표지 설치 불가로 대체 후보지 검토","surveyor":"정헌성","date":"2026-07-13","elev":"309"}},{"type":"Feature","geometry":{"type":"Point","coordinates":[128.280504,37.766065]},"properties":{"mid":"DS-070","name":"현리 신규점","hq":"강원 본부","grade":"B","verdict":"조건부 적합","bang":"가능","disturb":"차량영향(0.3m)","concl":"조건부 가능 — 현장 재확인 후 결정 (차량영향(0.3m))","surveyor":"지적기사 배성도","date":"2026-07-22","elev":"738"}},{"type":"Feature","geometry":{"type":"Point","coordinates":[129.260597,36.317802]},"properties":{"mid":"DS-071","name":"영덕 신규점2","hq":"대구경북 본부","grade":"B","verdict":"조건부 적합","bang":"가능","disturb":"차량영향","concl":"조건부 가능 — 현장 재확인 후 결정 (차량영향)","surveyor":"지적기사 최차환","date":"2026-07-23","elev":"254"}},{"type":"Feature","geometry":{"type":"Point","coordinates":[129.303139,36.323999]},"properties":{"mid":"DS-072","name":"영덕 신규점1","hq":"대구경북 본부","grade":"B","verdict":"조건부 적합","bang":"가능","disturb":"금속류(7.5mm)","concl":"조건부 가능 — 현장 재확인 후 결정 (금속류(7.5mm))","surveyor":"지적기사 정창수","date":"2026-07-27","elev":"261"}},{"type":"Feature","geometry":{"type":"Point","coordinates":[128.824188,36.445647]},"properties":{"mid":"DS-073","name":"길안 신규점","hq":"대구경북 본부","grade":"B","verdict":"조건부 적합","bang":"가능","disturb":"전력시설(23m), 건축물(30m)","concl":"조건부 가능 — 현장 재확인 후 결정 (전력시설(23m), 건축물(30m))","surveyor":"정진열","date":"2026-07-22","elev":"273"}},{"type":"Feature","geometry":{"type":"Point","coordinates":[126.355314,36.426707]},"properties":{"mid":"DS-074","name":"고남 신규점1","hq":"대전세종충남 본부","grade":"B","verdict":"조건부 적합","bang":"가능","disturb":"매설물","concl":"조건부 가능 — 현장 재확인 후 결정 (매설물)","surveyor":"지적기사 윤병선","date":"2026-07-27","elev":"13"}},{"type":"Feature","geometry":{"type":"Point","coordinates":[126.395802,36.452304]},"properties":{"mid":"DS-075","name":"고남 신규점2","hq":"대전세종충남 본부","grade":"A","verdict":"적합","bang":"가능","disturb":"없음","concl":"선점 가능 — 자기구배 조사 진행","surveyor":"지적기사 윤병선","date":"2026-07-27","elev":"38"}},{"type":"Feature","geometry":{"type":"Point","coordinates":[126.936269,36.534085]},"properties":{"mid":"DS-076","name":"예산 신규점2","hq":"대전세종충남 본부","grade":"A","verdict":"적합","bang":"가능","disturb":"없음","concl":"선점 가능 — 자기구배 조사 진행","surveyor":"지적기사 윤병선","date":"2026-07-29","elev":"116"}},{"type":"Feature","geometry":{"type":"Point","coordinates":[128.870288,36.514413]},"properties":{"mid":"DS-077","name":"예안 신규점2","hq":"대구경북 본부","grade":"B","verdict":"조건부 적합","bang":"가능","disturb":"매설물(2.3m)","concl":"조건부 가능 — 현장 재확인 후 결정 (매설물(2.3m))","surveyor":"김선철","date":"2026-07-24","elev":"182"}},{"type":"Feature","geometry":{"type":"Point","coordinates":[127.068702,36.579379]},"properties":{"mid":"DS-078","name":"전의 신규점","hq":"대전세종충남 본부","grade":"A","verdict":"적합","bang":"가능","disturb":"없음","concl":"선점 가능 — 자기구배 조사 진행","surveyor":"지적기사 윤병선","date":"2026-07-29","elev":"372"}},{"type":"Feature","geometry":{"type":"Point","coordinates":[126.994456,36.58351]},"properties":{"mid":"DS-079","name":"예산 신규점3","hq":"대전세종충남 본부","grade":"A","verdict":"적합","bang":"가능","disturb":"없음","concl":"선점 가능 — 자기구배 조사 진행","surveyor":"지적기사 윤병선","date":"2026-07-29","elev":"327"}},{"type":"Feature","geometry":{"type":"Point","coordinates":[127.583121,36.16662]},"properties":{"mid":"DS-080","name":"이원 신규점","hq":"대전세종충남 본부","grade":"A","verdict":"적합","bang":"가능","disturb":"없음","concl":"선점 가능 — 자기구배 조사 진행","surveyor":"지적기사 윤병선","date":"2026-07-28","elev":"300"}},{"type":"Feature","geometry":{"type":"Point","coordinates":[127.309017,35.891309]},"properties":{"mid":"DS-081","name":"진안 신규점1","hq":"전북 본부","grade":"A","verdict":"적합","bang":"가능","disturb":"없음","concl":"선점 가능 — 자기구배 조사 진행","surveyor":"지적기사 김영두","date":"2026-07-15","elev":"297"}},{"type":"Feature","geometry":{"type":"Point","coordinates":[127.260474,35.90427]},"properties":{"mid":"DS-082","name":"진안 신규점2","hq":"전북 본부","grade":"A","verdict":"적합","bang":"가능","disturb":"없음","concl":"선점 가능 — 자기구배 조사 진행","surveyor":"지적기사 조유찬","date":"2026-07-15","elev":"354"}},{"type":"Feature","geometry":{"type":"Point","coordinates":[127.800855,35.945212]},"properties":{"mid":"DS-083","name":"무풍 신규점1","hq":"전북 본부","grade":"A","verdict":"적합","bang":"가능","disturb":"없음","concl":"선점 가능 — 자기구배 조사 진행","surveyor":"지적기사 전재현","date":"2026-07-24","elev":"584"}},{"type":"Feature","geometry":{"type":"Point","coordinates":[128.036833,35.777986]},"properties":{"mid":"DS-084","name":"가야 신규점1","hq":"경남 본부","grade":"A","verdict":"적합","bang":"가능","disturb":"없음","concl":"선점 가능 — 자기구배 조사 진행","surveyor":"지적기사 염주석","date":"2026-07-22","elev":"825"}},{"type":"Feature","geometry":{"type":"Point","coordinates":[128.117721,35.764978]},"properties":{"mid":"DS-085","name":"가야 신규점2","hq":"경남 본부","grade":"B","verdict":"조건부 적합","bang":"가능","disturb":"차량영향(0.5m), 자연환경","concl":"조건부 가능 — 현장 재확인 후 결정 (차량영향(0.5m), 자연환경)","surveyor":"지적기사 오연진","date":"2026-07-24","elev":"450"}},{"type":"Feature","geometry":{"type":"Point","coordinates":[128.298099,35.662586]},"properties":{"mid":"DS-086","name":"창녕 신규점","hq":"대구경북 본부","grade":"A","verdict":"적합","bang":"가능","disturb":"없음","concl":"선점 가능 — 자기구배 조사 진행","surveyor":"지적기사 여대동","date":"2026-07-23","elev":"179"}},{"type":"Feature","geometry":{"type":"Point","coordinates":[128.217471,35.639682]},"properties":{"mid":"DS-087","name":"합천 신규점","hq":"경남 본부","grade":"C","verdict":"부적합","bang":"가능","disturb":"차량영향(0.5m), 자연환경","concl":"부적합 — 대체 후보지 검토 (차량영향(0.5m), 자연환경)","surveyor":"지적기사 오연진","date":"2026-07-24","elev":"207"}},{"type":"Feature","geometry":{"type":"Point","coordinates":[129.045093,35.785724]},"properties":{"mid":"DS-088","name":"경주 신규점","hq":"대구경북 본부","grade":"B","verdict":"조건부 적합","bang":"가능","disturb":"자연환경","concl":"조건부 가능 — 현장 재확인 후 결정 (자연환경)","surveyor":"지적기사 김상민","date":"2026-07-20","elev":"397"}},{"type":"Feature","geometry":{"type":"Point","coordinates":[129.029824,35.742364]},"properties":{"mid":"DS-089","name":"언양 신규점3","hq":"대구경북 본부","grade":"A","verdict":"적합","bang":"가능","disturb":"없음","concl":"선점 가능 — 자기구배 조사 진행","surveyor":"지적기사 김상민","date":"2026-07-20","elev":"234"}},{"type":"Feature","geometry":{"type":"Point","coordinates":[128.990047,35.445836]},"properties":{"mid":"DS-090","name":"밀양 신규점2","hq":"경남 본부","grade":"B","verdict":"조건부 적합","bang":"가능","disturb":"자연환경","concl":"조건부 가능 — 현장 재확인 후 결정 (자연환경)","surveyor":"최종철","date":"2026-07-22","elev":"551"}},{"type":"Feature","geometry":{"type":"Point","coordinates":[128.888897,35.47226]},"properties":{"mid":"DS-091","name":"밀양 신규점1","hq":"경남 본부","grade":"B","verdict":"조건부 적합","bang":"가능","disturb":"자연환경","concl":"조건부 가능 — 현장 재확인 후 결정 (자연환경)","surveyor":"지적기사 강도형","date":"2026-07-28","elev":"473"}},{"type":"Feature","geometry":{"type":"Point","coordinates":[127.78205,35.310785]},"properties":{"mid":"DS-092","name":"산청 신규점","hq":"경남 본부","grade":"B","verdict":"조건부 적합","bang":"가능","disturb":"차량영향, 자연환경","concl":"조건부 가능 — 현장 재확인 후 결정 (차량영향, 자연환경)","surveyor":"지적산업기사 강석화","date":"2026-07-29","elev":"650"}},{"type":"Feature","geometry":{"type":"Point","coordinates":[128.67123,34.826398]},"properties":{"mid":"DS-093","name":"거제 신규점2","hq":"경남 본부","grade":"C","verdict":"조건부 적합","bang":"불가","disturb":"차량영향(4m), 방위표지 불가","concl":"부적합 — 방위표지 설치 불가로 대체 후보지 검토","surveyor":"지적기사 조용진","date":"2026-07-23","elev":"292"}},{"type":"Feature","geometry":{"type":"Point","coordinates":[126.049945,34.872131]},"properties":{"mid":"DS-094","name":"자은 신규점1","hq":"광주전남 본부","grade":"B","verdict":"조건부 적합","bang":"가능","disturb":"차량영향(1m)","concl":"조건부 가능 — 현장 재확인 후 결정 (차량영향(1m))","surveyor":"윤재열","date":"2026-07-20","elev":"48"}},{"type":"Feature","geometry":{"type":"Point","coordinates":[126.061153,34.923019]},"properties":{"mid":"DS-095","name":"자은 신규점2","hq":"광주전남 본부","grade":"B","verdict":"조건부 적합","bang":"가능","disturb":"차량영향(1m)","concl":"조건부 가능 — 현장 재확인 후 결정 (차량영향(1m))","surveyor":"윤재열","date":"2026-07-20","elev":"33"}},{"type":"Feature","geometry":{"type":"Point","coordinates":[127.574659,35.586243]},"properties":{"mid":"DS-096","name":"함양 신규점","hq":"전북 본부","grade":"A","verdict":"적합","bang":"가능","disturb":"없음","concl":"선점 가능 — 자기구배 조사 진행","surveyor":"지적기술사 박상용","date":"2026-07-14","elev":"478"}},{"type":"Feature","geometry":{"type":"Point","coordinates":[127.43701,37.921057]},"properties":{"mid":"DS-097","name":"포천 신규점","hq":"서울경기북부 본부","grade":"C","verdict":"조건부 적합","bang":"불가","disturb":"건축물(82m), 방위표지 불가","concl":"부적합 — 방위표지 설치 불가로 대체 후보지 검토","surveyor":"구제운","date":"2026-07-14","elev":"560"}},{"type":"Feature","geometry":{"type":"Point","coordinates":[126.870305,37.927676]},"properties":{"mid":"DS-098","name":"문산 신규점","hq":"서울경기북부 본부","grade":"B","verdict":"조건부 적합","bang":"가능","disturb":"자연환경","concl":"조건부 가능 — 현장 재확인 후 결정 (자연환경)","surveyor":"지적산업기사 이승현","date":"2026-07-24","elev":"83"}},{"type":"Feature","geometry":{"type":"Point","coordinates":[126.425506,37.749954]},"properties":{"mid":"DS-099","name":"강화 신규점","hq":"인천경기남부 본부","grade":"B","verdict":"조건부 적합","bang":"가능","disturb":"자연환경","concl":"조건부 가능 — 현장 재확인 후 결정 (자연환경)","surveyor":"지적산업기사 한욱교","date":"2026-07-16","elev":"140"}},{"type":"Feature","geometry":{"type":"Point","coordinates":[126.720275,37.177691]},"properties":{"mid":"DS-100","name":"대부 신규점","hq":"인천경기남부 본부","grade":"B","verdict":"조건부 적합","bang":"가능","disturb":"자연환경","concl":"조건부 가능 — 현장 재확인 후 결정 (자연환경)","surveyor":"지적기사 서정원","date":"2026-07-30","elev":"90"}},{"type":"Feature","geometry":{"type":"Point","coordinates":[126.132526,36.756474]},"properties":{"mid":"DS-101","name":"만리포 신규점","hq":"대전세종충남 본부","grade":"B","verdict":"조건부 적합","bang":"가능","disturb":"통신시설, 매설물","concl":"조건부 가능 — 현장 재확인 후 결정 (통신시설, 매설물)","surveyor":"지적기사 윤병선","date":"2026-07-27","elev":"48"}},{"type":"Feature","geometry":{"type":"Point","coordinates":[126.645582,35.541753]},"properties":{"mid":"DS-102","name":"부안 신규점","hq":"전북 본부","grade":"A","verdict":"적합","bang":"가능","disturb":"없음","concl":"선점 가능 — 자기구배 조사 진행","surveyor":"지적기사 이성건","date":"2026-07-24","elev":"112"}},{"type":"Feature","geometry":{"type":"Point","coordinates":[126.235716,34.401337]},"properties":{"mid":"DS-103","name":"조도 신규점","hq":"광주전남 본부","grade":"B","verdict":"조건부 적합","bang":"가능","disturb":"자연환경(10mm)","concl":"조건부 가능 — 현장 재확인 후 결정 (자연환경(10mm))","surveyor":"김미영","date":"2026-07-15","elev":"180"}}]}