{
"type": "FeatureCollection",
"name": "zone_anomaly",
"crs": { "type": "name", "properties": { "name": "urn:ogc:def:crs:OGC:1.3:CRS84" } },
"features": [
{ "type": "Feature", "properties": { }, "geometry": { "type": "MultiPolygon", "coordinates": [ [ [ [ 126.524999999999892, 33.325 ], [ 126.474999999999895, 33.325 ], [ 126.474999999999895, 33.375 ], [ 126.524999999999892, 33.375 ], [ 126.524999999999892, 33.425 ], [ 126.574999999999889, 33.425 ], [ 126.574999999999889, 33.375 ], [ 126.624999999999886, 33.375 ], [ 126.624999999999886, 33.325 ], [ 126.574999999999889, 33.325 ], [ 126.524999999999892, 33.325 ] ] ], [ [ [ 127.874999999999801, 36.824999999999768 ], [ 127.874999999999801, 36.874999999999787 ], [ 127.874999999999801, 36.924999999999777 ], [ 127.824999999999804, 36.924999999999784 ], [ 127.824999999999804, 36.974999999999767 ], [ 127.874999999999801, 36.974999999999774 ], [ 127.924999999999798, 36.974999999999774 ], [ 127.974999999999795, 36.974999999999774 ], [ 127.974999999999795, 37.024999999999778 ], [ 128.024999999999778, 37.024999999999771 ], [ 128.07499999999979, 37.024999999999771 ], [ 128.07499999999979, 36.974999999999774 ], [ 128.024999999999807, 36.974999999999767 ], [ 128.024999999999807, 36.924999999999784 ], [ 127.974999999999795, 36.924999999999784 ], [ 127.974999999999795, 36.874999999999787 ], [ 127.924999999999798, 36.874999999999787 ], [ 127.924999999999798, 36.824999999999775 ], [ 127.874999999999801, 36.824999999999768 ] ] ], [ [ [ 128.824999999999761, 35.224999999999888 ], [ 128.824999999999761, 35.174999999999883 ], [ 128.774999999999778, 35.174999999999876 ], [ 128.724999999999767, 35.174999999999876 ], [ 128.724999999999767, 35.224999999999888 ], [ 128.77499999999975, 35.224999999999881 ], [ 128.824999999999761, 35.224999999999888 ] ] ], [ [ [ 128.024999999999807, 35.474999999999852 ], [ 127.974999999999795, 35.474999999999852 ], [ 127.974999999999795, 35.524999999999856 ], [ 128.024999999999807, 35.524999999999849 ], [ 128.024999999999807, 35.474999999999852 ] ] ], [ [ [ 128.824999999999761, 35.474999999999859 ], [ 128.824999999999761, 35.524999999999856 ], [ 128.874999999999744, 35.524999999999856 ], [ 128.874999999999744, 35.474999999999859 ], [ 128.824999999999761, 35.474999999999859 ] ] ], [ [ [ 128.024999999999778, 35.524999999999849 ], [ 128.024999999999778, 35.574999999999847 ], [ 128.07499999999979, 35.574999999999854 ], [ 128.07499999999979, 35.524999999999856 ], [ 128.024999999999778, 35.524999999999849 ] ] ], [ [ [ 128.174999999999812, 35.624999999999858 ], [ 128.124999999999801, 35.624999999999851 ], [ 128.124999999999801, 35.674999999999841 ], [ 128.174999999999812, 35.674999999999841 ], [ 128.174999999999812, 35.624999999999858 ] ] ], [ [ [ 129.174999999999756, 36.324999999999818 ], [ 129.124999999999744, 36.324999999999818 ], [ 129.124999999999744, 36.374999999999808 ], [ 129.174999999999756, 36.374999999999808 ], [ 129.174999999999756, 36.324999999999818 ] ] ] ] } }
]
}
